{
"type": "FeatureCollection",
"name": "Cities",
"crs": { "type": "name", "properties": { "name": "urn:ogc:def:crs:OGC:1.3:CRS84" } },
"xy_coordinate_resolution": 1e-06,
"features": [
{"type":"Feature","properties":{},"geometry":{"type":"Point","coordinates":[0.632865,9.688235]}},
{"type":"Feature","properties":{},"geometry":{"type":"Point","coordinates":[1.137101,9.018422]}},
{"type":"Feature","properties":{},"geometry":{"type":"Point","coordinates":[1.796955,9.4253]}},
{"type":"Feature","properties":{},"geometry":{"type":"Point","coordinates":[3.988301,10.177413]}},
{"type":"Feature","properties":{},"geometry":{"type":"Point","coordinates":[4.419174,8.149211]}},
{"type":"Feature","properties":{},"geometry":{"type":"Point","coordinates":[6.152452,8.319351]}},
{"type":"Feature","properties":{},"geometry":{"type":"Point","coordinates":[6.183997,4.822764]}},
{"type":"Feature","properties":{},"geometry":{"type":"Point","coordinates":[6.288359,6.533804]}},
{"type":"Feature","properties":{},"geometry":{"type":"Point","coordinates":[6.470398,9.521502]}},
{"type":"Feature","properties":{},"geometry":{"type":"Point","coordinates":[7.258175,8.316251]}},
{"type":"Feature","properties":{},"geometry":{"type":"Point","coordinates":[7.317944,1.051273]}},
{"type":"Feature","properties":{},"geometry":{"type":"Point","coordinates":[8.190134,4.774209]}},
{"type":"Feature","properties":{},"geometry":{"type":"Point","coordinates":[8.595915,5.5723]}},
{"type":"Feature","properties":{},"geometry":{"type":"Point","coordinates":[8.75734,5.665984]}},
{"type":"Feature","properties":{},"geometry":{"type":"Point","coordinates":[9.037762,5.734815]}},
{"type":"Feature","properties":{},"geometry":{"type":"Point","coordinates":[9.63683,10.357807]}},
{"type":"Feature","properties":{},"geometry":{"type":"Point","coordinates":[6.254022,4.964358]}},
{"type":"Feature","properties":{},"geometry":{"type":"Point","coordinates":[3.357823,7.339054]}},
{"type":"Feature","properties":{},"geometry":{"type":"Point","coordinates":[9.926786,10.641502]}},
{"type":"Feature","properties":{},"geometry":{"type":"Point","coordinates":[9.910053,10.60587]}},
{"type":"Feature","properties":{},"geometry":{"type":"Point","coordinates":[7.701346,10.926141]}},
{"type":"Feature","properties":{},"geometry":{"type":"Point","coordinates":[7.388204,9.95038]}},
{"type":"Feature","properties":{},"geometry":{"type":"Point","coordinates":[9.806889,2.840543]}},
{"type":"Feature","properties":{},"geometry":{"type":"Point","coordinates":[8.085473,3.080731]}},
{"type":"Feature","properties":{},"geometry":{"type":"Point","coordinates":[15.920957,3.82439]}},
{"type":"Feature","properties":{},"geometry":{"type":"Point","coordinates":[7.684682,3.282441]}},
{"type":"Feature","properties":{},"geometry":{"type":"Point","coordinates":[8.686602,2.81598]}},
{"type":"Feature","properties":{},"geometry":{"type":"Point","coordinates":[11.029002,2.331634]}},
{"type":"Feature","properties":{},"geometry":{"type":"Point","coordinates":[8.327374,3.699606]}},
{"type":"Feature","properties":{},"geometry":{"type":"Point","coordinates":[13.782108,2.478162]}}
]
}
