{
"type": "FeatureCollection",
"name": "lakes",
"crs": { "type": "name", "properties": { "name": "urn:ogc:def:crs:OGC:1.3:CRS84" } },
"xy_coordinate_resolution": 1e-06,
"features": [
{"type":"Feature","properties":{},"geometry":{"type":"Polygon","coordinates":[[[8.792115,10.374175],[8.781678,10.373565],[8.779035,10.376006],[8.791204,10.377224],[8.792115,10.374175]]]}},
{"type":"Feature","properties":{},"geometry":{"type":"Polygon","coordinates":[[[6.143839,8.314448],[6.143743,8.325081],[6.149713,8.325034],[6.146392,8.316951],[6.143839,8.314448]]]}},
{"type":"Feature","properties":{},"geometry":{"type":"Polygon","coordinates":[[[12.400301,8.475543],[12.425527,8.480287],[12.432565,8.47476],[12.449613,8.43864],[12.458353,8.429501],[12.480329,8.375411],[12.492606,8.364403],[12.512177,8.358572],[12.534023,8.372321],[12.575529,8.383803],[12.58833,8.394196],[12.599163,8.397498],[12.606238,8.393754],[12.640705,8.410744],[12.66591,8.415474],[12.692548,8.405894],[12.705081,8.405583],[12.717209,8.389225],[12.740255,8.379731],[12.752785,8.379418],[12.778248,8.394832],[12.796693,8.415773],[12.832946,8.432694],[12.845109,8.418119],[12.853103,8.38047],[12.878766,8.333461],[12.880149,8.317379],[12.902906,8.297194],[12.915294,8.291535],[12.931485,8.294696],[12.957116,8.317225],[12.967847,8.316953],[12.985458,8.305811],[13.008932,8.314125],[13.031077,8.340294],[13.049238,8.350525],[13.056853,8.368152],[13.069742,8.382077],[13.109826,8.40955],[13.126012,8.412692],[13.149627,8.426326],[13.178192,8.423801],[13.185486,8.428956],[13.194379,8.426941],[13.210609,8.431858],[13.226935,8.440334],[13.23766,8.440051],[13.253984,8.448524],[13.261085,8.446553],[13.26023,8.414517],[13.250965,8.402296],[13.241087,8.366934],[13.226414,8.353069],[13.213342,8.332035],[13.171257,8.295715],[13.156448,8.276496],[13.154154,8.256958],[13.162769,8.244268],[13.158735,8.226555],[13.167352,8.213866],[13.161579,8.197978],[13.164468,8.171183],[13.161953,8.142742],[13.154489,8.130459],[13.125272,8.106254],[13.117812,8.093971],[13.122812,8.079591],[13.147595,8.070059],[13.163226,8.051854],[13.170372,8.051677],[13.177339,8.044378],[13.180329,8.021145],[13.172559,7.996398],[13.171979,7.973254],[13.156804,7.937998],[13.177706,7.916108],[13.191947,7.913976],[13.198956,7.908459],[13.204002,7.895866],[13.199902,7.874592],[13.204642,7.849538],[13.168456,7.830827],[13.127086,7.819361],[13.108887,7.805551],[13.079972,7.791993],[13.056242,7.771178],[13.048458,7.744634],[13.056537,7.708801],[13.054029,7.678567],[13.068057,7.667543],[13.07992,7.640536],[13.097433,7.625868],[13.107593,7.602467],[13.191305,7.518551],[13.19802,7.500581],[13.197727,7.48812],[13.17557,7.456573],[13.169516,7.426431],[13.1528,7.398313],[13.155792,7.373305],[13.151772,7.353801],[13.122671,7.329526],[13.106541,7.326331],[13.093814,7.31593],[13.069416,7.263025],[13.060257,7.252539],[13.046349,7.268887],[13.041721,7.301066],[13.029795,7.326282],[13.040901,7.343853],[13.047024,7.377573],[13.060043,7.400442],[13.058832,7.425416],[13.03093,7.454565],[12.976183,7.480772],[12.945959,7.486809],[12.940891,7.499403],[12.941832,7.54038],[12.930322,7.583428],[12.921724,7.597887],[12.925876,7.622749],[12.920768,7.633563],[12.910214,7.640937],[12.865605,7.643753],[12.849245,7.63165],[12.847004,7.612087],[12.83019,7.580376],[12.828036,7.564377],[12.811635,7.550483],[12.809649,7.541612],[12.787811,7.52427],[12.778395,7.50308],[12.762238,7.499875],[12.754773,7.485775],[12.716351,7.445609],[12.666176,7.439581],[12.653591,7.436288],[12.639062,7.425901],[12.622987,7.426255],[12.610326,7.419396],[12.572648,7.41308],[12.528905,7.374762],[12.52118,7.348156],[12.492025,7.322009],[12.479098,7.302651],[12.457314,7.287047],[12.435303,7.260734],[12.408347,7.254155],[12.390214,7.242033],[12.346958,7.225081],[12.336198,7.223517],[12.32916,7.22902],[12.327702,7.245121],[12.347769,7.264347],[12.355856,7.308817],[12.350908,7.328562],[12.361895,7.34083],[12.378659,7.372613],[12.379268,7.401167],[12.363485,7.415788],[12.356829,7.439142],[12.379008,7.472591],[12.38355,7.517128],[12.339729,7.559146],[12.34,7.571639],[12.347583,7.591117],[12.346577,7.626851],[12.329272,7.654015],[12.304653,7.674196],[12.323216,7.704149],[12.323533,7.718428],[12.3044,7.74385],[12.286658,7.751382],[12.274402,7.764152],[12.244213,7.775534],[12.214297,7.799414],[12.191142,7.805282],[12.163122,7.834478],[12.165539,7.86301],[12.157582,7.988247],[12.148865,7.999161],[12.102849,8.025206],[12.128373,8.044288],[12.134148,8.062026],[12.14897,8.083132],[12.154876,8.106226],[12.176914,8.128953],[12.184451,8.144861],[12.199032,8.155248],[12.207108,8.194364],[12.229403,8.227787],[12.237112,8.250829],[12.246238,8.257762],[12.26599,8.259086],[12.277291,8.282041],[12.293633,8.290589],[12.312065,8.311588],[12.328408,8.320132],[12.339756,8.344863],[12.358273,8.369421],[12.362461,8.39432],[12.377143,8.408251],[12.400301,8.475543]],[[12.804082,7.99903],[12.818689,8.011164],[12.820735,8.021814],[12.813843,8.03268],[12.815847,8.041548],[12.803629,8.054326],[12.796518,8.05628],[12.794343,8.040282],[12.788762,8.031498],[12.788245,8.010109],[12.804082,7.99903]]]}},
{"type":"Feature","properties":{},"geometry":{"type":"Polygon","coordinates":[[[10.525845,4.652733],[10.543855,4.665095],[10.580088,4.709539],[10.585646,4.727412],[10.588104,4.788361],[10.575752,4.802847],[10.563239,4.802987],[10.545441,4.81036],[10.524243,4.833912],[10.492296,4.855794],[10.492376,4.862968],[10.553412,4.883808],[10.585899,4.91034],[10.643351,4.931198],[10.661394,4.945335],[10.689934,4.939624],[10.702508,4.944856],[10.767312,4.983532],[10.786994,4.985092],[10.808314,4.974083],[10.835076,4.970178],[10.872661,4.975103],[10.921167,4.996024],[10.968032,5.029497],[11.002037,5.03445],[11.021997,5.059286],[11.059779,5.080313],[11.109859,5.085054],[11.118902,5.093895],[11.160279,5.116652],[11.192425,5.116239],[11.212204,5.126729],[11.253408,5.136935],[11.266,5.143934],[11.290978,5.141819],[11.31442,5.159415],[11.346719,5.171519],[11.404704,5.235183],[11.433146,5.22585],[11.451261,5.245291],[11.449549,5.250683],[11.458861,5.279191],[11.482314,5.296763],[11.482487,5.309288],[11.489748,5.318134],[11.505688,5.308964],[11.512703,5.299919],[11.508783,5.274922],[11.522941,5.265781],[11.517367,5.249753],[11.533237,5.235222],[11.534852,5.222675],[11.556047,5.206282],[11.60774,5.201993],[11.621886,5.192853],[11.643218,5.187192],[11.651966,5.174552],[11.667874,5.163601],[11.681658,5.127639],[11.681513,5.11691],[11.690262,5.104271],[11.733011,5.100109],[11.748835,5.083796],[11.773897,5.090606],[11.802401,5.088427],[11.818521,5.093569],[11.834467,5.086198],[11.821692,5.064918],[11.754908,5.005029],[11.747705,4.999762],[11.729854,4.998215],[11.715423,4.98589],[11.700708,4.952105],[11.664581,4.916809],[11.642622,4.874164],[11.6175,4.861968],[11.597526,4.833603],[11.56536,4.828645],[11.55457,4.821626],[11.515197,4.811386],[11.502511,4.795441],[11.500458,4.773993],[11.468096,4.752924],[11.471443,4.734987],[11.455175,4.717291],[11.432118,4.728312],[11.405253,4.719691],[11.38406,4.737846],[11.369661,4.727283],[11.358959,4.727414],[11.33235,4.740269],[11.31797,4.731492],[11.27506,4.724847],[11.244512,4.707307],[11.232001,4.705667],[11.216025,4.71302],[11.192678,4.700762],[11.17481,4.699183],[11.157066,4.708346],[11.148538,4.742475],[11.109331,4.748314],[11.091354,4.73778],[11.053718,4.725683],[11.026729,4.708081],[11.001647,4.701204],[10.954613,4.647992],[10.916814,4.62154],[10.889944,4.614671],[10.861194,4.598863],[10.834129,4.574071],[10.818036,4.572455],[10.80367,4.565443],[10.773304,4.565774],[10.753596,4.560608],[10.697841,4.525356],[10.678229,4.529152],[10.658518,4.523982],[10.646068,4.529493],[10.63373,4.545762],[10.61058,4.553183],[10.603584,4.567605],[10.609134,4.585479],[10.593226,4.60179],[10.584482,4.619818],[10.572107,4.632506],[10.534706,4.645463],[10.525845,4.652733]]]}},
{"type":"Feature","properties":{},"geometry":{"type":"Polygon","coordinates":[[[16.24485,13.730367],[16.215744,13.726659],[16.195538,13.752475],[16.174525,13.764212],[16.166119,13.775264],[16.186437,13.782989],[16.20445,13.782007],[16.227178,13.800188],[16.241584,13.799397],[16.24838,13.791961],[16.277387,13.793893],[16.292468,13.773645],[16.292649,13.745394],[16.288449,13.735035],[16.279149,13.73025],[16.24485,13.730367]]]}},
{"type":"Feature","properties":{},"geometry":{"type":"Polygon","coordinates":[[[9.624624,4.29385],[9.622974,4.310039],[9.615861,4.315493],[9.615923,4.322681],[9.626711,4.327978],[9.632004,4.318947],[9.630073,4.302789],[9.624624,4.29385]]]}},
{"type":"Feature","properties":{},"geometry":{"type":"Polygon","coordinates":[[[9.229926,4.578964],[9.226248,4.568205],[9.217319,4.571881],[9.20476,4.570192],[9.201206,4.573821],[9.219236,4.586252],[9.226404,4.58619],[9.229926,4.578964]]]}},
{"type":"Feature","properties":{},"geometry":{"type":"Polygon","coordinates":[[[10.479926,7.046728],[10.469242,7.052283],[10.467764,7.072041],[10.493331,7.098534],[10.500511,7.098416],[10.518118,7.076606],[10.50523,7.057081],[10.479926,7.046728]],[[10.480273,7.06825],[10.490957,7.062694],[10.507374,7.078573],[10.493156,7.087773],[10.480273,7.06825]]]}},
{"type":"Feature","properties":{},"geometry":{"type":"Polygon","coordinates":[[[10.184805,6.920167],[10.174056,6.922125],[10.170574,6.929359],[10.192262,6.938005],[10.193894,6.927209],[10.184805,6.920167]]]}},
{"type":"Feature","properties":{},"geometry":{"type":"Polygon","coordinates":[[[10.049042,7.375554],[10.032914,7.3794],[10.031171,7.383019],[10.058289,7.391567],[10.049042,7.375554]]]}},
{"type":"Feature","properties":{},"geometry":{"type":"Polygon","coordinates":[[[10.316642,9.009526],[10.291376,9.010029],[10.28968,9.015447],[10.307802,9.018676],[10.314984,9.016739],[10.316642,9.009526]]]}},
{"type":"Feature","properties":{},"geometry":{"type":"Polygon","coordinates":[[[9.652298,8.860579],[9.639685,8.8626],[9.641621,8.869755],[9.650783,8.876781],[9.654299,8.871326],[9.652298,8.860579]]]}},
{"type":"Feature","properties":{},"geometry":{"type":"Polygon","coordinates":[[[9.574568,8.764219],[9.565411,8.75719],[9.55226,8.728658],[9.539553,8.725283],[9.543356,8.736002],[9.534483,8.745144],[9.563763,8.766206],[9.574568,8.764219]]]}},
{"type":"Feature","properties":{},"geometry":{"type":"Polygon","coordinates":[[[9.450358,9.470579],[9.441306,9.470746],[9.437753,9.474407],[9.455957,9.479465],[9.450358,9.470579]]]}},
{"type":"Feature","properties":{},"geometry":{"type":"Polygon","coordinates":[[[9.662758,9.654094],[9.651931,9.656101],[9.650226,9.661526],[9.663005,9.666669],[9.668331,9.661175],[9.662758,9.654094]]]}},
{"type":"Feature","properties":{},"geometry":{"type":"Polygon","coordinates":[[[9.782111,9.941989],[9.77494,9.945729],[9.778675,9.951043],[9.784035,9.94734],[9.782111,9.941989]]]}},
{"type":"Feature","properties":{},"geometry":{"type":"Polygon","coordinates":[[[9.659708,9.977646],[9.675981,9.975523],[9.695657,9.962547],[9.690184,9.96086],[9.664999,9.970352],[9.659708,9.977646]]]}},
{"type":"Feature","properties":{},"geometry":{"type":"Polygon","coordinates":[[[10.065679,10.045271],[10.046461,10.078007],[10.021174,10.16475],[10.027396,10.200535],[10.022156,10.209627],[10.015981,10.258249],[10.021618,10.267108],[10.022015,10.285059],[10.029504,10.295672],[10.03095,10.360292],[10.03663,10.370944],[10.050325,10.334726],[10.05472,10.287938],[10.067047,10.271506],[10.077037,10.231781],[10.079626,10.185037],[10.091393,10.14348],[10.065679,10.045271]]]}},
{"type":"Feature","properties":{},"geometry":{"type":"Polygon","coordinates":[[[10.495251,10.711713],[10.49145,10.704629],[10.484066,10.699426],[10.482341,10.703057],[10.495251,10.711713]]]}},
{"type":"Feature","properties":{},"geometry":{"type":"Polygon","coordinates":[[[10.509904,10.722951],[10.506367,10.726624],[10.522956,10.736989],[10.522866,10.733403],[10.509904,10.722951]]]}},
{"type":"Feature","properties":{},"geometry":{"type":"Polygon","coordinates":[[[10.68043,10.822105],[10.673223,10.824079],[10.682519,10.832813],[10.686007,10.827346],[10.68043,10.822105]]]}},
{"type":"Feature","properties":{},"geometry":{"type":"Polygon","coordinates":[[[10.485004,11.233444],[10.474013,11.230133],[10.472243,11.231972],[10.483328,11.238868],[10.485004,11.233444]]]}},
{"type":"Feature","properties":{},"geometry":{"type":"Polygon","coordinates":[[[10.757236,11.330119],[10.742906,11.337672],[10.744916,11.344792],[10.757723,11.348039],[10.766559,11.33884],[10.757236,11.330119]]]}},
{"type":"Feature","properties":{},"geometry":{"type":"Polygon","coordinates":[[[10.6715,11.717993],[10.655131,11.718432],[10.653362,11.720274],[10.668112,11.727053],[10.680794,11.724919],[10.6715,11.717993]]]}},
{"type":"Feature","properties":{},"geometry":{"type":"Polygon","coordinates":[[[9.326096,13.601646],[9.287415,13.599033],[9.284119,13.613504],[9.295907,13.641983],[9.310944,13.65419],[9.308328,13.693822],[9.315874,13.700822],[9.339622,13.694815],[9.352634,13.699873],[9.374641,13.697505],[9.409806,13.705589],[9.41314,13.692915],[9.409218,13.684025],[9.410518,13.664213],[9.406695,13.658917],[9.378839,13.648843],[9.344756,13.611958],[9.326096,13.601646]]]}},
{"type":"Feature","properties":{},"geometry":{"type":"Polygon","coordinates":[[[9.626576,11.776089],[9.608645,11.78909],[9.606951,11.794521],[9.612549,11.799783],[9.62158,11.795976],[9.62145,11.790587],[9.630353,11.781394],[9.626576,11.776089]]]}},
{"type":"Feature","properties":{},"geometry":{"type":"Polygon","coordinates":[[[9.547758,11.837246],[9.563917,11.826086],[9.570869,11.811545],[9.581767,11.809491],[9.590369,11.78772],[9.584942,11.789645],[9.572607,11.807909],[9.561794,11.813552],[9.556622,11.826255],[9.549454,11.831814],[9.547758,11.837246]]]}},
{"type":"Feature","properties":{},"geometry":{"type":"Polygon","coordinates":[[[9.635144,11.677036],[9.624209,11.677288],[9.62438,11.684473],[9.615309,11.686481],[9.62277,11.693497],[9.619295,11.700767],[9.599246,11.701234],[9.597637,11.710259],[9.563045,11.712858],[9.563131,11.716452],[9.597935,11.722834],[9.598063,11.728223],[9.583608,11.733953],[9.6001,11.737164],[9.605397,11.72985],[9.614468,11.727841],[9.624893,11.70603],[9.635788,11.703982],[9.631842,11.691492],[9.635144,11.677036]]]}},
{"type":"Feature","properties":{},"geometry":{"type":"Polygon","coordinates":[[[9.449895,11.46581],[9.431636,11.464418],[9.439253,11.478633],[9.434031,11.489536],[9.44136,11.491172],[9.443305,11.496523],[9.432536,11.503954],[9.425778,11.527477],[9.434808,11.523682],[9.451248,11.525113],[9.463468,11.501465],[9.463305,11.494277],[9.455936,11.490847],[9.457347,11.472836],[9.449895,11.46581]]]}},
{"type":"Feature","properties":{},"geometry":{"type":"Polygon","coordinates":[[[9.242794,11.710876],[9.217418,11.71863],[9.224957,11.729255],[9.22159,11.741921],[9.232739,11.750669],[9.236347,11.74879],[9.232415,11.736286],[9.233916,11.721864],[9.246686,11.721584],[9.250254,11.717909],[9.242794,11.710876]]]}},
{"type":"Feature","properties":{},"geometry":{"type":"Polygon","coordinates":[[[9.18009,11.740429],[9.163708,11.742582],[9.163788,11.746179],[9.178426,11.747661],[9.183819,11.743946],[9.18009,11.740429]]]}},
{"type":"Feature","properties":{},"geometry":{"type":"Polygon","coordinates":[[[9.113457,11.802685],[9.104213,11.797489],[9.102507,11.802923],[9.113457,11.802685]]]}},
{"type":"Feature","properties":{},"geometry":{"type":"Polygon","coordinates":[[[8.799889,11.583565],[8.783576,11.589291],[8.790987,11.594543],[8.805624,11.59605],[8.816425,11.588632],[8.799889,11.583565]]]}},
{"type":"Feature","properties":{},"geometry":{"type":"Polygon","coordinates":[[[7.323334,16.527534],[7.289817,16.53364],[7.265997,16.555771],[7.270014,16.568315],[7.283299,16.577061],[7.302071,16.580278],[7.32617,16.570758],[7.325847,16.556336],[7.33491,16.543523],[7.334749,16.536313],[7.323334,16.527534]]]}},
{"type":"Feature","properties":{},"geometry":{"type":"Polygon","coordinates":[[[7.343063,16.406291],[7.328322,16.415616],[7.338142,16.437052],[7.345331,16.424279],[7.343063,16.406291]]]}},
{"type":"Feature","properties":{},"geometry":{"type":"Polygon","coordinates":[[[8.641392,11.813606],[8.623158,11.815767],[8.619688,11.824837],[8.650748,11.824223],[8.641392,11.813606]]]}},
{"type":"Feature","properties":{},"geometry":{"type":"Polygon","coordinates":[[[8.633937,11.806553],[8.63021,11.803026],[8.619285,11.80504],[8.624839,11.808532],[8.633937,11.806553]]]}},
{"type":"Feature","properties":{},"geometry":{"type":"Polygon","coordinates":[[[8.514601,11.688247],[8.509301,11.697353],[8.513311,11.715284],[8.504463,11.729861],[8.512056,11.744121],[8.515674,11.742251],[8.513633,11.731485],[8.527923,11.715002],[8.524163,11.709672],[8.525703,11.695236],[8.514601,11.688247]]]}},
{"type":"Feature","properties":{},"geometry":{"type":"Polygon","coordinates":[[[8.364484,11.76855],[8.357174,11.768687],[8.355488,11.775924],[8.364836,11.786555],[8.385117,11.795182],[8.386663,11.780743],[8.364484,11.76855]]]}},
{"type":"Feature","properties":{},"geometry":{"type":"Polygon","coordinates":[[[8.455656,11.664164],[8.437499,11.669914],[8.433952,11.675385],[8.443191,11.680612],[8.446702,11.673341],[8.459416,11.669495],[8.455656,11.664164]]]}},
{"type":"Feature","properties":{},"geometry":{"type":"Polygon","coordinates":[[[8.463382,11.591978],[8.448705,11.588656],[8.447019,11.595892],[8.465383,11.600944],[8.474371,11.593569],[8.472476,11.590003],[8.463382,11.591978]]]}},
{"type":"Feature","properties":{},"geometry":{"type":"Polygon","coordinates":[[[8.344581,11.562297],[8.330042,11.566171],[8.326562,11.575242],[8.35571,11.571096],[8.344581,11.562297]]]}},
{"type":"Feature","properties":{},"geometry":{"type":"Polygon","coordinates":[[[8.142777,11.562637],[8.11906,11.564857],[8.113679,11.570356],[8.119259,11.575665],[8.15025,11.571513],[8.151976,11.566077],[8.142777,11.562637]]]}},
{"type":"Feature","properties":{},"geometry":{"type":"Polygon","coordinates":[[[7.826012,11.511497],[7.81316,11.508108],[7.811456,11.515346],[7.82245,11.516965],[7.826012,11.511497]]]}},
{"type":"Feature","properties":{},"geometry":{"type":"Polygon","coordinates":[[[7.661583,11.449451],[7.666977,11.443956],[7.663174,11.435001],[7.65392,11.427936],[7.635618,11.426422],[7.657811,11.442299],[7.661583,11.449451]]]}},
{"type":"Feature","properties":{},"geometry":{"type":"Polygon","coordinates":[[[7.492998,10.059096],[7.474778,10.057539],[7.464011,10.068507],[7.464085,10.073916],[7.473208,10.075595],[7.478816,10.08634],[7.491553,10.086167],[7.50419,10.078782],[7.502245,10.069791],[7.492998,10.059096]],[[7.484025,10.068234],[7.493198,10.073521],[7.489634,10.078979],[7.484175,10.079054],[7.478616,10.071915],[7.484025,10.068234]]]}},
{"type":"Feature","properties":{},"geometry":{"type":"Polygon","coordinates":[[[7.516001,9.971098],[7.501325,9.962278],[7.495721,9.951532],[7.484783,9.949875],[7.481194,9.95353],[7.492429,9.976825],[7.516001,9.971098]]]}},
{"type":"Feature","properties":{},"geometry":{"type":"Polygon","coordinates":[[[7.388667,9.522188],[7.410399,9.516504],[7.401222,9.509405],[7.406557,9.500319],[7.401038,9.494978],[7.364658,9.491822],[7.350193,9.497414],[7.348514,9.508259],[7.363162,9.517094],[7.36691,9.526067],[7.377812,9.525931],[7.386989,9.533031],[7.388667,9.522188]],[[7.388597,9.516778],[7.375926,9.520544],[7.370383,9.513397],[7.379445,9.51148],[7.388597,9.516778]]]}},
{"type":"Feature","properties":{},"geometry":{"type":"Polygon","coordinates":[[[8.924635,6.857345],[8.917434,6.857433],[8.9157,6.862853],[8.928325,6.864497],[8.924635,6.857345]]]}},
{"type":"Feature","properties":{},"geometry":{"type":"Polygon","coordinates":[[[8.918901,6.830421],[8.915345,6.834064],[8.915389,6.837663],[8.920768,6.835797],[8.918901,6.830421]]]}},
{"type":"Feature","properties":{},"geometry":{"type":"Polygon","coordinates":[[[8.922213,6.806986],[8.895187,6.805516],[8.893452,6.810936],[8.922279,6.812384],[8.922213,6.806986]]]}},
{"type":"Feature","properties":{},"geometry":{"type":"Polygon","coordinates":[[[8.898391,6.773083],[8.894747,6.769528],[8.891169,6.771371],[8.891212,6.774969],[8.898391,6.773083]]]}},
{"type":"Feature","properties":{},"geometry":{"type":"Polygon","coordinates":[[[8.903726,6.76762],[8.900126,6.767663],[8.901948,6.769441],[8.903726,6.76762]]]}},
{"type":"Feature","properties":{},"geometry":{"type":"Polygon","coordinates":[[[8.905461,6.7622],[8.912639,6.760313],[8.910752,6.753138],[8.905417,6.758601],[8.905461,6.7622]]]}},
{"type":"Feature","properties":{},"geometry":{"type":"Polygon","coordinates":[[[8.892816,6.758753],[8.889237,6.760596],[8.889281,6.764195],[8.89466,6.76233],[8.892816,6.758753]]]}},
{"type":"Feature","properties":{},"geometry":{"type":"Polygon","coordinates":[[[8.866689,6.831058],[8.864844,6.827481],[8.859466,6.829347],[8.85951,6.832946],[8.866689,6.831058]]]}},
{"type":"Feature","properties":{},"geometry":{"type":"Polygon","coordinates":[[[8.852221,6.825836],[8.84862,6.825881],[8.850464,6.829458],[8.852221,6.825836]]]}},
{"type":"Feature","properties":{},"geometry":{"type":"Polygon","coordinates":[[[8.843658,6.861938],[8.856283,6.863582],[8.852616,6.858228],[8.843613,6.858338],[8.843658,6.861938]]]}},
{"type":"Feature","properties":{},"geometry":{"type":"Polygon","coordinates":[[[8.834436,6.844052],[8.830878,6.847695],[8.834524,6.85125],[8.836302,6.849429],[8.834436,6.844052]]]}},
{"type":"Feature","properties":{},"geometry":{"type":"Polygon","coordinates":[[[8.816024,6.856877],[8.814311,6.864097],[8.821491,6.862209],[8.816024,6.856877]]]}},
{"type":"Feature","properties":{},"geometry":{"type":"Polygon","coordinates":[[[8.826994,6.824344],[8.839618,6.82599],[8.839552,6.820592],[8.817795,6.808257],[8.801634,6.812053],[8.807101,6.817386],[8.805366,6.822808],[8.814456,6.829897],[8.825281,6.831565],[8.826994,6.824344]]]}},
{"type":"Feature","properties":{},"geometry":{"type":"Polygon","coordinates":[[[8.781633,6.796092],[8.774452,6.797978],[8.78352,6.80327],[8.785278,6.799649],[8.781633,6.796092]]]}},
{"type":"Feature","properties":{},"geometry":{"type":"Polygon","coordinates":[[[8.840137,6.719794],[8.834737,6.719858],[8.833002,6.725279],[8.840201,6.725192],[8.840137,6.719794]]]}},
{"type":"Feature","properties":{},"geometry":{"type":"Polygon","coordinates":[[[8.779274,6.749319],[8.779124,6.736721],[8.766457,6.73147],[8.759298,6.735154],[8.775695,6.751162],[8.779274,6.749319]]]}},
{"type":"Feature","properties":{},"geometry":{"type":"Polygon","coordinates":[[[8.109176,5.658164],[8.102013,5.661831],[8.111086,5.670761],[8.121862,5.668864],[8.121799,5.661657],[8.109176,5.658164]]]}},
{"type":"Feature","properties":{},"geometry":{"type":"Polygon","coordinates":[[[8.441181,6.415866],[8.435819,6.419526],[8.439496,6.42669],[8.443058,6.42305],[8.441181,6.415866]]]}},
{"type":"Feature","properties":{},"geometry":{"type":"Polygon","coordinates":[[[8.49199,6.453138],[8.492107,6.463943],[8.495746,6.467506],[8.497449,6.458482],[8.49199,6.453138]]]}},
{"type":"Feature","properties":{},"geometry":{"type":"Polygon","coordinates":[[[8.504826,6.474611],[8.503104,6.481833],[8.504924,6.483614],[8.506705,6.481794],[8.504826,6.474611]]]}},
{"type":"Feature","properties":{},"geometry":{"type":"Polygon","coordinates":[[[8.324493,6.44952],[8.322843,6.463948],[8.326463,6.465711],[8.328131,6.453084],[8.324493,6.44952]]]}},
{"type":"Feature","properties":{},"geometry":{"type":"Polygon","coordinates":[[[8.315754,6.474831],[8.312153,6.47487],[8.314104,6.48926],[8.315887,6.48744],[8.315754,6.474831]]]}},
{"type":"Feature","properties":{},"geometry":{"type":"Polygon","coordinates":[[[8.368682,6.540918],[8.363279,6.540975],[8.359755,6.548218],[8.365158,6.54816],[8.368682,6.540918]]]}},
{"type":"Feature","properties":{},"geometry":{"type":"Polygon","coordinates":[[[8.423374,6.60157],[8.419871,6.610614],[8.427213,6.623141],[8.428875,6.610515],[8.423374,6.60157]]]}},
{"type":"Feature","properties":{},"geometry":{"type":"Polygon","coordinates":[[[8.32598,6.590012],[8.320596,6.591871],[8.320672,6.599076],[8.327858,6.597197],[8.32598,6.590012]]]}},
{"type":"Feature","properties":{},"geometry":{"type":"Polygon","coordinates":[[[8.202941,6.707505],[8.18312,6.707717],[8.158024,6.720594],[8.142165,6.754997],[8.144216,6.778399],[8.162877,6.837663],[8.208272,6.8678],[8.228118,6.869384],[8.240696,6.865643],[8.269239,6.838308],[8.267358,6.831122],[8.276191,6.814812],[8.272311,6.789633],[8.281223,6.780529],[8.282927,6.771503],[8.280948,6.755311],[8.264535,6.737472],[8.202941,6.707505]],[[8.191834,6.713145],[8.199255,6.717062],[8.194427,6.725723],[8.185831,6.727045],[8.181121,6.717871],[8.191834,6.713145]]]}},
{"type":"Feature","properties":{},"geometry":{"type":"Polygon","coordinates":[[[8.222807,10.846883],[8.217341,10.846977],[8.215613,10.852411],[8.228461,10.857596],[8.222807,10.846883]]]}},
{"type":"Feature","properties":{},"geometry":{"type":"Polygon","coordinates":[[[9.513135,11.091758],[9.505898,11.093712],[9.509735,11.102618],[9.522392,11.09875],[9.513135,11.091758]]]}},
{"type":"Feature","properties":{},"geometry":{"type":"Polygon","coordinates":[[[9.065235,11.105603],[9.059847,11.10931],[9.059922,11.112907],[9.070771,11.109088],[9.065235,11.105603]]]}},
{"type":"Feature","properties":{},"geometry":{"type":"Polygon","coordinates":[[[6.632173,17.064097],[6.620953,17.066099],[6.611749,17.075287],[6.594832,17.073781],[6.563356,17.095999],[6.524265,17.112932],[6.516895,17.120279],[6.518976,17.131073],[6.534226,17.143441],[6.552991,17.143108],[6.56394,17.126671],[6.571377,17.12293],[6.62947,17.118286],[6.634854,17.105557],[6.660765,17.087046],[6.656837,17.078095],[6.647424,17.07646],[6.632173,17.064097]]]}},
{"type":"Feature","properties":{},"geometry":{"type":"Polygon","coordinates":[[[6.698521,16.907702],[6.664895,16.913725],[6.639074,16.935841],[6.64345,16.96825],[6.626994,16.990195],[6.634737,17.002692],[6.651648,17.004196],[6.659252,17.009474],[6.681751,17.009065],[6.694628,16.996198],[6.719035,16.997555],[6.726426,16.992003],[6.725963,16.968552],[6.699438,16.954604],[6.699085,16.936566],[6.710047,16.921929],[6.709905,16.914713],[6.698521,16.907702]]]}},
{"type":"Feature","properties":{},"geometry":{"type":"Polygon","coordinates":[[[6.306534,14.956662],[6.269428,14.959002],[6.252798,14.964656],[6.236276,14.977529],[6.217706,14.977787],[6.200886,14.970805],[6.189744,14.970963],[6.184227,14.974653],[6.184307,14.980069],[6.191842,14.987184],[6.216119,14.995865],[6.249957,15.022473],[6.259793,15.058443],[6.2769,15.083474],[6.284386,15.086977],[6.327114,15.086349],[6.366497,15.109237],[6.392966,15.137727],[6.393485,15.170215],[6.404838,15.182681],[6.457077,15.194516],[6.481236,15.194143],[6.49994,15.201077],[6.507732,15.222617],[6.528538,15.243952],[6.597798,15.271722],[6.625961,15.287518],[6.639286,15.305351],[6.652424,15.312356],[6.65655,15.335752],[6.677224,15.348046],[6.683087,15.364192],[6.700172,15.383758],[6.730021,15.388669],[6.765321,15.386275],[6.787765,15.393113],[6.798857,15.389315],[6.796769,15.376718],[6.779774,15.36257],[6.768261,15.342914],[6.74563,15.325248],[6.695023,15.30263],[6.658576,15.238258],[6.658015,15.20578],[6.663371,15.193059],[6.648072,15.168039],[6.625624,15.159376],[6.545525,15.148019],[6.524909,15.13751],[6.511874,15.135908],[6.496745,15.119896],[6.459443,15.111441],[6.448093,15.09898],[6.44609,15.089985],[6.44577,15.070133],[6.451079,15.053804],[6.446814,15.019571],[6.435586,15.014328],[6.405818,15.011166],[6.338207,14.963417],[6.306534,14.956662]]]}},
{"type":"Feature","properties":{},"geometry":{"type":"Polygon","coordinates":[[[6.61197,11.613212],[6.600799,11.598907],[6.589838,11.600851],[6.580823,11.611796],[6.580869,11.615406],[6.595585,11.620636],[6.61197,11.613212]]]}},
{"type":"Feature","properties":{},"geometry":{"type":"Polygon","coordinates":[[[7.057694,11.377539],[7.043016,11.374132],[7.013837,11.379945],[7.008453,11.387236],[6.995728,11.392822],[6.994127,11.409084],[6.986912,11.416398],[6.957803,11.427622],[6.95422,11.433084],[6.965218,11.434738],[6.974287,11.4292],[6.988918,11.429002],[6.994329,11.423517],[7.007131,11.423343],[7.014344,11.416027],[7.028948,11.414022],[7.032657,11.417581],[7.03804,11.410289],[7.052669,11.410087],[7.045252,11.402972],[7.059752,11.393751],[7.050584,11.392073],[7.050431,11.381248],[7.057694,11.377539]]]}},
{"type":"Feature","properties":{},"geometry":{"type":"Polygon","coordinates":[[[7.309663,11.428067],[7.296866,11.428255],[7.296921,11.431862],[7.309854,11.440691],[7.328052,11.435008],[7.309663,11.428067]]]}},
{"type":"Feature","properties":{},"geometry":{"type":"Polygon","coordinates":[[[7.069669,11.117854],[7.064239,11.121536],[7.0771,11.126773],[7.078902,11.124944],[7.069669,11.117854]]]}},
{"type":"Feature","properties":{},"geometry":{"type":"Polygon","coordinates":[[[6.601854,11.102466],[6.58545,11.106274],[6.580078,11.115366],[6.570984,11.119086],[6.57105,11.124501],[6.596704,11.129607],[6.611282,11.125824],[6.613065,11.122192],[6.607515,11.116842],[6.61106,11.107773],[6.601854,11.102466]],[[6.59544,11.112428],[6.60179,11.115097],[6.594798,11.121919],[6.587647,11.115766],[6.59544,11.112428]]]}},
{"type":"Feature","properties":{},"geometry":{"type":"Polygon","coordinates":[[[6.616267,10.869795],[6.583244,10.857543],[6.577852,10.864828],[6.581548,10.868395],[6.594308,10.866439],[6.603526,10.873552],[6.616267,10.869795]]]}},
{"type":"Feature","properties":{},"geometry":{"type":"Polygon","coordinates":[[[6.639184,10.771052],[6.626491,10.778422],[6.633945,10.790971],[6.632272,10.803628],[6.648725,10.80524],[6.653917,10.781711],[6.639184,10.771052]]]}},
{"type":"Feature","properties":{},"geometry":{"type":"Polygon","coordinates":[[[6.878389,10.63279],[6.900439,10.645151],[6.911385,10.645014],[6.905774,10.634256],[6.892959,10.630806],[6.878389,10.63279]]]}},
{"type":"Feature","properties":{},"geometry":{"type":"Polygon","coordinates":[[[7.001758,10.526136],[6.987171,10.526319],[6.987218,10.529927],[7.000051,10.535179],[7.003791,10.54235],[7.012908,10.542236],[7.013002,10.549452],[7.025788,10.551095],[7.034787,10.541958],[7.001758,10.526136]]]}},
{"type":"Feature","properties":{},"geometry":{"type":"Polygon","coordinates":[[[7.179104,10.15445],[7.199178,10.157798],[7.224547,10.148449],[7.20431,10.132474],[7.204239,10.127063],[7.186011,10.125494],[7.176815,10.118395],[7.153148,10.118694],[7.136879,10.127919],[7.147895,10.134998],[7.138908,10.144133],[7.177167,10.145454],[7.179104,10.15445]]]}},
{"type":"Feature","properties":{},"geometry":{"type":"Polygon","coordinates":[[[7.116061,9.289948],[7.101531,9.290114],[7.074414,9.301254],[7.070823,9.304904],[7.070991,9.319338],[7.094667,9.324478],[7.098151,9.311807],[7.118131,9.311576],[7.130676,9.296997],[7.116061,9.289948]],[[7.087191,9.30652],[7.090908,9.313695],[7.076377,9.313863],[7.079926,9.306604],[7.087191,9.30652]],[[7.1145,9.303139],[7.11035,9.30618],[7.098617,9.304985],[7.105433,9.300914],[7.1145,9.303139]]]}},
{"type":"Feature","properties":{},"geometry":{"type":"Polygon","coordinates":[[[6.587406,9.036677],[6.605548,9.034693],[6.600064,9.031136],[6.587406,9.036677]]]}},
{"type":"Feature","properties":{},"geometry":{"type":"Polygon","coordinates":[[[6.980592,8.772986],[6.969709,8.773102],[6.964345,8.780377],[6.973452,8.783889],[6.984317,8.78197],[6.980592,8.772986]]]}},
{"type":"Feature","properties":{},"geometry":{"type":"Polygon","coordinates":[[[6.69123,8.653616],[6.656783,8.655755],[6.649614,8.66485],[6.671399,8.666446],[6.693096,8.659014],[6.69123,8.653616]]]}},
{"type":"Feature","properties":{},"geometry":{"type":"Polygon","coordinates":[[[6.554217,8.341262],[6.543405,8.348582],[6.534487,8.364912],[6.534733,8.391994],[6.538358,8.391961],[6.550852,8.370181],[6.554217,8.341262]]]}},
{"type":"Feature","properties":{},"geometry":{"type":"Polygon","coordinates":[[[6.44937,7.273787],[6.434972,7.282926],[6.43685,7.291941],[6.449439,7.282815],[6.44937,7.273787]]]}},
{"type":"Feature","properties":{},"geometry":{"type":"Polygon","coordinates":[[[7.310499,5.971358],[7.299731,5.976855],[7.292509,5.975107],[7.288962,5.982351],[7.296212,5.987707],[7.315932,5.974923],[7.310499,5.971358]]]}},
{"type":"Feature","properties":{},"geometry":{"type":"Polygon","coordinates":[[[7.574058,5.845766],[7.548877,5.84958],[7.543533,5.856837],[7.547164,5.860414],[7.572389,5.862011],[7.583134,5.854708],[7.574058,5.845766]]]}},
{"type":"Feature","properties":{},"geometry":{"type":"Polygon","coordinates":[[[7.343933,4.835874],[7.336751,4.837725],[7.340533,4.866564],[7.362254,4.888071],[7.380275,4.893366],[7.371094,4.864563],[7.356636,4.853832],[7.343933,4.835874]]]}},
{"type":"Feature","properties":{},"geometry":{"type":"Polygon","coordinates":[[[7.238983,4.864359],[7.210216,4.866344],[7.210238,4.869953],[7.233621,4.869805],[7.238983,4.864359]]]}},
{"type":"Feature","properties":{},"geometry":{"type":"Polygon","coordinates":[[[6.566856,4.554214],[6.557904,4.563287],[6.568736,4.570456],[6.572416,4.586688],[6.58322,4.588438],[6.581376,4.57942],[6.584956,4.57579],[6.599359,4.577522],[6.599341,4.573911],[6.574098,4.563206],[6.566856,4.554214]]]}},
{"type":"Feature","properties":{},"geometry":{"type":"Polygon","coordinates":[[[6.410874,4.785202],[6.387481,4.787124],[6.385689,4.788939],[6.396535,4.797915],[6.418147,4.799613],[6.421712,4.792371],[6.410874,4.785202]]]}},
{"type":"Feature","properties":{},"geometry":{"type":"Polygon","coordinates":[[[5.951795,6.18089],[5.937354,6.180971],[5.930163,6.186431],[5.906695,6.186561],[5.926603,6.195485],[5.919411,6.200945],[5.928478,6.208121],[5.953721,6.20256],[5.971793,6.20607],[5.975363,6.198824],[5.971722,6.193424],[5.951795,6.18089]]]}},
{"type":"Feature","properties":{},"geometry":{"type":"Polygon","coordinates":[[[5.897317,7.548348],[5.871887,7.535867],[5.871934,7.543094],[5.877413,7.550285],[5.888348,7.561054],[5.899235,7.564596],[5.897317,7.548348]]]}},
{"type":"Feature","properties":{},"geometry":{"type":"Polygon","coordinates":[[[6.168517,8.005577],[6.148655,8.014761],[6.165033,8.023666],[6.168727,8.032669],[6.174163,8.032627],[6.17783,8.038017],[6.188702,8.037931],[6.204938,8.028774],[6.195751,8.01259],[6.168517,8.005577]],[[6.186777,8.023497],[6.185007,8.02893],[6.174121,8.027208],[6.174093,8.023596],[6.186777,8.023497]]]}},
{"type":"Feature","properties":{},"geometry":{"type":"Polygon","coordinates":[[[6.283911,8.605363],[6.280312,8.609006],[6.296752,8.621507],[6.300303,8.612446],[6.283911,8.605363]]]}},
{"type":"Feature","properties":{},"geometry":{"type":"Polygon","coordinates":[[[5.858469,11.049378],[5.851154,11.049446],[5.847549,11.054899],[5.869564,11.061922],[5.875033,11.060064],[5.858469,11.049378]]]}},
{"type":"Feature","properties":{},"geometry":{"type":"Polygon","coordinates":[[[6.649765,11.606151],[6.640611,11.606266],[6.640681,11.611681],[6.651807,11.622372],[6.660985,11.62406],[6.660867,11.615036],[6.649765,11.606151]]]}},
{"type":"Feature","properties":{},"geometry":{"type":"Polygon","coordinates":[[[6.066611,11.625411],[6.059323,11.629102],[6.079593,11.639719],[6.081385,11.636087],[6.066611,11.625411]]]}},
{"type":"Feature","properties":{},"geometry":{"type":"Polygon","coordinates":[[[6.140434,11.67338],[6.13681,11.677032],[6.147925,11.687746],[6.16075,11.687605],[6.151467,11.676871],[6.140434,11.67338]]]}},
{"type":"Feature","properties":{},"geometry":{"type":"Polygon","coordinates":[[[6.070391,14.396539],[6.079479,14.383779],[6.084738,14.362039],[6.082614,14.342202],[6.087996,14.329491],[6.081924,14.291647],[6.068768,14.277372],[6.054006,14.281176],[6.054128,14.290204],[6.06363,14.308139],[6.058124,14.311823],[6.043141,14.299376],[6.032128,14.306741],[6.032273,14.317575],[6.047453,14.344468],[6.067996,14.356841],[6.064711,14.387584],[6.070391,14.396539]]]}},
{"type":"Feature","properties":{},"geometry":{"type":"Polygon","coordinates":[[[5.694922,14.142805],[5.685689,14.144716],[5.663668,14.161222],[5.663879,14.179285],[5.658409,14.186572],[5.647197,14.177663],[5.634321,14.18503],[5.623566,14.215857],[5.634822,14.22838],[5.642229,14.2283],[5.655044,14.215513],[5.668216,14.233429],[5.671877,14.229775],[5.668026,14.217173],[5.675305,14.206252],[5.667878,14.20453],[5.667835,14.200918],[5.673304,14.19363],[5.68437,14.189892],[5.686008,14.171809],[5.702711,14.175232],[5.721395,14.189469],[5.734289,14.183906],[5.745244,14.171137],[5.76186,14.167336],[5.761794,14.161918],[5.752474,14.156605],[5.741411,14.160343],[5.724687,14.155111],[5.702497,14.15717],[5.694922,14.142805]]]}},
{"type":"Feature","properties":{},"geometry":{"type":"Polygon","coordinates":[[[6.121613,14.482546],[6.112297,14.479057],[6.106864,14.488157],[6.110797,14.504357],[6.103535,14.515288],[6.107392,14.526072],[6.120366,14.525901],[6.124022,14.522241],[6.12024,14.516874],[6.123795,14.505992],[6.119962,14.497014],[6.121613,14.482546]]]}},
{"type":"Feature","properties":{},"geometry":{"type":"Polygon","coordinates":[[[6.253179,14.73354],[6.210542,14.735939],[6.210886,14.759407],[6.22761,14.76098],[6.25014,14.778722],[6.276195,14.783772],[6.273825,14.749501],[6.253179,14.73354]]]}},
{"type":"Feature","properties":{},"geometry":{"type":"Polygon","coordinates":[[[5.998999,14.675575],[5.967588,14.685004],[5.939667,14.67814],[5.923069,14.685576],[5.921382,14.69824],[5.932778,14.717961],[5.960727,14.726631],[5.981406,14.746232],[5.994667,14.765927],[6.02087,14.781842],[6.01914,14.790894],[6.008179,14.803677],[6.008503,14.82715],[6.029096,14.839523],[6.062531,14.840883],[6.077303,14.835266],[6.094032,14.836844],[6.099704,14.843993],[6.153818,14.863125],[6.172247,14.853842],[6.175907,14.85018],[6.173945,14.842985],[6.140276,14.825389],[6.139809,14.792893],[6.160142,14.787199],[6.154262,14.765611],[6.13563,14.760446],[6.114862,14.735444],[6.096284,14.733884],[6.073567,14.701685],[6.03256,14.687783],[6.015841,14.686194],[5.998999,14.675575]]]}},
{"type":"Feature","properties":{},"geometry":{"type":"Polygon","coordinates":[[[6.017668,15.020261],[5.993592,15.025995],[5.990052,15.038683],[5.997661,15.051224],[6.03322,15.068814],[6.046227,15.06864],[6.05353,15.05951],[6.075929,15.066427],[6.079593,15.062764],[6.090766,15.064416],[6.088492,15.035556],[6.06798,15.03042],[6.036398,15.030849],[6.030799,15.029117],[6.030724,15.0237],[6.017668,15.020261]]]}},
{"type":"Feature","properties":{},"geometry":{"type":"Polygon","coordinates":[[[5.998773,15.119834],[5.98953,15.123568],[5.977023,15.159848],[5.969536,15.156333],[5.969284,15.138277],[5.965516,15.134715],[5.956348,15.143867],[5.950696,15.138525],[5.943261,15.138623],[5.941477,15.144064],[5.943511,15.156679],[5.95469,15.158337],[5.964186,15.172658],[5.980919,15.17244],[5.984714,15.177808],[5.983159,15.1995],[5.986929,15.203062],[5.9962,15.201133],[6.001676,15.193837],[5.99732,15.148748],[6.006283,15.125152],[5.998773,15.119834]]]}},
{"type":"Feature","properties":{},"geometry":{"type":"Polygon","coordinates":[[[6.096163,15.369512],[6.073809,15.36802],[6.057195,15.377281],[6.055255,15.371891],[6.077159,15.342692],[6.060415,15.342927],[6.045847,15.364799],[6.038456,15.368511],[6.036412,15.355897],[6.02344,15.359684],[6.019666,15.356124],[6.017494,15.334483],[6.004548,15.340074],[6.006641,15.356299],[5.997389,15.360035],[5.997312,15.354618],[5.982221,15.340372],[5.969272,15.345958],[5.963537,15.3352],[5.946767,15.33362],[5.942895,15.322835],[5.948299,15.310122],[5.940807,15.30661],[5.926251,15.330282],[5.933895,15.344628],[5.915414,15.353902],[5.899166,15.390233],[5.899241,15.39565],[5.908446,15.388306],[5.91408,15.391845],[5.914282,15.40629],[5.901428,15.419099],[5.901578,15.429934],[5.905603,15.451553],[5.909377,15.455116],[5.920522,15.453164],[5.913252,15.465901],[5.913404,15.476735],[5.926564,15.48559],[5.923171,15.509113],[5.934292,15.505352],[5.946994,15.481702],[5.963776,15.483281],[5.965483,15.472422],[5.989739,15.475713],[5.989635,15.468491],[5.980119,15.45417],[5.987256,15.432405],[5.977923,15.430723],[5.970579,15.438042],[5.964969,15.436311],[5.964841,15.427284],[5.984879,15.39632],[5.981002,15.385535],[5.984621,15.378264],[5.997674,15.379895],[6.001499,15.387067],[6.014422,15.37967],[6.018196,15.383231],[6.000105,15.419592],[6.003905,15.424958],[6.01135,15.424857],[6.022414,15.417484],[6.02771,15.397549],[6.046267,15.393685],[6.059399,15.400725],[6.070353,15.386126],[6.07955,15.378774],[6.094382,15.374954],[6.096163,15.369512]],[[5.94191,15.38796],[5.947672,15.400524],[5.960725,15.402153],[5.962663,15.407545],[5.960955,15.418403],[5.953587,15.423921],[5.938594,15.4169],[5.929136,15.40619],[5.928984,15.395356],[5.94191,15.38796]]]}},
{"type":"Feature","properties":{},"geometry":{"type":"Polygon","coordinates":[[[5.970871,15.513885],[5.954163,15.517724],[5.94697,15.535881],[5.965542,15.532016],[5.972862,15.522888],[5.970871,15.513885]]]}},
{"type":"Feature","properties":{},"geometry":{"type":"Polygon","coordinates":[[[5.984295,15.540796],[5.971258,15.540969],[5.96399,15.553708],[5.97708,15.557144],[5.9844,15.548019],[5.984295,15.540796]]]}},
{"type":"Feature","properties":{},"geometry":{"type":"Polygon","coordinates":[[[5.784347,15.434461],[5.778762,15.434531],[5.767759,15.447311],[5.767831,15.452727],[5.756731,15.458284],[5.755204,15.483589],[5.758976,15.487154],[5.771868,15.476158],[5.775423,15.46347],[5.790126,15.448838],[5.784347,15.434461]]]}},
{"type":"Feature","properties":{},"geometry":{"type":"Polygon","coordinates":[[[5.762273,15.23303],[5.75674,15.23671],[5.758978,15.265581],[5.766372,15.261879],[5.76995,15.250998],[5.769808,15.240163],[5.762273,15.23303]]]}},
{"type":"Feature","properties":{},"geometry":{"type":"Polygon","coordinates":[[[5.779549,15.131672],[5.774019,15.135351],[5.774443,15.167858],[5.757966,15.187927],[5.763757,15.204113],[5.772961,15.196776],[5.776492,15.182283],[5.789342,15.169481],[5.789105,15.151423],[5.779549,15.131672]]]}},
{"type":"Feature","properties":{},"geometry":{"type":"Polygon","coordinates":[[[5.829623,15.122013],[5.820329,15.122131],[5.803717,15.131372],[5.798211,15.136859],[5.798353,15.147694],[5.820615,15.143801],[5.831601,15.131019],[5.829623,15.122013]]]}},
{"type":"Feature","properties":{},"geometry":{"type":"Polygon","coordinates":[[[5.847489,15.067604],[5.838173,15.065915],[5.829336,15.100342],[5.833221,15.112937],[5.842443,15.1074],[5.847875,15.096497],[5.847489,15.067604]]]}},
{"type":"Feature","properties":{},"geometry":{"type":"Polygon","coordinates":[[[5.934486,15.041215],[5.925319,15.050366],[5.934783,15.062884],[5.940358,15.062811],[5.9439,15.050121],[5.934486,15.041215]]]}},
{"type":"Feature","properties":{},"geometry":{"type":"Polygon","coordinates":[[[5.955471,14.923768],[5.949925,14.925647],[5.950196,14.945509],[5.931944,14.969226],[5.919506,15.010925],[5.927231,15.032497],[5.93454,15.023371],[5.937812,14.990821],[5.956238,14.979743],[5.957797,14.958051],[5.968767,14.945265],[5.964829,14.929063],[5.955471,14.923768]]]}},
{"type":"Feature","properties":{},"geometry":{"type":"Polygon","coordinates":[[[5.968524,14.868009],[5.950304,14.893531],[5.956022,14.904293],[5.9634,14.900584],[5.970901,14.905903],[5.987489,14.896661],[5.994791,14.887538],[5.985358,14.876824],[5.968524,14.868009]]]}},
{"type":"Feature","properties":{},"geometry":{"type":"Polygon","coordinates":[[[5.81702,15.011997],[5.813327,15.01385],[5.81535,15.026468],[5.804367,15.039248],[5.817493,15.048115],[5.814086,15.071638],[5.816087,15.082449],[5.821662,15.082379],[5.827071,15.069667],[5.826832,15.051609],[5.830477,15.046145],[5.841626,15.046003],[5.841482,15.035168],[5.81702,15.011997]]]}},
{"type":"Feature","properties":{},"geometry":{"type":"Polygon","coordinates":[[[5.799868,14.690708],[5.773871,14.689216],[5.768396,14.696505],[5.768511,14.705535],[5.781659,14.718022],[5.811554,14.733913],[5.839294,14.726346],[5.837299,14.715534],[5.820414,14.701293],[5.799868,14.690708]]]}},
{"type":"Feature","properties":{},"geometry":{"type":"Polygon","coordinates":[[[5.757105,14.683994],[5.745928,14.680513],[5.736741,14.687846],[5.742669,14.716677],[5.737191,14.723966],[5.735651,14.749273],[5.743234,14.761827],[5.752468,14.758107],[5.750385,14.740068],[5.759618,14.736346],[5.765231,14.739893],[5.768874,14.734431],[5.755431,14.698464],[5.757105,14.683994]]]}},
{"type":"Feature","properties":{},"geometry":{"type":"Polygon","coordinates":[[[5.724067,14.713281],[5.707478,14.722508],[5.713223,14.73689],[5.709713,14.753189],[5.715505,14.771183],[5.724561,14.753015],[5.724067,14.713281]]]}},
{"type":"Feature","properties":{},"geometry":{"type":"Polygon","coordinates":[[[5.659187,14.719462],[5.653684,14.724944],[5.657462,14.73032],[5.668596,14.730191],[5.674229,14.735544],[5.692787,14.735326],[5.687088,14.724555],[5.659187,14.719462]]]}},
{"type":"Feature","properties":{},"geometry":{"type":"Polygon","coordinates":[[[5.671671,14.677769],[5.666105,14.677834],[5.656937,14.686973],[5.657025,14.694198],[5.675734,14.706624],[5.684857,14.693872],[5.673658,14.688585],[5.671671,14.677769]]]}},
{"type":"Feature","properties":{},"geometry":{"type":"Polygon","coordinates":[[[5.65611,14.618339],[5.650567,14.620207],[5.650696,14.631044],[5.654472,14.636421],[5.660037,14.636357],[5.663638,14.627284],[5.65611,14.618339]]]}},
{"type":"Feature","properties":{},"geometry":{"type":"Polygon","coordinates":[[[5.758252,14.570799],[5.750856,14.572692],[5.745382,14.57998],[5.738434,14.617994],[5.747664,14.614274],[5.753025,14.597954],[5.76404,14.588794],[5.763882,14.576152],[5.758252,14.570799]]]}},
{"type":"Feature","properties":{},"geometry":{"type":"Polygon","coordinates":[[[5.789459,14.494965],[5.780416,14.513136],[5.78609,14.522099],[5.797077,14.51113],[5.796986,14.503906],[5.789459,14.494965]]]}},
{"type":"Feature","properties":{},"geometry":{"type":"Polygon","coordinates":[[[5.722196,14.409838],[5.71668,14.413513],[5.720561,14.42792],[5.726187,14.433276],[5.735431,14.431363],[5.744787,14.43848],[5.748337,14.425795],[5.722196,14.409838]]]}},
{"type":"Feature","properties":{},"geometry":{"type":"Polygon","coordinates":[[[5.889362,14.46204],[5.876413,14.464004],[5.867355,14.480368],[5.856165,14.475085],[5.848843,14.482398],[5.849259,14.514904],[5.834544,14.524113],[5.843998,14.538447],[5.84409,14.54567],[5.825781,14.563957],[5.807285,14.567794],[5.807193,14.56057],[5.827404,14.545875],[5.827289,14.536845],[5.821659,14.531495],[5.814243,14.531585],[5.805088,14.540727],[5.795773,14.537228],[5.79211,14.540885],[5.792338,14.558944],[5.777414,14.551898],[5.775763,14.568173],[5.779517,14.571742],[5.79806,14.571519],[5.787139,14.587907],[5.79119,14.614952],[5.825965,14.578404],[5.829673,14.578358],[5.829951,14.600029],[5.835375,14.589125],[5.846431,14.583572],[5.852228,14.601564],[5.859669,14.603279],[5.866946,14.592354],[5.864648,14.558065],[5.872088,14.559781],[5.879363,14.548856],[5.886803,14.550572],[5.886944,14.561406],[5.898163,14.568493],[5.900111,14.575694],[5.924286,14.580809],[5.922647,14.597084],[5.926404,14.600649],[5.942851,14.582379],[5.93705,14.564393],[5.946175,14.553441],[5.942276,14.539042],[5.953158,14.520843],[5.94755,14.517303],[5.940231,14.524619],[5.925664,14.54467],[5.925902,14.562728],[5.922242,14.566387],[5.914802,14.564674],[5.909074,14.552104],[5.923691,14.535665],[5.930845,14.515708],[5.907054,14.539487],[5.903252,14.532309],[5.917823,14.51226],[5.91585,14.503255],[5.928825,14.503092],[5.93429,14.495798],[5.928611,14.486839],[5.900905,14.494409],[5.884504,14.516283],[5.878873,14.510933],[5.878686,14.496486],[5.891496,14.483688],[5.887719,14.478316],[5.889362,14.46204]]]}},
{"type":"Feature","properties":{},"geometry":{"type":"Polygon","coordinates":[[[5.673068,15.169481],[5.667558,15.174966],[5.647079,15.1734],[5.628728,15.193484],[5.62884,15.202514],[5.636415,15.213265],[5.639978,15.200579],[5.643653,15.196923],[5.651115,15.198642],[5.653088,15.207651],[5.645783,15.218575],[5.64408,15.231239],[5.649728,15.236593],[5.657147,15.234699],[5.672188,15.247163],[5.668285,15.23276],[5.671914,15.225491],[5.683234,15.237998],[5.692811,15.259557],[5.696439,15.252288],[5.696003,15.217973],[5.675384,15.205579],[5.673068,15.169481]]]}},
{"type":"Feature","properties":{},"geometry":{"type":"Polygon","coordinates":[[[5.698661,15.134454],[5.693106,15.136328],[5.691384,15.147186],[5.706489,15.165066],[5.713765,15.152333],[5.698661,15.134454]]]}},
{"type":"Feature","properties":{},"geometry":{"type":"Polygon","coordinates":[[[5.747733,15.014254],[5.731032,15.016261],[5.723874,15.038021],[5.72408,15.054274],[5.709281,15.05987],[5.709372,15.067094],[5.715017,15.072444],[5.713457,15.095945],[5.724748,15.106648],[5.732138,15.102948],[5.747056,15.106381],[5.750728,15.102724],[5.735671,15.088456],[5.735486,15.074008],[5.759672,15.075524],[5.759579,15.0683],[5.744663,15.064866],[5.744547,15.055837],[5.733304,15.048746],[5.736882,15.037865],[5.748125,15.044956],[5.751819,15.043105],[5.747733,15.014254]]]}},
{"type":"Feature","properties":{},"geometry":{"type":"Polygon","coordinates":[[[5.685699,14.939925],[5.678291,14.941819],[5.665691,14.974483],[5.669474,14.979857],[5.680599,14.977918],[5.673414,14.997875],[5.677378,15.017696],[5.664953,15.06481],[5.665133,15.079259],[5.668896,15.082826],[5.681749,15.070028],[5.68329,15.044721],[5.690475,15.024765],[5.714746,15.033504],[5.712637,15.01366],[5.716148,14.997361],[5.706767,14.99025],[5.695665,14.993995],[5.691904,14.990428],[5.693377,14.959702],[5.685699,14.939925]]]}},
{"type":"Feature","properties":{},"geometry":{"type":"Polygon","coordinates":[[[5.682998,14.900832],[5.677426,14.900898],[5.675636,14.906338],[5.674046,14.928033],[5.677806,14.931601],[5.686959,14.920654],[5.682998,14.900832]]]}},
{"type":"Feature","properties":{},"geometry":{"type":"Polygon","coordinates":[[[5.729223,14.884026],[5.712554,14.887834],[5.701638,14.906028],[5.709225,14.918581],[5.703855,14.934903],[5.705894,14.949329],[5.709609,14.949284],[5.715,14.934768],[5.720118,14.898582],[5.731239,14.896646],[5.736742,14.891162],[5.729223,14.884026]]]}},
{"type":"Feature","properties":{},"geometry":{"type":"Polygon","coordinates":[[[5.756472,14.889519],[5.745397,14.895069],[5.736728,14.943942],[5.74049,14.947509],[5.747827,14.940197],[5.754867,14.909406],[5.762158,14.898482],[5.762088,14.893064],[5.756472,14.889519]]]}},
{"type":"Feature","properties":{},"geometry":{"type":"Polygon","coordinates":[[[5.685672,14.798633],[5.678291,14.802332],[5.6729,14.816846],[5.67699,14.847507],[5.66974,14.862043],[5.671842,14.881889],[5.701352,14.865281],[5.708509,14.84352],[5.70815,14.814622],[5.700702,14.812905],[5.695288,14.825613],[5.686028,14.82753],[5.689519,14.809425],[5.685672,14.798633]]]}},
{"type":"Feature","properties":{},"geometry":{"type":"Polygon","coordinates":[[[5.647364,14.776209],[5.639938,14.776293],[5.634435,14.781775],[5.623254,14.778288],[5.619671,14.789167],[5.604971,14.801978],[5.595903,14.820143],[5.596096,14.836399],[5.605532,14.848939],[5.616456,14.830751],[5.623883,14.830667],[5.63142,14.839615],[5.632231,14.906443],[5.628714,14.922741],[5.632494,14.928117],[5.63798,14.920828],[5.650363,14.870108],[5.650054,14.844822],[5.644286,14.82863],[5.651735,14.830352],[5.66082,14.81399],[5.66071,14.804959],[5.649418,14.792443],[5.647364,14.776209]]]}},
{"type":"Feature","properties":{},"geometry":{"type":"Polygon","coordinates":[[[5.621397,14.506726],[5.615878,14.510399],[5.616025,14.523043],[5.612359,14.526697],[5.601192,14.523206],[5.599506,14.537677],[5.582881,14.543281],[5.586652,14.548658],[5.607136,14.555658],[5.60543,14.568323],[5.609246,14.577313],[5.601976,14.590038],[5.594599,14.593733],[5.591144,14.615448],[5.594938,14.622633],[5.602316,14.618938],[5.61545,14.631439],[5.61916,14.631397],[5.619011,14.618754],[5.613211,14.598947],[5.627599,14.560851],[5.633206,14.564402],[5.633335,14.575239],[5.626088,14.589771],[5.624447,14.607855],[5.639286,14.607688],[5.650242,14.593115],[5.642586,14.57333],[5.642392,14.557073],[5.621779,14.539239],[5.629047,14.526513],[5.628898,14.513869],[5.621397,14.506726]]]}},
{"type":"Feature","properties":{},"geometry":{"type":"Polygon","coordinates":[[[5.556028,14.465897],[5.546821,14.471418],[5.54332,14.489522],[5.532073,14.478805],[5.524821,14.493337],[5.515612,14.498854],[5.510213,14.513364],[5.510415,14.531428],[5.503181,14.547763],[5.503304,14.558602],[5.516348,14.563883],[5.522056,14.576469],[5.531206,14.565532],[5.523581,14.547547],[5.525333,14.538496],[5.534564,14.534782],[5.538438,14.549193],[5.544022,14.550938],[5.543856,14.536487],[5.547523,14.532833],[5.556836,14.536344],[5.557044,14.554407],[5.538748,14.576288],[5.539059,14.603383],[5.546562,14.610526],[5.551814,14.58337],[5.566526,14.572367],[5.57013,14.563295],[5.569816,14.5362],[5.562275,14.525444],[5.562171,14.516413],[5.550922,14.505698],[5.556277,14.487573],[5.569254,14.48743],[5.556028,14.465897]]]}},
{"type":"Feature","properties":{},"geometry":{"type":"Polygon","coordinates":[[[5.561423,15.146894],[5.555888,15.15057],[5.554659,15.202972],[5.571223,15.188329],[5.561423,15.146894]]]}},
{"type":"Feature","properties":{},"geometry":{"type":"Polygon","coordinates":[[[5.627729,15.061231],[5.618435,15.061338],[5.61308,15.079463],[5.581784,15.10511],[5.585786,15.128547],[5.578502,15.141277],[5.578677,15.155727],[5.584387,15.166498],[5.589966,15.166434],[5.593531,15.153748],[5.60283,15.153644],[5.615382,15.115565],[5.611464,15.099352],[5.630055,15.099139],[5.633416,15.070198],[5.627729,15.061231]]]}},
{"type":"Feature","properties":{},"geometry":{"type":"Polygon","coordinates":[[[5.614706,14.873512],[5.601662,14.870045],[5.596156,14.875527],[5.589116,14.908122],[5.591189,14.926162],[5.582073,14.940718],[5.576457,14.93717],[5.574471,14.926354],[5.565183,14.926459],[5.559546,14.921104],[5.561126,14.897602],[5.553718,14.899492],[5.548252,14.908587],[5.552264,14.933832],[5.531914,14.941288],[5.535715,14.948471],[5.550556,14.946497],[5.556194,14.951853],[5.552607,14.962732],[5.558266,14.969895],[5.567449,14.960757],[5.573022,14.960693],[5.573087,14.966112],[5.567643,14.977013],[5.568117,15.016751],[5.562778,15.036683],[5.551692,15.04223],[5.542634,15.062204],[5.535028,15.047838],[5.523982,15.056993],[5.526332,15.098517],[5.533855,15.10566],[5.539432,15.105597],[5.541012,15.082094],[5.54473,15.082052],[5.552252,15.089191],[5.556208,15.109018],[5.561786,15.108953],[5.577712,15.041931],[5.581385,15.038276],[5.590853,15.052617],[5.598244,15.048922],[5.597917,15.02183],[5.592211,15.011054],[5.595709,14.992952],[5.586309,14.984026],[5.586244,14.978607],[5.611427,14.909677],[5.609417,14.897055],[5.614706,14.873512]]]}},
{"type":"Feature","properties":{},"geometry":{"type":"Polygon","coordinates":[[[5.545725,14.858033],[5.529202,14.874476],[5.529328,14.885313],[5.542286,14.881556],[5.545725,14.858033]]]}},
{"type":"Feature","properties":{},"geometry":{"type":"Polygon","coordinates":[[[5.548443,14.729738],[5.541081,14.73524],[5.54686,14.753241],[5.539582,14.765967],[5.543716,14.802052],[5.555025,14.816377],[5.566186,14.818058],[5.560446,14.803671],[5.562091,14.785587],[5.556373,14.773006],[5.561772,14.758493],[5.548443,14.729738]]]}},
{"type":"Feature","properties":{},"geometry":{"type":"Polygon","coordinates":[[[5.529201,14.727133],[5.519983,14.732653],[5.520066,14.739878],[5.509033,14.749029],[5.515101,14.792322],[5.517041,14.799527],[5.522632,14.801273],[5.531873,14.79756],[5.535418,14.783068],[5.529493,14.752421],[5.534811,14.730684],[5.529201,14.727133]]]}},
{"type":"Feature","properties":{},"geometry":{"type":"Polygon","coordinates":[[[5.486746,14.7286],[5.481238,14.734077],[5.479587,14.752162],[5.489136,14.775546],[5.500089,14.75917],[5.4998,14.73388],[5.486746,14.7286]]]}},
{"type":"Feature","properties":{},"geometry":{"type":"Polygon","coordinates":[[[5.490943,14.448527],[5.459608,14.465114],[5.463535,14.484946],[5.447147,14.51222],[5.449199,14.530265],[5.44563,14.54295],[5.449498,14.557363],[5.458872,14.566297],[5.464476,14.569849],[5.479294,14.567888],[5.49246,14.584009],[5.496333,14.598422],[5.503835,14.605568],[5.51311,14.60547],[5.520386,14.592747],[5.49988,14.583931],[5.492196,14.560526],[5.484696,14.553378],[5.471713,14.553514],[5.467964,14.54994],[5.467803,14.535488],[5.460266,14.524728],[5.463755,14.504818],[5.482237,14.499205],[5.49167,14.513559],[5.502592,14.495378],[5.493039,14.470185],[5.494691,14.452102],[5.490943,14.448527]]]}},
{"type":"Feature","properties":{},"geometry":{"type":"Polygon","coordinates":[[[5.520096,14.403056],[5.486394,14.372695],[5.476969,14.358339],[5.423251,14.360706],[5.402945,14.368143],[5.360301,14.366759],[5.336265,14.372417],[5.308429,14.369079],[5.277106,14.387456],[5.284668,14.401837],[5.312471,14.401563],[5.332954,14.410394],[5.349617,14.408421],[5.382847,14.395445],[5.414433,14.402353],[5.429182,14.394972],[5.444048,14.398431],[5.477368,14.394468],[5.501582,14.405057],[5.512722,14.406747],[5.520096,14.403056]]]}},
{"type":"Feature","properties":{},"geometry":{"type":"Polygon","coordinates":[[[5.453673,14.261021],[5.444452,14.26473],[5.446538,14.286389],[5.437432,14.300937],[5.444901,14.306279],[5.43396,14.322653],[5.441488,14.333416],[5.456369,14.338681],[5.463701,14.331377],[5.461652,14.313332],[5.476553,14.320404],[5.480238,14.318559],[5.474384,14.291518],[5.485439,14.285985],[5.48534,14.276952],[5.479723,14.271591],[5.463033,14.269956],[5.453673,14.261021]]]}},
{"type":"Feature","properties":{},"geometry":{"type":"Polygon","coordinates":[[[5.420353,14.263171],[5.396464,14.281483],[5.40399,14.292248],[5.431758,14.290155],[5.431544,14.270284],[5.420353,14.263171]]]}},
{"type":"Feature","properties":{},"geometry":{"type":"Polygon","coordinates":[[[5.369831,14.214894],[5.356885,14.216827],[5.357016,14.229473],[5.342217,14.231423],[5.34044,14.238668],[5.347923,14.245823],[5.359037,14.245715],[5.359113,14.252942],[5.366597,14.260096],[5.366711,14.270935],[5.372306,14.274494],[5.377749,14.2636],[5.38703,14.265315],[5.398049,14.256173],[5.403548,14.250696],[5.403472,14.24347],[5.394116,14.23453],[5.388654,14.243618],[5.377522,14.241921],[5.375764,14.250972],[5.368261,14.242011],[5.368147,14.231172],[5.37361,14.222084],[5.369831,14.214894]]]}},
{"type":"Feature","properties":{},"geometry":{"type":"Polygon","coordinates":[[[5.400419,14.304931],[5.393028,14.306812],[5.387545,14.314094],[5.385864,14.330371],[5.39148,14.335736],[5.402482,14.324785],[5.400419,14.304931]]]}},
{"type":"Feature","properties":{},"geometry":{"type":"Polygon","coordinates":[[[5.350507,14.316264],[5.335741,14.32183],[5.33778,14.339878],[5.330406,14.343565],[5.332334,14.350774],[5.347159,14.350627],[5.350771,14.341557],[5.361965,14.348675],[5.369339,14.344989],[5.3617,14.323382],[5.350507,14.316264]]]}},
{"type":"Feature","properties":{},"geometry":{"type":"Polygon","coordinates":[[[5.462183,15.011523],[5.452932,15.015238],[5.457436,15.08384],[5.453967,15.105558],[5.457748,15.110935],[5.466836,15.09277],[5.472393,15.090905],[5.474608,15.121593],[5.486102,15.150373],[5.486377,15.173855],[5.501405,15.186336],[5.504848,15.162813],[5.497238,15.148444],[5.496838,15.114124],[5.487435,15.105194],[5.492802,15.08707],[5.485218,15.074507],[5.485071,15.061862],[5.475672,15.052931],[5.473439,15.020436],[5.462183,15.011523]]]}},
{"type":"Feature","properties":{},"geometry":{"type":"Polygon","coordinates":[[[5.515262,15.017955],[5.505969,15.018057],[5.494964,15.030822],[5.493189,15.038068],[5.49885,15.045232],[5.50996,15.041498],[5.517226,15.026966],[5.515262,15.017955]]]}},
{"type":"Feature","properties":{},"geometry":{"type":"Polygon","coordinates":[[[5.425981,14.779835],[5.411128,14.779992],[5.407455,14.783645],[5.409372,14.789044],[5.424204,14.78708],[5.425981,14.779835]]]}},
{"type":"Feature","properties":{},"geometry":{"type":"Polygon","coordinates":[[[5.381424,14.619498],[5.359237,14.626948],[5.357496,14.637806],[5.344585,14.645162],[5.342921,14.663247],[5.352123,14.655928],[5.366949,14.653973],[5.381892,14.662856],[5.385721,14.673658],[5.398593,14.662686],[5.407891,14.664397],[5.408128,14.686075],[5.386153,14.713401],[5.390238,14.747688],[5.39956,14.751206],[5.401317,14.742154],[5.410559,14.738444],[5.404753,14.716825],[5.42505,14.705769],[5.438081,14.709245],[5.438281,14.727309],[5.443909,14.732669],[5.466265,14.739656],[5.469915,14.734198],[5.456742,14.718078],[5.45658,14.703627],[5.435925,14.682168],[5.446797,14.658565],[5.446577,14.638694],[5.439135,14.636967],[5.430158,14.664162],[5.42092,14.667873],[5.416792,14.629976],[5.40939,14.63186],[5.407713,14.648138],[5.392888,14.650097],[5.392809,14.642871],[5.379723,14.63397],[5.381424,14.619498]]]}},
{"type":"Feature","properties":{},"geometry":{"type":"Polygon","coordinates":[[[5.426691,14.507015],[5.432313,14.512377],[5.437836,14.508705],[5.437638,14.49064],[5.420716,14.469136],[5.416831,14.452917],[5.41127,14.452974],[5.398565,14.478399],[5.413456,14.483666],[5.417301,14.496273],[5.413632,14.499924],[5.400536,14.48922],[5.398779,14.498271],[5.411935,14.514396],[5.410256,14.530675],[5.419705,14.546836],[5.42519,14.539552],[5.423041,14.512473],[5.426691,14.507015]]]}},
{"type":"Feature","properties":{},"geometry":{"type":"Polygon","coordinates":[[[5.389527,14.500171],[5.376816,14.525593],[5.380641,14.536396],[5.38802,14.532708],[5.395497,14.538053],[5.399148,14.532596],[5.389527,14.500171]]]}},
{"type":"Feature","properties":{},"geometry":{"type":"Polygon","coordinates":[[[5.369417,14.527474],[5.347124,14.524081],[5.337945,14.533207],[5.351004,14.540304],[5.358404,14.538424],[5.36762,14.532912],[5.369417,14.527474]]]}},
{"type":"Feature","properties":{},"geometry":{"type":"Polygon","coordinates":[[[5.271407,14.443344],[5.25841,14.44166],[5.254739,14.445309],[5.256794,14.465165],[5.266101,14.468691],[5.277411,14.486651],[5.280972,14.472161],[5.292097,14.472051],[5.294007,14.477454],[5.283104,14.499244],[5.271941,14.495739],[5.266432,14.501212],[5.263016,14.530155],[5.279672,14.52638],[5.291004,14.546144],[5.298386,14.542457],[5.298292,14.533423],[5.302002,14.533387],[5.305861,14.547803],[5.315135,14.54771],[5.322648,14.55667],[5.308262,14.600178],[5.308413,14.61463],[5.323237,14.612675],[5.36013,14.59243],[5.348692,14.563635],[5.337525,14.560133],[5.335271,14.522212],[5.322083,14.502469],[5.340379,14.478797],[5.312605,14.482689],[5.306967,14.475518],[5.310488,14.457414],[5.300847,14.421373],[5.280419,14.41796],[5.271187,14.421663],[5.25623,14.409156],[5.252631,14.420031],[5.271351,14.437923],[5.271407,14.443344]]]}},
{"type":"Feature","properties":{},"geometry":{"type":"Polygon","coordinates":[[[5.22845,14.711354],[5.221025,14.711424],[5.221335,14.742139],[5.23071,14.751085],[5.225214,14.758365],[5.223523,14.774643],[5.218062,14.785536],[5.208814,14.789238],[5.208869,14.794659],[5.223781,14.799937],[5.24198,14.763625],[5.247624,14.770799],[5.242202,14.785305],[5.24419,14.797935],[5.259139,14.806825],[5.262985,14.819436],[5.253848,14.83398],[5.261352,14.841135],[5.281669,14.830094],[5.274034,14.810294],[5.275721,14.794016],[5.264298,14.767025],[5.251226,14.759923],[5.251058,14.743662],[5.234221,14.731175],[5.234092,14.718528],[5.22845,14.711354]]]}},
{"type":"Feature","properties":{},"geometry":{"type":"Polygon","coordinates":[[[5.095056,14.576273],[5.083941,14.57818],[5.085899,14.589004],[5.102735,14.603311],[5.12691,14.608516],[5.132563,14.6175],[5.130829,14.630165],[5.134593,14.635553],[5.141981,14.631872],[5.141876,14.621031],[5.147443,14.62098],[5.16052,14.629893],[5.184643,14.629665],[5.21073,14.640257],[5.21626,14.63659],[5.216206,14.63117],[5.206856,14.624032],[5.158454,14.608229],[5.154672,14.601036],[5.161987,14.590125],[5.158189,14.581126],[5.15075,14.579389],[5.135995,14.588558],[5.126684,14.585026],[5.123059,14.594094],[5.119348,14.594127],[5.109951,14.581562],[5.095056,14.576273]]]}},
{"type":"Feature","properties":{},"geometry":{"type":"Polygon","coordinates":[[[5.174729,14.534784],[5.145016,14.531446],[5.146976,14.542271],[5.165525,14.542099],[5.171125,14.54566],[5.176637,14.540186],[5.174729,14.534784]]]}},
{"type":"Feature","properties":{},"geometry":{"type":"Polygon","coordinates":[[[5.177171,14.404657],[5.167832,14.397516],[5.160452,14.401198],[5.160504,14.406619],[5.171645,14.408322],[5.177171,14.404657]]]}},
{"type":"Feature","properties":{},"geometry":{"type":"Polygon","coordinates":[[[5.045926,14.447395],[5.032979,14.451123],[5.031273,14.467402],[4.979812,14.520245],[4.978053,14.531102],[4.981795,14.534686],[5.003862,14.512815],[5.013137,14.512737],[5.020637,14.521709],[5.026202,14.521661],[5.024167,14.5018],[5.038905,14.490828],[5.040644,14.478163],[5.046158,14.472692],[5.05548,14.478032],[5.06101,14.474368],[5.062748,14.461703],[5.058972,14.454508],[5.045926,14.447395]]]}},
{"type":"Feature","properties":{},"geometry":{"type":"Polygon","coordinates":[[[5.075557,14.518838],[5.051461,14.52086],[5.045946,14.52633],[5.055421,14.547932],[5.066584,14.551446],[5.081324,14.540471],[5.098035,14.542129],[5.101712,14.538482],[5.097917,14.529481],[5.086803,14.531386],[5.075557,14.518838]]]}},
{"type":"Feature","properties":{},"geometry":{"type":"Polygon","coordinates":[[[5.087479,14.603049],[5.07638,14.606764],[5.076515,14.621219],[5.080261,14.624799],[5.085828,14.624749],[5.089437,14.613873],[5.087479,14.603049]]]}},
{"type":"Feature","properties":{},"geometry":{"type":"Polygon","coordinates":[[[5.0251,14.680916],[5.017708,14.684594],[5.019647,14.693613],[5.028996,14.700759],[5.036422,14.700693],[5.038329,14.706097],[5.025384,14.711635],[5.0255,14.724283],[5.032959,14.727831],[5.045822,14.713259],[5.060774,14.723968],[5.064454,14.72032],[5.064199,14.693216],[5.047408,14.684331],[5.034448,14.688062],[5.0251,14.680916]]]}},
{"type":"Feature","properties":{},"geometry":{"type":"Polygon","coordinates":[[[5.081985,14.732593],[5.076415,14.732644],[5.07277,14.739905],[5.063452,14.736376],[5.057934,14.741847],[5.058053,14.754495],[5.069211,14.756201],[5.082122,14.747048],[5.091492,14.755999],[5.098902,14.754126],[5.108326,14.768497],[5.123146,14.764749],[5.136233,14.773665],[5.145731,14.795262],[5.145855,14.80791],[5.132961,14.81887],[5.133066,14.829711],[5.140585,14.838677],[5.146157,14.838626],[5.151588,14.824121],[5.171892,14.811278],[5.166212,14.80049],[5.166033,14.782423],[5.182745,14.782263],[5.197382,14.760438],[5.171388,14.760688],[5.158498,14.771652],[5.149231,14.773546],[5.152821,14.760864],[5.139787,14.75737],[5.132289,14.75021],[5.111865,14.750395],[5.106155,14.73599],[5.098729,14.736056],[5.091371,14.74335],[5.081985,14.732593]]]}},
{"type":"Feature","properties":{},"geometry":{"type":"Polygon","coordinates":[[[4.985813,14.568988],[4.97468,14.569082],[4.971082,14.581761],[4.958158,14.589099],[4.952751,14.607217],[4.937984,14.616378],[4.938047,14.623606],[4.945534,14.630772],[4.971517,14.630552],[4.990141,14.637625],[5.016075,14.631985],[5.014137,14.622965],[4.988155,14.623184],[4.975084,14.614257],[4.973147,14.605238],[4.991444,14.57617],[4.985813,14.568988]]]}},
{"type":"Feature","properties":{},"geometry":{"type":"Polygon","coordinates":[[[4.916074,14.443066],[4.904979,14.446771],[4.884565,14.445128],[4.860592,14.461581],[4.853174,14.461638],[4.83485,14.488889],[4.807086,14.496338],[4.794247,14.514512],[4.809161,14.523432],[4.853699,14.52489],[4.870275,14.510303],[4.929618,14.508014],[4.990377,14.456906],[4.988474,14.4515],[4.973591,14.4462],[4.947645,14.448225],[4.916074,14.443066]]]}},
{"type":"Feature","properties":{},"geometry":{"type":"Polygon","coordinates":[[[5.226208,14.366805],[5.22628,14.374033],[5.241234,14.386542],[5.246813,14.388297],[5.252319,14.382824],[5.252138,14.364757],[5.261205,14.344796],[5.260826,14.306854],[5.245913,14.297959],[5.24039,14.301624],[5.247945,14.316009],[5.240676,14.330532],[5.242745,14.352196],[5.233425,14.346862],[5.229628,14.337863],[5.222216,14.337931],[5.222269,14.343352],[5.209332,14.347087],[5.213216,14.365119],[5.218812,14.368681],[5.226208,14.366805]]]}},
{"type":"Feature","properties":{},"geometry":{"type":"Polygon","coordinates":[[[5.806652,14.783753],[5.803172,14.801858],[5.810597,14.801766],[5.817881,14.790839],[5.823496,14.794382],[5.818232,14.817927],[5.833128,14.821355],[5.829556,14.832236],[5.844596,14.846498],[5.83555,14.864672],[5.815009,14.855897],[5.796722,14.877798],[5.804477,14.902988],[5.795472,14.924775],[5.793848,14.942857],[5.801512,14.960823],[5.790577,14.977216],[5.790695,14.986245],[5.798196,14.99157],[5.807438,14.987842],[5.813153,14.998608],[5.818726,14.998538],[5.827825,14.983975],[5.831327,14.967675],[5.816467,14.967861],[5.818088,14.949779],[5.823566,14.942487],[5.815901,14.924521],[5.834047,14.891782],[5.839547,14.886295],[5.848903,14.891599],[5.858164,14.889679],[5.860212,14.904103],[5.865878,14.911256],[5.871473,14.912993],[5.878782,14.903872],[5.891925,14.914544],[5.8974,14.90725],[5.897279,14.898222],[5.886017,14.889333],[5.88404,14.880327],[5.919366,14.883494],[5.926744,14.879787],[5.926574,14.867147],[5.930238,14.863487],[5.948876,14.868663],[5.952441,14.857781],[5.943061,14.850679],[5.935661,14.852581],[5.929945,14.841819],[5.920688,14.843744],[5.924134,14.823834],[5.918397,14.811265],[5.927507,14.798506],[5.910707,14.791496],[5.910249,14.757187],[5.902731,14.750056],[5.908153,14.739153],[5.894974,14.724868],[5.909626,14.710237],[5.892714,14.694193],[5.887267,14.70329],[5.86465,14.676476],[5.855304,14.671171],[5.857042,14.662119],[5.849529,14.654986],[5.840301,14.65871],[5.840417,14.66774],[5.861175,14.69458],[5.86336,14.719839],[5.869044,14.7288],[5.86557,14.746904],[5.876727,14.748572],[5.869565,14.768528],[5.873325,14.772094],[5.882533,14.766562],[5.891836,14.768253],[5.882795,14.786425],[5.890315,14.793557],[5.890554,14.811615],[5.898099,14.820551],[5.89453,14.831432],[5.903884,14.836733],[5.904053,14.849374],[5.913505,14.861897],[5.908008,14.867384],[5.892986,14.854931],[5.872636,14.860602],[5.868803,14.851619],[5.855712,14.844556],[5.859117,14.821034],[5.851574,14.812097],[5.866257,14.799273],[5.866115,14.788438],[5.82862,14.760001],[5.822865,14.745623],[5.798649,14.738696],[5.795192,14.758607],[5.800875,14.767568],[5.793544,14.774883],[5.793637,14.782107],[5.797395,14.785673],[5.806652,14.783753]],[[5.856935,14.864738],[5.866314,14.871847],[5.860815,14.877333],[5.853388,14.877425],[5.856935,14.864738]]]}},
{"type":"Feature","properties":{},"geometry":{"type":"Polygon","coordinates":[[[5.759495,14.277549],[5.74457,14.268687],[5.750038,14.2614],[5.735179,14.257956],[5.731388,14.250774],[5.746137,14.245187],[5.764676,14.246783],[5.768269,14.237709],[5.777571,14.241216],[5.797827,14.231945],[5.801352,14.217453],[5.810475,14.206507],[5.806661,14.197521],[5.799323,14.203027],[5.795577,14.199458],[5.795421,14.186816],[5.808312,14.181245],[5.797073,14.17054],[5.780414,14.170736],[5.774927,14.176219],[5.786453,14.210404],[5.779158,14.219521],[5.771686,14.214188],[5.775235,14.201503],[5.762254,14.199845],[5.751212,14.20539],[5.751342,14.216226],[5.736487,14.212782],[5.730997,14.218264],[5.716207,14.220237],[5.69416,14.234941],[5.683243,14.251323],[5.668514,14.258716],[5.635179,14.259087],[5.62796,14.275423],[5.620426,14.264667],[5.6203,14.253829],[5.61283,14.24849],[5.57968,14.265109],[5.57435,14.28504],[5.578116,14.290418],[5.587378,14.290317],[5.598284,14.272132],[5.609459,14.277431],[5.604027,14.288329],[5.604111,14.295554],[5.60973,14.300913],[5.615162,14.290015],[5.626213,14.284475],[5.628254,14.300711],[5.633811,14.30065],[5.639473,14.309621],[5.637747,14.320479],[5.624696,14.313395],[5.615642,14.33156],[5.615684,14.335172],[5.624947,14.335071],[5.630568,14.340429],[5.626905,14.344082],[5.602841,14.34615],[5.595555,14.357068],[5.599344,14.364254],[5.615915,14.355041],[5.623347,14.356766],[5.606923,14.378624],[5.612567,14.385788],[5.621832,14.385686],[5.622022,14.401943],[5.629583,14.414505],[5.633311,14.416271],[5.640639,14.408964],[5.633056,14.394596],[5.644089,14.387249],[5.664494,14.388826],[5.675762,14.401342],[5.694118,14.386679],[5.708963,14.388315],[5.708876,14.38109],[5.695798,14.372209],[5.701269,14.364921],[5.710532,14.364814],[5.708245,14.328712],[5.711906,14.325058],[5.721211,14.328563],[5.73078,14.353743],[5.730956,14.368192],[5.742205,14.378901],[5.745756,14.366217],[5.734288,14.337446],[5.736053,14.330201],[5.745205,14.321064],[5.767477,14.324421],[5.782229,14.318831],[5.782074,14.306189],[5.789482,14.306101],[5.796958,14.311431],[5.797046,14.318655],[5.791556,14.324139],[5.765846,14.342503],[5.756517,14.337192],[5.747278,14.339104],[5.762608,14.380473],[5.768567,14.412918],[5.777788,14.409198],[5.78685,14.392834],[5.797967,14.392701],[5.796272,14.405365],[5.783592,14.428999],[5.783705,14.438028],[5.789287,14.439768],[5.798439,14.430627],[5.798327,14.421597],[5.807434,14.408844],[5.814913,14.414172],[5.823996,14.399613],[5.827497,14.383315],[5.834816,14.376001],[5.842226,14.375911],[5.846137,14.39212],[5.829669,14.408575],[5.828134,14.433881],[5.835546,14.433791],[5.850141,14.415553],[5.864919,14.411763],[5.87775,14.400772],[5.881525,14.406146],[5.879857,14.420615],[5.863272,14.428039],[5.855976,14.437157],[5.867141,14.440635],[5.874484,14.435129],[5.882059,14.44768],[5.893224,14.451156],[5.898643,14.440254],[5.894029,14.369872],[5.906763,14.351656],[5.917899,14.353324],[5.927301,14.364042],[5.936469,14.356704],[5.942072,14.360246],[5.942191,14.369274],[5.953352,14.372746],[5.944327,14.39092],[5.95739,14.397979],[5.96872,14.414089],[5.976011,14.404969],[5.9795,14.388672],[5.983157,14.385013],[5.992468,14.388509],[5.988907,14.39939],[5.991362,14.444509],[5.986045,14.462635],[5.975119,14.47722],[5.967658,14.473701],[5.956682,14.484678],[5.947392,14.482989],[5.93834,14.499359],[5.945826,14.504682],[5.966069,14.493587],[5.990187,14.49509],[5.997552,14.491386],[6.006892,14.496685],[6.001745,14.527452],[6.00933,14.539997],[6.007869,14.56891],[6.030413,14.590293],[6.026977,14.610202],[6.042258,14.642509],[6.049625,14.6388],[6.043764,14.617207],[6.054714,14.604421],[6.052536,14.580974],[6.057973,14.571872],[6.061356,14.548351],[6.072403,14.542787],[6.078064,14.549936],[6.078239,14.562574],[6.071024,14.577117],[6.073255,14.604175],[6.086359,14.613028],[6.084681,14.625691],[6.09578,14.623738],[6.103097,14.616419],[6.110234,14.59646],[6.106095,14.565817],[6.109448,14.540492],[6.09259,14.528071],[6.083348,14.530001],[6.079492,14.519216],[6.068372,14.519364],[6.064764,14.526636],[6.051642,14.515973],[6.0424,14.517901],[6.038645,14.514338],[6.038472,14.501699],[6.043785,14.483571],[6.054755,14.472591],[6.071332,14.465149],[6.080422,14.452389],[6.093316,14.4468],[6.096872,14.435918],[6.068908,14.423647],[6.063475,14.432748],[6.063648,14.445387],[6.050753,14.450974],[6.043465,14.460098],[6.032322,14.458437],[6.02691,14.469341],[6.019547,14.473047],[6.017449,14.455015],[6.00248,14.444368],[6.006088,14.437099],[6.003921,14.413649],[6.011114,14.397304],[6.01672,14.400846],[6.018839,14.420684],[6.028249,14.4314],[6.035514,14.420472],[6.031345,14.386212],[6.040387,14.369842],[6.032905,14.364522],[6.02184,14.368273],[6.023425,14.348388],[6.01592,14.341259],[6.010412,14.34494],[6.008826,14.364826],[6.001513,14.372142],[5.997736,14.366771],[5.999251,14.341468],[5.98809,14.337996],[5.977073,14.345357],[5.971446,14.340009],[5.976835,14.3273],[5.956298,14.314915],[5.952736,14.325796],[5.943359,14.316884],[5.936021,14.322394],[5.9307,14.340521],[5.923292,14.340614],[5.908358,14.331769],[5.893587,14.33556],[5.8953,14.324703],[5.906367,14.320957],[5.908126,14.31371],[5.924863,14.318921],[5.926481,14.30084],[5.909676,14.290211],[5.905833,14.279423],[5.896783,14.295786],[5.867152,14.296142],[5.863494,14.299798],[5.858509,14.345012],[5.849339,14.352346],[5.841929,14.352435],[5.834383,14.341689],[5.823292,14.343629],[5.818052,14.368979],[5.807095,14.381754],[5.803254,14.370963],[5.810394,14.349202],[5.808339,14.332971],[5.828668,14.329114],[5.837838,14.321779],[5.848951,14.321645],[5.84886,14.314421],[5.841429,14.312704],[5.839464,14.303697],[5.831988,14.298368],[5.822841,14.307509],[5.822909,14.312927],[5.813693,14.31665],[5.811549,14.293194],[5.816947,14.280486],[5.811257,14.269717],[5.800214,14.275268],[5.798586,14.293349],[5.789259,14.288041],[5.7854,14.275443],[5.779822,14.273702],[5.776163,14.277358],[5.776406,14.297224],[5.769087,14.304533],[5.759848,14.306446],[5.74492,14.297585],[5.728404,14.310418],[5.726246,14.285153],[5.742915,14.284963],[5.759495,14.277549]],[[5.698253,14.280138],[5.703874,14.285492],[5.702324,14.310799],[5.696768,14.310863],[5.687356,14.298327],[5.688993,14.280244],[5.698253,14.280138]],[[5.683887,14.318237],[5.689551,14.327204],[5.689897,14.356102],[5.665941,14.367215],[5.65838,14.354656],[5.660105,14.343797],[5.652503,14.327626],[5.661659,14.31849],[5.683887,14.318237]],[[5.778686,14.344078],[5.793505,14.343902],[5.793662,14.356544],[5.782614,14.362095],[5.784668,14.378326],[5.779177,14.383811],[5.769802,14.374888],[5.767748,14.358655],[5.778686,14.344078]],[[6.038741,14.532369],[6.05001,14.543056],[6.040916,14.555816],[6.031696,14.559548],[6.024109,14.547005],[6.038741,14.532369]],[[5.994439,14.403898],[6.001374,14.409283],[5.99329,14.41121],[5.994439,14.403898]],[[6.023231,14.410831],[6.028943,14.418055],[6.02401,14.422374],[6.02204,14.415103],[6.023231,14.410831]]]}},
{"type":"Feature","properties":{},"geometry":{"type":"Polygon","coordinates":[[[5.129729,14.484601],[5.120422,14.481069],[5.109294,14.481168],[5.118619,14.486506],[5.129729,14.484601]]]}},
{"type":"Feature","properties":{},"geometry":{"type":"Polygon","coordinates":[[[4.842246,14.770772],[4.818178,14.780001],[4.825728,14.794398],[4.823976,14.807063],[4.833355,14.817832],[4.829837,14.841355],[4.81878,14.852288],[4.822602,14.864908],[4.826349,14.868493],[4.848615,14.8647],[4.893381,14.88422],[4.911978,14.885872],[4.919379,14.882195],[4.924905,14.876727],[4.92476,14.860463],[4.907864,14.840727],[4.904023,14.826302],[4.898435,14.824541],[4.892768,14.813744],[4.896215,14.782993],[4.842246,14.770772]]]}},
{"type":"Feature","properties":{},"geometry":{"type":"Polygon","coordinates":[[[4.678911,14.488252],[4.656691,14.493835],[4.643786,14.504772],[4.599247,14.503265],[4.593721,14.508725],[4.590074,14.517787],[4.592071,14.537656],[4.650386,14.643901],[4.643001,14.649376],[4.615089,14.64053],[4.592799,14.638872],[4.574326,14.651652],[4.572547,14.662509],[4.593113,14.68225],[4.615407,14.683907],[4.68797,14.703271],[4.702754,14.694125],[4.708212,14.679624],[4.728634,14.679475],[4.73786,14.672178],[4.77689,14.677309],[4.786099,14.6682],[4.787882,14.65915],[4.77844,14.639342],[4.759763,14.625025],[4.75785,14.61781],[4.739218,14.608909],[4.73722,14.59085],[4.722233,14.572885],[4.72212,14.558426],[4.70344,14.542296],[4.710695,14.520552],[4.710542,14.500671],[4.704936,14.495291],[4.686372,14.49362],[4.678911,14.488252]]]}},
{"type":"Feature","properties":{},"geometry":{"type":"Polygon","coordinates":[[[4.7113,14.347431],[4.705753,14.34928],[4.702196,14.369189],[4.705903,14.369161],[4.709749,14.387206],[4.722825,14.399765],[4.722964,14.417838],[4.743419,14.424921],[4.761963,14.424786],[4.776755,14.419253],[4.789664,14.410117],[4.7933,14.401052],[4.804381,14.395545],[4.806177,14.388301],[4.796863,14.382951],[4.737464,14.374356],[4.73186,14.368974],[4.729908,14.356336],[4.7113,14.347431]]]}},
{"type":"Feature","properties":{},"geometry":{"type":"Polygon","coordinates":[[[4.566434,14.83065],[4.55157,14.830752],[4.523788,14.843594],[4.490353,14.845617],[4.471832,14.854771],[4.453383,14.874773],[4.453419,14.880195],[4.4739,14.885488],[4.488843,14.896238],[4.501866,14.897963],[4.526117,14.910457],[4.54655,14.90851],[4.563173,14.893934],[4.564953,14.883077],[4.581534,14.863079],[4.579518,14.841404],[4.566434,14.83065]]]}},
{"type":"Feature","properties":{},"geometry":{"type":"Polygon","coordinates":[[[4.451188,14.491574],[4.419672,14.495386],[4.395621,14.506378],[4.39949,14.531662],[4.392193,14.551591],[4.382913,14.551645],[4.356865,14.540948],[4.351309,14.542786],[4.343985,14.559096],[4.362689,14.582491],[4.373859,14.587851],[4.409124,14.58764],[4.424066,14.602009],[4.461201,14.603582],[4.472266,14.592669],[4.479557,14.572741],[4.486981,14.572695],[4.494356,14.565419],[4.496053,14.54191],[4.508981,14.532791],[4.510727,14.516512],[4.495786,14.502143],[4.451188,14.491574]]]}},
{"type":"Feature","properties":{},"geometry":{"type":"Polygon","coordinates":[[[4.761147,6.281189],[4.755738,6.284824],[4.753974,6.297487],[4.737745,6.30839],[4.739582,6.317426],[4.754028,6.313761],[4.768449,6.302864],[4.768394,6.28659],[4.761147,6.281189]]]}},
{"type":"Feature","properties":{},"geometry":{"type":"Polygon","coordinates":[[[4.686979,8.129956],[4.674278,8.13001],[4.66705,8.137273],[4.661599,8.135487],[4.638068,8.150048],[4.656207,8.148167],[4.66531,8.155362],[4.672568,8.155332],[4.683441,8.151669],[4.701601,8.155207],[4.712466,8.149737],[4.697881,8.133526],[4.692445,8.135357],[4.686979,8.129956]]]}},
{"type":"Feature","properties":{},"geometry":{"type":"Polygon","coordinates":[[[4.160946,9.450386],[4.153666,9.452218],[4.153684,9.457643],[4.168262,9.459403],[4.160946,9.450386]]]}},
{"type":"Feature","properties":{},"geometry":{"type":"Polygon","coordinates":[[[3.562635,11.869796],[3.544295,11.880685],[3.535111,11.878893],[3.524121,11.893382],[3.498437,11.906089],[3.485605,11.91877],[3.491117,11.920569],[3.509468,11.913303],[3.573662,11.875196],[3.562635,11.869796]]]}},
{"type":"Feature","properties":{},"geometry":{"type":"Polygon","coordinates":[[[3.634099,11.611043],[3.650537,11.580262],[3.652338,11.56579],[3.648649,11.556757],[3.641325,11.562199],[3.6322,11.582111],[3.634099,11.611043]]]}},
{"type":"Feature","properties":{},"geometry":{"type":"Polygon","coordinates":[[[3.563417,10.753949],[3.554332,10.786521],[3.565307,10.786498],[3.576302,10.797327],[3.578121,10.791898],[3.570787,10.782871],[3.568921,10.76298],[3.563427,10.759374],[3.563417,10.753949]]]}},
{"type":"Feature","properties":{},"geometry":{"type":"Polygon","coordinates":[[[3.48865,10.618434],[3.486836,10.627479],[3.495998,10.640125],[3.499643,10.632885],[3.48865,10.618434]]]}},
{"type":"Feature","properties":{},"geometry":{"type":"Polygon","coordinates":[[[3.738369,10.273741],[3.734737,10.282791],[3.745719,10.293618],[3.747516,10.280954],[3.738369,10.273741]]]}},
{"type":"Feature","properties":{},"geometry":{"type":"Polygon","coordinates":[[[4.075741,9.579175],[4.066642,9.582822],[4.072142,9.593654],[4.077592,9.588212],[4.075741,9.579175]]]}},
{"type":"Feature","properties":{},"geometry":{"type":"Polygon","coordinates":[[[3.598507,4.844414],[3.593098,4.846228],[3.593103,4.851655],[3.602117,4.84803],[3.598507,4.844414]]]}},
{"type":"Feature","properties":{},"geometry":{"type":"Polygon","coordinates":[[[3.768154,4.705435],[3.759135,4.701827],[3.757334,4.703638],[3.764552,4.709057],[3.768154,4.705435]]]}},
{"type":"Feature","properties":{},"geometry":{"type":"Polygon","coordinates":[[[3.344866,4.7316],[3.343066,4.737029],[3.346674,4.740645],[3.348475,4.735217],[3.344866,4.7316]]]}},
{"type":"Feature","properties":{},"geometry":{"type":"Polygon","coordinates":[[[3.458027,4.449412],[3.443598,4.434948],[3.438192,4.436761],[3.443606,4.447612],[3.458027,4.449412]]]}},
{"type":"Feature","properties":{},"geometry":{"type":"Polygon","coordinates":[[[3.407965,4.405274],[3.402559,4.407086],[3.406167,4.414321],[3.409769,4.408891],[3.407965,4.405274]]]}},
{"type":"Feature","properties":{},"geometry":{"type":"Polygon","coordinates":[[[3.41146,4.386489],[3.406051,4.384683],[3.407858,4.391918],[3.41146,4.386489]]]}},
{"type":"Feature","properties":{},"geometry":{"type":"Polygon","coordinates":[[[3.092395,10.118405],[3.079617,10.118406],[3.075967,10.122023],[3.077795,10.129258],[3.110664,10.163619],[3.141725,10.221486],[3.159995,10.241373],[3.183742,10.255828],[3.216638,10.29379],[3.247695,10.304623],[3.264145,10.319079],[3.271463,10.333542],[3.311671,10.357016],[3.320816,10.367857],[3.335432,10.369651],[3.355541,10.382293],[3.404943,10.441921],[3.408583,10.431065],[3.393936,10.407571],[3.390251,10.382254],[3.381099,10.367796],[3.393833,10.324373],[3.388337,10.311719],[3.370054,10.295464],[3.351782,10.288246],[3.335345,10.288261],[3.328035,10.282841],[3.331665,10.261134],[3.342606,10.246656],[3.355383,10.241217],[3.355375,10.233983],[3.322455,10.18337],[3.27861,10.150859],[3.23844,10.140039],[3.214711,10.143669],[3.196472,10.169],[3.183691,10.167202],[3.134385,10.134672],[3.092395,10.118405]]]}},
{"type":"Feature","properties":{},"geometry":{"type":"Polygon","coordinates":[[[3.469487,10.568614],[3.464009,10.572238],[3.465842,10.575854],[3.471321,10.572229],[3.469487,10.568614]]]}},
{"type":"Feature","properties":{},"geometry":{"type":"Polygon","coordinates":[[[3.029753,10.62062],[3.020612,10.626048],[3.022441,10.633282],[3.044382,10.642322],[3.042552,10.631471],[3.029753,10.62062]]]}},
{"type":"Feature","properties":{},"geometry":{"type":"Polygon","coordinates":[[[3.194567,11.5339],[3.190902,11.537521],[3.214759,11.557399],[3.229429,11.553773],[3.194567,11.5339]]]}},
{"type":"Feature","properties":{},"geometry":{"type":"Polygon","coordinates":[[[2.90614,11.765448],[2.904303,11.770874],[2.911644,11.774492],[2.911646,11.769067],[2.90614,11.765448]]]}},
{"type":"Feature","properties":{},"geometry":{"type":"Polygon","coordinates":[[[2.922653,11.790772],[2.917148,11.783536],[2.907969,11.785343],[2.91531,11.79077],[2.922653,11.790772]]]}},
{"type":"Feature","properties":{},"geometry":{"type":"Polygon","coordinates":[[[2.935923,11.778113],[2.932251,11.78173],[2.945099,11.788964],[2.946935,11.785346],[2.935923,11.778113]]]}},
{"type":"Feature","properties":{},"geometry":{"type":"Polygon","coordinates":[[[2.952447,11.756412],[2.952451,11.729284],[2.945112,11.718431],[2.943272,11.74556],[2.952447,11.756412]]]}},
{"type":"Feature","properties":{},"geometry":{"type":"Polygon","coordinates":[[[3.016691,11.839613],[2.989154,11.79621],[2.968962,11.785354],[2.963456,11.779926],[2.963458,11.769075],[2.952446,11.760029],[2.959785,11.783542],[2.981811,11.799826],[2.989153,11.816104],[3.003839,11.832381],[3.016691,11.839613]]]}},
{"type":"Feature","properties":{},"geometry":{"type":"Polygon","coordinates":[[[3.018528,11.848656],[3.011184,11.843231],[3.009348,11.84504],[3.014856,11.850464],[3.018528,11.848656]]]}},
{"type":"Feature","properties":{},"geometry":{"type":"Polygon","coordinates":[[[2.981809,11.819719],[2.965289,11.805246],[2.961617,11.807054],[2.970795,11.816099],[2.981809,11.819719]]]}},
{"type":"Feature","properties":{},"geometry":{"type":"Polygon","coordinates":[[[2.647899,16.665325],[2.632899,16.663492],[2.649689,16.712329],[2.666556,16.721397],[2.690947,16.719619],[2.694713,16.710585],[2.687221,16.703345],[2.689106,16.697924],[2.672243,16.687058],[2.664759,16.676199],[2.647899,16.665325]],[[2.659107,16.690653],[2.677851,16.697911],[2.672215,16.703327],[2.65347,16.696067],[2.659107,16.690653]]]}},
{"type":"Feature","properties":{},"geometry":{"type":"Polygon","coordinates":[[[2.772361,16.949316],[2.761089,16.951111],[2.755447,16.956528],[2.75544,16.961951],[2.768569,16.978235],[2.764807,16.981846],[2.742265,16.981821],[2.732851,16.99627],[2.734718,17.005311],[2.72906,17.019764],[2.736561,17.030622],[2.747835,17.030636],[2.757221,17.037878],[2.766616,17.037888],[2.76661,17.04331],[2.770368,17.043316],[2.772256,17.036087],[2.777889,17.039708],[2.785414,17.032484],[2.787311,17.016218],[2.792954,17.010801],[2.830534,17.007212],[2.839922,17.014455],[2.856829,17.018088],[2.864349,17.01267],[2.864363,16.992786],[2.853098,16.983736],[2.843707,16.981918],[2.845596,16.969267],[2.841848,16.958417],[2.8118,16.952966],[2.794886,16.961993],[2.772361,16.949316]]]}},
{"type":"Feature","properties":{},"geometry":{"type":"Polygon","coordinates":[[[1.527616,11.718483],[1.505602,11.71837],[1.505582,11.721985],[1.507387,11.727419],[1.52023,11.727485],[1.533024,11.73659],[1.542198,11.736636],[1.543985,11.745685],[1.54947,11.749328],[1.566003,11.745793],[1.575149,11.751264],[1.582506,11.747686],[1.577076,11.733194],[1.564243,11.73132],[1.562437,11.725887],[1.547749,11.727624],[1.540449,11.720355],[1.533101,11.722126],[1.527616,11.718483]]]}},
{"type":"Feature","properties":{},"geometry":{"type":"Polygon","coordinates":[[[1.58896,11.649874],[1.565098,11.653368],[1.557714,11.662372],[1.570535,11.666052],[1.585236,11.660703],[1.58896,11.649874]]]}},
{"type":"Feature","properties":{},"geometry":{"type":"Polygon","coordinates":[[[1.832789,11.641924],[1.825422,11.649125],[1.827157,11.672639],[1.83454,11.661821],[1.832789,11.641924]]]}},
{"type":"Feature","properties":{},"geometry":{"type":"Polygon","coordinates":[[[1.867545,11.665573],[1.860237,11.658312],[1.849238,11.656458],[1.849215,11.661882],[1.858365,11.667346],[1.867545,11.665573]]]}},
{"type":"Feature","properties":{},"geometry":{"type":"Polygon","coordinates":[[[1.43407,11.099454],[1.415755,11.101169],[1.401071,11.108324],[1.399201,11.115545],[1.413817,11.121046],[1.424849,11.112063],[1.433993,11.113917],[1.439514,11.108521],[1.434032,11.106685],[1.43407,11.099454]]]}},
{"type":"Feature","properties":{},"geometry":{"type":"Polygon","coordinates":[[[1.414036,10.766683],[1.401246,10.76481],[1.388427,10.76836],[1.38657,10.773775],[1.412169,10.773905],[1.414036,10.766683]]]}},
{"type":"Feature","properties":{},"geometry":{"type":"Polygon","coordinates":[[[1.207103,10.729399],[1.192447,10.734735],[1.176016,10.731025],[1.16137,10.734555],[1.139445,10.732619],[1.13211,10.736191],[1.128387,10.747016],[1.133883,10.745241],[1.144774,10.757959],[1.159366,10.763468],[1.164851,10.7635],[1.164884,10.758077],[1.175864,10.756333],[1.194146,10.756439],[1.194113,10.761863],[1.210567,10.761959],[1.225309,10.74216],[1.207103,10.729399]],[[1.172558,10.742069],[1.176171,10.749321],[1.16703,10.749268],[1.167052,10.745653],[1.172558,10.742069]]]}},
{"type":"Feature","properties":{},"geometry":{"type":"Polygon","coordinates":[[[1.163771,10.608061],[1.163836,10.597214],[1.183957,10.593712],[1.198553,10.597413],[1.207647,10.604697],[1.224092,10.604792],[1.231422,10.601219],[1.233312,10.590383],[1.226024,10.586725],[1.200433,10.588385],[1.194983,10.58293],[1.187654,10.586503],[1.180366,10.582846],[1.171198,10.588217],[1.158419,10.586336],[1.154807,10.579084],[1.145693,10.575415],[1.134687,10.582583],[1.134673,10.594961],[1.152861,10.598958],[1.158278,10.609836],[1.163771,10.608061]]]}},
{"type":"Feature","properties":{},"geometry":{"type":"Polygon","coordinates":[[[1.282494,8.849637],[1.275231,8.847796],[1.260654,8.854963],[1.258794,8.863994],[1.26971,8.862236],[1.282494,8.849637]]]}},
{"type":"Feature","properties":{},"geometry":{"type":"Polygon","coordinates":[[[1.355104,8.881536],[1.342402,8.876054],[1.331477,8.879621],[1.349633,8.885128],[1.355104,8.881536]]]}},
{"type":"Feature","properties":{},"geometry":{"type":"Polygon","coordinates":[[[1.654367,8.613702],[1.639792,8.624502],[1.639773,8.629928],[1.648839,8.635384],[1.672494,8.626422],[1.670702,8.619183],[1.665244,8.620973],[1.654367,8.613702]]]}},
{"type":"Feature","properties":{},"geometry":{"type":"Polygon","coordinates":[[[1.549966,8.514305],[1.566281,8.523406],[1.551797,8.510694],[1.549966,8.514305]]]}},
{"type":"Feature","properties":{},"geometry":{"type":"Polygon","coordinates":[[[0.985357,8.761817],[0.981694,8.767221],[0.983453,8.778077],[0.987126,8.770866],[0.985357,8.761817]]]}},
{"type":"Feature","properties":{},"geometry":{"type":"Polygon","coordinates":[[[0.942669,8.696505],[0.929933,8.700051],[0.928096,8.703656],[0.946253,8.705564],[0.949907,8.701969],[0.942669,8.696505]]]}},
{"type":"Feature","properties":{},"geometry":{"type":"Polygon","coordinates":[[[0.835902,8.700413],[0.828636,8.700371],[0.828615,8.703986],[0.834054,8.705826],[0.835902,8.700413]]]}},
{"type":"Feature","properties":{},"geometry":{"type":"Polygon","coordinates":[[[0.843828,8.714732],[0.834755,8.712872],[0.827425,8.723676],[0.834682,8.725526],[0.843828,8.714732]]]}},
{"type":"Feature","properties":{},"geometry":{"type":"Polygon","coordinates":[[[9.368795,9.698032],[9.359703,9.696405],[9.354782,9.701892],[9.364739,9.703329],[9.368795,9.698032]]]}},
{"type":"Feature","properties":{},"geometry":{"type":"Polygon","coordinates":[[[3.110121,10.282379],[3.102818,10.289615],[3.110128,10.304084],[3.11378,10.300465],[3.113775,10.285996],[3.110121,10.282379]]]}},
{"type":"Feature","properties":{},"geometry":{"type":"Polygon","coordinates":[[[3.273483,11.591715],[3.286336,11.604362],[3.282646,11.582663],[3.27163,11.571823],[3.273483,11.591715]]]}},
{"type":"Feature","properties":{},"geometry":{"type":"Polygon","coordinates":[[[9.620035,9.710874],[9.609101,9.707493],[9.605266,9.711724],[9.612864,9.714609],[9.620035,9.710874]]]}},
{"type":"Feature","properties":{},"geometry":{"type":"Polygon","coordinates":[[[0.327058,10.57268],[0.316741,10.567608],[0.303759,10.572916],[0.314959,10.576646],[0.327058,10.57268]]]}},
{"type":"Feature","properties":{},"geometry":{"type":"Polygon","coordinates":[[[2.350362,11.364587],[2.346332,11.372332],[2.354362,11.391925],[2.35891,11.39756],[2.364044,11.396447],[2.356686,11.372241],[2.350362,11.364587]]]}},
{"type":"Feature","properties":{},"geometry":{"type":"Polygon","coordinates":[[[4.566583,8.179051],[4.554138,8.172351],[4.546255,8.177445],[4.556996,8.181339],[4.566583,8.179051]]]}},
{"type":"Feature","properties":{},"geometry":{"type":"Polygon","coordinates":[[[4.562235,8.221815],[4.557697,8.216209],[4.55148,8.214546],[4.549826,8.224677],[4.562235,8.221815]]]}},
{"type":"Feature","properties":{},"geometry":{"type":"Polygon","coordinates":[[[6.565348,11.110619],[6.567518,11.102107],[6.553302,11.095214],[6.54751,11.098352],[6.558763,11.10945],[6.565348,11.110619]]]}},
{"type":"Feature","properties":{},"geometry":{"type":"MultiPolygon","coordinates":[[[[6.560481,11.118397],[6.55652,11.111973],[6.540501,11.103925],[6.524167,11.104583],[6.560481,11.118397]]],[[[6.560481,11.118397],[6.560644,11.118662],[6.560641,11.118413],[6.560481,11.118397]]]]}},
{"type":"Feature","properties":{},"geometry":{"type":"Polygon","coordinates":[[[6.505177,4.700165],[6.500086,4.689847],[6.47433,4.689411],[6.48038,4.700288],[6.505177,4.700165]]]}},
{"type":"Feature","properties":{},"geometry":{"type":"Polygon","coordinates":[[[6.827036,10.213733],[6.825249,10.206455],[6.814489,10.207144],[6.819683,10.214943],[6.827036,10.213733]]]}},
{"type":"Feature","properties":{},"geometry":{"type":"Polygon","coordinates":[[[6.752324,10.222463],[6.743242,10.221443],[6.737601,10.223754],[6.744996,10.225915],[6.752324,10.222463]]]}},
{"type":"Feature","properties":{},"geometry":{"type":"Polygon","coordinates":[[[6.82999,10.270961],[6.827116,10.267628],[6.817455,10.265497],[6.82265,10.273295],[6.82999,10.270961]]]}},
{"type":"Feature","properties":{},"geometry":{"type":"Polygon","coordinates":[[[6.902616,10.090459],[6.89859,10.085454],[6.885542,10.083923],[6.886156,10.087846],[6.902616,10.090459]]]}},
{"type":"Feature","properties":{},"geometry":{"type":"Polygon","coordinates":[[[7.14602,5.772791],[7.139815,5.767223],[7.13087,5.770094],[7.135381,5.773991],[7.14602,5.772791]]]}},
{"type":"Feature","properties":{},"geometry":{"type":"Polygon","coordinates":[[[7.653875,9.281732],[7.647041,9.277333],[7.631212,9.275854],[7.631308,9.283145],[7.637027,9.288679],[7.653875,9.281732]]]}},
{"type":"Feature","properties":{},"geometry":{"type":"Polygon","coordinates":[[[9.947107,11.770018],[9.935791,11.765876],[9.925208,11.768619],[9.926229,11.775775],[9.930187,11.77706],[9.946407,11.775559],[9.947107,11.770018]]]}},
{"type":"Feature","properties":{},"geometry":{"type":"Polygon","coordinates":[[[15.166328,3.684807],[15.07036,3.621629],[14.995634,3.594679],[14.990798,3.588769],[14.96154,3.576491],[14.916975,3.534052],[14.882339,3.511307],[14.838637,3.490339],[14.749835,3.490774],[14.694774,3.466352],[14.653127,3.468072],[14.647115,3.463361],[14.629243,3.462388],[14.598435,3.474739],[14.535322,3.475526],[14.455298,3.458559],[14.434584,3.448481],[14.408676,3.445959],[14.394537,3.459304],[14.394682,3.471277],[14.406802,3.487893],[14.441391,3.503335],[14.497608,3.508316],[14.502681,3.512941],[14.533634,3.511355],[14.560926,3.52308],[14.561016,3.53026],[14.556252,3.53032],[14.555151,3.537515],[14.559086,3.566189],[14.552108,3.579444],[14.426028,3.594849],[14.381921,3.595982],[14.323039,3.609949],[14.291498,3.610302],[14.278474,3.617655],[14.259398,3.617896],[14.246417,3.628843],[14.196334,3.629475],[14.173808,3.640545],[14.175061,3.645323],[14.190945,3.650745],[14.216772,3.653967],[14.262462,3.671771],[14.275593,3.672801],[14.298506,3.692871],[14.308044,3.692748],[14.352399,3.711336],[14.356037,3.71608],[14.400325,3.729869],[14.421998,3.746347],[14.520946,3.74862],[14.556824,3.761702],[14.575349,3.771446],[14.584546,3.782472],[14.589088,3.792199],[14.587349,3.813549],[14.602899,3.818122],[14.608936,3.824022],[14.617662,3.823016],[14.638876,3.835575],[14.650785,3.83541],[14.698716,3.856277],[14.722563,3.858335],[14.754959,3.87582],[14.768957,3.877443],[14.775011,3.884533],[14.829854,3.912094],[14.839547,3.923911],[14.871021,3.941413],[14.878667,3.951769],[14.935699,3.94496],[14.978356,3.932386],[15.054447,3.92888],[15.114789,3.914305],[15.202943,3.918326],[15.192989,3.88344],[15.180763,3.864919],[15.176784,3.836317],[15.145079,3.780645],[15.145664,3.737642],[15.157919,3.698928],[15.166328,3.684807]]]}},
{"type":"Feature","properties":{},"geometry":{"type":"Polygon","coordinates":[[[3.189613,9.456655],[3.208576,9.459141],[3.208923,9.457637],[3.189613,9.456655]]]}}
]
}
