{
"type": "FeatureCollection",
"name": "Mountains",
"crs": { "type": "name", "properties": { "name": "urn:ogc:def:crs:OGC:1.3:CRS84" } },
"xy_coordinate_resolution": 1e-06,
"features": [
{"type":"Feature","properties":{},"geometry":{"type":"LineString","coordinates":[[6.974098,11.373329],[7.312986,10.624683],[7.257014,9.91986],[7.048939,9.339407],[6.767379,8.94797],[6.532903,8.390205],[6.184866,8.010868],[5.811789,7.364617]]}},
{"type":"Feature","properties":{},"geometry":{"type":"LineString","coordinates":[[7.247129,11.413115],[7.776445,11.410638],[8.65122,11.463075],[9.001687,11.467394],[9.284622,11.540681],[9.750687,11.5924],[10.984461,11.608055]]}},
{"type":"Feature","properties":{},"geometry":{"type":"LineString","coordinates":[[9.178972,11.435373],[9.535086,11.325759],[9.897982,11.280722],[10.174474,11.228921],[10.368669,11.212859]]}},
{"type":"Feature","properties":{},"geometry":{"type":"LineString","coordinates":[[10.694512,10.654172],[11.13854,10.620327],[12.113407,10.565262]]}},
{"type":"Feature","properties":{},"geometry":{"type":"LineString","coordinates":[[8.913755,9.577123],[9.396846,9.630783],[9.755158,9.728565],[9.984304,9.783299]]}},
{"type":"Feature","properties":{},"geometry":{"type":"LineString","coordinates":[[9.889481,10.670202],[9.97538,10.676769]]}},
{"type":"Feature","properties":{},"geometry":{"type":"LineString","coordinates":[[8.895454,6.593601],[9.703989,6.377051],[10.291203,6.346448],[10.815738,6.327475],[11.868344,6.488699],[13.103366,6.783519]]}},
{"type":"Feature","properties":{},"geometry":{"type":"LineString","coordinates":[[9.007859,6.357354],[9.192861,5.704045],[9.244147,5.19963],[9.268438,4.78613],[9.315866,4.406437],[9.4824,4.093769],[9.757406,3.967059],[10.21261,3.884085],[10.713301,3.91913],[11.163437,4.005022],[11.602512,4.141263],[12.003203,4.373019],[12.303429,4.633477],[12.733193,4.93638]]}},
{"type":"Feature","properties":{},"geometry":{"type":"LineString","coordinates":[[1.978965,8.672894],[1.745541,9.148871],[1.602971,9.963234],[1.677432,10.701536],[1.814697,11.363215],[2.077919,11.871554],[2.435945,12.364536],[2.607762,12.518601]]}},
{"type":"Feature","properties":{},"geometry":{"type":"LineString","coordinates":[[4.516772,6.238006],[4.947252,6.313457],[5.377538,6.342407],[5.8309,6.393901],[6.375731,6.359899],[6.942787,6.271478],[7.424367,6.10659],[7.829378,6.003467],[8.180184,5.870029],[8.507581,5.721427]]}}
]
}
