{
"type": "FeatureCollection",
"name": "least_cost_path",
"crs": { "type": "name", "properties": { "name": "urn:ogc:def:crs:OGC:1.3:CRS84" } },
"xy_coordinate_resolution": 1e-06,
"features": [
{"type":"Feature","properties":{},"geometry":{"type":"MultiLineString","coordinates":[[[3.14537,9.442897],[3.145369,9.441088],[3.145368,9.439278],[3.145368,9.437468],[3.145367,9.435658],[3.145366,9.433848],[3.145365,9.432038],[3.145365,9.430228],[3.145364,9.428418],[3.145363,9.426609],[3.14354,9.424799],[3.141716,9.42299],[3.139894,9.422991],[3.13807,9.421182],[3.136247,9.419373],[3.134424,9.419373],[3.132601,9.417564],[3.130777,9.415755],[3.128955,9.415756],[3.127132,9.413946],[3.125308,9.412137],[3.123486,9.412138],[3.121662,9.410329],[3.11984,9.410329],[3.118017,9.40852],[3.116193,9.406711],[3.11437,9.404901],[3.112547,9.403092],[3.110724,9.401283],[3.108901,9.399474],[3.107078,9.399474],[3.105256,9.399475],[3.103433,9.397665],[3.10161,9.397666],[3.099787,9.395856],[3.097964,9.394047],[3.096141,9.392238],[3.094318,9.390428],[3.092495,9.388619],[3.090672,9.388619],[3.088849,9.38681],[3.087027,9.38681],[3.085204,9.385001],[3.083381,9.385001],[3.081559,9.385002],[3.079736,9.383192],[3.077913,9.381383],[3.07609,9.379573],[3.074268,9.377764],[3.072445,9.375954],[3.070622,9.374145],[3.068799,9.372335],[3.068799,9.370526],[3.068798,9.368716],[3.068798,9.366906],[3.068798,9.365096],[3.066975,9.363286],[3.065152,9.361477],[3.065152,9.359667],[3.065152,9.357857],[3.063329,9.356047],[3.063329,9.354238],[3.061506,9.352428],[3.059683,9.350618],[3.057861,9.348809],[3.05786,9.346999],[3.05786,9.345189],[3.05786,9.343379],[3.05786,9.341569],[3.056037,9.33976],[3.056037,9.33795],[3.056036,9.33614],[3.054214,9.33433],[3.054214,9.33252],[3.054213,9.330711],[3.052391,9.328901],[3.052391,9.327091],[3.05239,9.325281],[3.05239,9.323471],[3.050568,9.321662],[3.050567,9.319852],[3.050567,9.318042],[3.050567,9.316232],[3.050567,9.314422],[3.050566,9.312612],[3.050566,9.310802],[3.050566,9.308992],[3.050566,9.307182],[3.050565,9.305373],[3.050565,9.303563],[3.048743,9.301753],[3.048743,9.299943],[3.048742,9.298133],[3.048742,9.296323],[3.04692,9.294514],[3.04692,9.292704],[3.046919,9.290894],[3.046919,9.289084],[3.045097,9.287274],[3.045097,9.285465],[3.045096,9.283655],[3.043274,9.281845],[3.043274,9.280035],[3.043274,9.278225],[3.043274,9.276415],[3.043273,9.274605],[3.043273,9.272795],[3.043273,9.270986],[3.043273,9.269176],[3.043272,9.267366],[3.043272,9.265556],[3.043272,9.263746],[3.043272,9.261936],[3.043272,9.260126],[3.043271,9.258316],[3.043271,9.256506],[3.043271,9.254697],[3.043271,9.252887],[3.04327,9.251077],[3.04327,9.249267],[3.04327,9.247457],[3.04327,9.245647],[3.04327,9.243837],[3.045091,9.242027],[3.045091,9.240217],[3.045091,9.238407],[3.04509,9.236597],[3.04509,9.234787],[3.04509,9.232978],[3.04509,9.231168],[3.046911,9.229357],[3.046911,9.227548],[3.046911,9.225738],[3.04691,9.223928],[3.04691,9.222118],[3.04691,9.220308],[3.04691,9.218498],[3.048731,9.216688],[3.048731,9.214878],[3.048731,9.213068],[3.04873,9.211258],[3.04873,9.209448],[3.050551,9.207638],[3.050551,9.205828],[3.050551,9.204018],[3.052372,9.202208],[3.052372,9.200398],[3.052372,9.198588],[3.052371,9.196779],[3.054193,9.194968],[3.054192,9.193158],[3.054192,9.191349],[3.056013,9.189538],[3.056013,9.187728],[3.056013,9.185919],[3.056012,9.184109],[3.056012,9.182299],[3.056012,9.180489],[3.056012,9.178679],[3.057833,9.176869],[3.057832,9.175059],[3.057832,9.173249],[3.057832,9.171439],[3.057831,9.169629],[3.057831,9.167819],[3.057831,9.166009],[3.057831,9.164199],[3.05783,9.16239],[3.05783,9.16058],[3.05783,9.15877],[3.057829,9.15696],[3.057829,9.15515],[3.057829,9.15334],[3.057829,9.15153],[3.057828,9.14972],[3.059649,9.14791],[3.059649,9.1461],[3.059649,9.14429],[3.059648,9.14248],[3.059648,9.14067],[3.059648,9.13886],[3.059647,9.137051],[3.059647,9.135241],[3.059647,9.133431],[3.059647,9.131621],[3.059646,9.129811],[3.059646,9.128001],[3.059646,9.126191],[3.059645,9.124381],[3.059645,9.122571],[3.059645,9.120761],[3.059644,9.118951],[3.059644,9.117142],[3.059644,9.115332],[3.059644,9.113522],[3.059643,9.111712],[3.059643,9.109902],[3.059643,9.108092],[3.059642,9.106282],[3.059642,9.104472],[3.059642,9.102662],[3.059641,9.100852],[3.059641,9.099042],[3.059641,9.097233],[3.059641,9.095423],[3.05964,9.093613],[3.05964,9.091803],[3.05964,9.089993],[3.059639,9.088183],[3.06146,9.086373],[3.06146,9.084563],[3.061459,9.082753],[3.061459,9.080943],[3.061459,9.079133],[3.061458,9.077323],[3.061458,9.075513],[3.061458,9.073703],[3.061457,9.071893],[3.061457,9.070084],[3.061457,9.068274],[3.061457,9.066464],[3.061456,9.064654],[3.061456,9.062844],[3.061456,9.061034],[3.061455,9.059224],[3.061455,9.057414],[3.063276,9.055604],[3.063275,9.053794],[3.063275,9.051984],[3.063275,9.050174],[3.063274,9.048364],[3.065095,9.046554],[3.065094,9.044744],[3.065094,9.042934],[3.065094,9.041124],[3.066914,9.039314],[3.066914,9.037504],[3.066913,9.035694],[3.066913,9.033884],[3.066913,9.032074],[3.066912,9.030264],[3.068733,9.028454],[3.068732,9.026644],[3.068732,9.024834],[3.068732,9.023024],[3.068731,9.021214],[3.068731,9.019405],[3.070551,9.017594],[3.070551,9.015784],[3.072371,9.013974],[3.074191,9.012164],[3.076012,9.010354],[3.077832,9.008543],[3.079652,9.006733],[3.081472,9.004923],[3.083292,9.003112],[3.085112,9.001302],[3.086932,8.999492],[3.088752,8.997681],[3.090572,8.995871],[3.090572,8.994061],[3.092392,8.992251],[3.094212,8.99044],[3.096032,8.98863],[3.097852,8.986819],[3.099672,8.985009],[3.101492,8.983199],[3.103312,8.981388],[3.103311,8.979578],[3.105131,8.977768],[3.106951,8.975957],[3.106951,8.974147],[3.10695,8.972337],[3.10877,8.970527],[3.108769,8.968717],[3.110589,8.966907],[3.112409,8.965096],[3.112408,8.963286],[3.114228,8.961476],[3.116048,8.959665],[3.117868,8.957855],[3.119687,8.956044],[3.119687,8.954234],[3.119686,8.952424],[3.121506,8.950614],[3.121505,8.948804],[3.121505,8.946994],[3.123324,8.945184],[3.123324,8.943374],[3.123323,8.941564],[3.123322,8.939754],[3.125142,8.937943],[3.126962,8.936133],[3.126961,8.934323],[3.12696,8.932513],[3.12696,8.930703],[3.128779,8.928892],[3.128779,8.927082],[3.130598,8.925272],[3.132418,8.923461],[3.132417,8.921651],[3.132416,8.919841],[3.132416,8.918032],[3.132415,8.916222],[3.132414,8.914412],[3.132414,8.912602],[3.134233,8.910791],[3.134232,8.908981],[3.134232,8.907171],[3.134231,8.905361],[3.13423,8.903551],[3.13423,8.901742],[3.134229,8.899932],[3.132408,8.898122],[3.132408,8.896312],[3.132407,8.894502],[3.132406,8.892693],[3.132406,8.890883],[3.132405,8.889073],[3.132405,8.887263],[3.132404,8.885453],[3.132403,8.883643],[3.132403,8.881833],[3.132402,8.880023],[3.132401,8.878213],[3.132401,8.876403],[3.1324,8.874593],[3.132399,8.872783],[3.132399,8.870973],[3.132398,8.869163],[3.132397,8.867354],[3.134217,8.865543],[3.134216,8.863733],[3.134215,8.861923],[3.134215,8.860113],[3.134214,8.858303],[3.136033,8.856493],[3.136032,8.854683],[3.137852,8.852872],[3.137851,8.851062],[3.13785,8.849252],[3.139669,8.847442],[3.141488,8.845631],[3.143307,8.84382],[3.145126,8.84201],[3.146945,8.840199],[3.148764,8.838388],[3.150583,8.836578],[3.152402,8.834767],[3.154222,8.834766],[3.156042,8.834766],[3.157861,8.834765],[3.15968,8.832954],[3.1615,8.832953],[3.163319,8.831143],[3.165138,8.829332],[3.166957,8.829331],[3.168776,8.82752],[3.170595,8.82571],[3.172415,8.825709],[3.174234,8.823898],[3.176052,8.822087],[3.177871,8.820277],[3.17969,8.818466],[3.181509,8.816655],[3.183327,8.814844],[3.185146,8.813033],[3.185145,8.811223],[3.185144,8.809413],[3.186963,8.807603],[3.186962,8.805793],[3.186961,8.803983],[3.18878,8.802172],[3.190598,8.800361],[3.192417,8.79855],[3.194235,8.796739],[3.196055,8.796738],[3.197874,8.796737],[3.199693,8.794927],[3.201511,8.793116],[3.203331,8.793115],[3.20515,8.793114],[3.20697,8.793113],[3.208788,8.791302],[3.210608,8.791301],[3.212426,8.78949],[3.214246,8.789489],[3.216064,8.787678],[3.217882,8.785867],[3.219701,8.784056],[3.22152,8.784055],[3.22334,8.784054],[3.225158,8.782243],[3.226977,8.782242],[3.228797,8.78224],[3.230616,8.782239],[3.232436,8.782238],[3.234255,8.782237],[3.236075,8.782236],[3.237893,8.780425],[3.239711,8.778614],[3.241531,8.778613],[3.24335,8.778611],[3.245168,8.7768],[3.246986,8.774989],[3.248806,8.774988],[3.250624,8.773177],[3.252442,8.771366],[3.25426,8.769555],[3.256078,8.767743],[3.257896,8.765932],[3.259714,8.764121],[3.261533,8.76231],[3.263351,8.760499],[3.265169,8.758688],[3.266987,8.756876],[3.268805,8.755065],[3.270623,8.753254],[3.272441,8.751443],[3.274259,8.749631],[3.276076,8.74782],[3.277894,8.746009],[3.279712,8.744198],[3.28153,8.742386],[3.281529,8.740577],[3.283347,8.738765],[3.285164,8.736954],[3.286982,8.735143],[3.2888,8.733331],[3.290618,8.73152],[3.292436,8.729709],[3.294253,8.727897],[3.296071,8.726086],[3.297889,8.724275],[3.299706,8.722463],[3.301524,8.720652],[3.303342,8.718841],[3.305159,8.717029],[3.306977,8.715218],[3.308795,8.713406],[3.310612,8.711595],[3.31243,8.709784],[3.314247,8.707972],[3.316065,8.706161],[3.317882,8.704349],[3.3197,8.702538],[3.321517,8.700726],[3.323336,8.700725],[3.325154,8.698913],[3.326971,8.697102],[3.328789,8.69529],[3.330608,8.695289],[3.332427,8.695287],[3.334246,8.695286],[3.336065,8.695284],[3.337884,8.695282],[3.339703,8.695281],[3.34152,8.693469],[3.343339,8.693468],[3.345156,8.691656],[3.346974,8.689845],[3.348791,8.688033],[3.350608,8.686221],[3.352427,8.68622],[3.354246,8.686218],[3.356065,8.686216],[3.357882,8.684405],[3.359701,8.684403],[3.361518,8.682591],[3.363335,8.68078],[3.365153,8.678968],[3.36697,8.677156],[3.368789,8.677155],[3.370608,8.677153],[3.372426,8.677151],[3.374244,8.675339],[3.376061,8.673528],[3.377879,8.673526],[3.379698,8.673524],[3.381517,8.673522],[3.383336,8.67352],[3.385153,8.671709],[3.38697,8.669897],[3.388787,8.668085],[3.390604,8.666273],[3.392423,8.666272],[3.394242,8.66627],[3.396061,8.666268],[3.397879,8.666266],[3.399696,8.664454],[3.401515,8.664452],[3.403334,8.66445],[3.405151,8.662638],[3.40697,8.662637],[3.408787,8.660825],[3.410605,8.660823],[3.412424,8.660821],[3.414241,8.659009],[3.41606,8.659007],[3.417877,8.657195],[3.419693,8.655383],[3.421512,8.655381],[3.423331,8.655379],[3.42515,8.655377],[3.426966,8.653565],[3.428785,8.653563],[3.430604,8.653561],[3.432421,8.651749],[3.434239,8.651747],[3.436058,8.651745],[3.437877,8.651743],[3.439694,8.649931],[3.441512,8.649929],[3.443329,8.648117],[3.445148,8.648115],[3.446966,8.648113],[3.448785,8.648111],[3.450604,8.648108],[3.452423,8.648106],[3.454239,8.646294],[3.456058,8.646292],[3.457877,8.64629],[3.459695,8.646288],[3.461512,8.644476],[3.463331,8.644473],[3.465149,8.644471],[3.466966,8.642659],[3.468785,8.642657],[3.470603,8.642655],[3.47242,8.640842],[3.474236,8.63903],[3.476055,8.639028],[3.477873,8.639026],[3.479692,8.639024],[3.481511,8.639021],[3.48333,8.639019],[3.485146,8.637207],[3.486965,8.637205],[3.488781,8.635392],[3.490597,8.63358],[3.492416,8.633578],[3.494235,8.633575],[3.496053,8.633573],[3.497872,8.633571],[3.499691,8.633568],[3.501507,8.631756],[3.503325,8.631754],[3.505144,8.631751],[3.50696,8.629939],[3.508779,8.629937],[3.510595,8.628124],[3.512414,8.628122],[3.514232,8.628119],[3.516049,8.626307],[3.517867,8.626305],[3.519686,8.626302],[3.521502,8.62449],[3.52332,8.624487],[3.525137,8.622675],[3.526953,8.620863],[3.528771,8.62086],[3.53059,8.620858],[3.532408,8.620855],[3.534224,8.619043],[3.536043,8.61904],[3.537859,8.617228],[3.539678,8.617225],[3.541496,8.617223],[3.543312,8.61541],[3.545131,8.615408],[3.546949,8.615405],[3.548765,8.613593],[3.550584,8.61359],[3.5524,8.611778],[3.554218,8.611775],[3.556037,8.611772],[3.557855,8.61177],[3.559674,8.611767],[3.561492,8.611764],[3.563311,8.611762],[3.565129,8.611759],[3.566948,8.611756],[3.568764,8.609944],[3.57058,8.608131],[3.572398,8.608129],[3.574217,8.608126],[3.576035,8.608123],[3.577851,8.60631],[3.579669,8.606308],[3.581488,8.606305],[3.583306,8.606302],[3.585122,8.60449],[3.58694,8.604487],[3.588756,8.602674],[3.590575,8.602671],[3.592393,8.602669],[3.594209,8.600856],[3.596027,8.600853],[3.597846,8.60085],[3.599661,8.599038],[3.60148,8.599035],[3.603295,8.597222],[3.605111,8.595409],[3.606929,8.595407],[3.608748,8.595404],[3.610563,8.593591],[3.612382,8.593588],[3.6142,8.593585],[3.616019,8.593582],[3.617837,8.593579],[3.619655,8.593576],[3.621471,8.591764],[3.623286,8.589951],[3.625105,8.589948],[3.62692,8.588135],[3.628739,8.588132],[3.630554,8.586319],[3.632372,8.586316],[3.634191,8.586313],[3.636009,8.58631],[3.637828,8.586307],[3.639646,8.586304],[3.641461,8.584491],[3.643277,8.582679],[3.645092,8.580866],[3.64691,8.580863],[3.648729,8.58086],[3.650544,8.579047],[3.652362,8.579044],[3.654181,8.579041],[3.655996,8.577228],[3.657814,8.577225],[3.659629,8.575412],[3.661445,8.573599],[3.663263,8.573595],[3.665081,8.573592],[3.666896,8.571779],[3.668715,8.571776],[3.670533,8.571773],[3.672351,8.57177],[3.674166,8.569957],[3.675981,8.568144],[3.6778,8.568141],[3.679618,8.568138],[3.681433,8.566324],[3.683251,8.566321],[3.685066,8.564508],[3.686885,8.564505],[3.688703,8.564502],[3.690518,8.562689],[3.692333,8.560876],[3.694148,8.559063],[3.695966,8.559059],[3.697784,8.559056],[3.699599,8.557243],[3.701417,8.55724],[3.703232,8.555426],[3.705051,8.555423],[3.706865,8.55361],[3.708684,8.553607],[3.710502,8.553603],[3.71232,8.5536],[3.714138,8.553597],[3.715953,8.551783],[3.717771,8.55178],[3.719586,8.549967],[3.721404,8.549963],[3.723219,8.54815],[3.725037,8.548147],[3.726855,8.548143],[3.72867,8.54633],[3.730485,8.544517],[3.732303,8.544514],[3.734118,8.5427],[3.735936,8.542697],[3.73775,8.540884],[3.739569,8.54088],[3.741383,8.539067],[3.743201,8.539063],[3.745016,8.53725],[3.746834,8.537247],[3.748652,8.537243],[3.75047,8.53724],[3.752288,8.537236],[3.754103,8.535423],[3.755921,8.535419],[3.757739,8.535416],[3.759557,8.535412],[3.761372,8.533599],[3.763186,8.531785],[3.765004,8.531782],[3.766822,8.531778],[3.76864,8.531774],[3.770455,8.529961],[3.772269,8.528148],[3.774087,8.528144],[3.775902,8.526331],[3.777716,8.524517],[3.779534,8.524514],[3.781348,8.5227],[3.783166,8.522696],[3.784981,8.520883],[3.786799,8.520879],[3.788617,8.520876],[3.790431,8.519062],[3.792249,8.519058],[3.794067,8.519055],[3.795881,8.517241],[3.797699,8.517237],[3.799514,8.515424],[3.801332,8.51542],[3.803146,8.513607],[3.804964,8.513603],[3.806782,8.513599],[3.8086,8.513595],[3.810418,8.513592],[3.812236,8.513588],[3.81405,8.511774],[3.815868,8.51177],[3.817686,8.511767],[3.8195,8.509953],[3.821318,8.509949],[3.823132,8.508135],[3.82495,8.508132],[3.826764,8.506318],[3.828578,8.504504],[3.830396,8.5045],[3.832214,8.504497],[3.834032,8.504493],[3.835846,8.502679],[3.837664,8.502675],[3.839477,8.500861],[3.841291,8.499048],[3.843109,8.499044],[3.844927,8.49904],[3.846741,8.497226],[3.848555,8.495412],[3.850373,8.495408],[3.852187,8.493595],[3.854001,8.491781],[3.855818,8.491777],[3.857632,8.489963],[3.85945,8.489959],[3.861264,8.488145],[3.863078,8.486332],[3.864891,8.484518],[3.866705,8.482704],[3.868523,8.4827],[3.870341,8.482696],[3.872159,8.482692],[3.873972,8.480878],[3.875786,8.479064],[3.877604,8.47906],[3.879422,8.479056],[3.881239,8.479052],[3.883053,8.477238],[3.884871,8.477234],[3.886688,8.47723],[3.888506,8.477226],[3.890324,8.477222],[3.892142,8.477217],[3.893959,8.477213],[3.895777,8.477209],[3.897591,8.475395],[3.899404,8.473581],[3.901222,8.473577],[3.90304,8.473573],[3.904853,8.471759],[3.906667,8.469945],[3.908485,8.469941],[3.910298,8.468127],[3.912116,8.468122],[3.913929,8.466308],[3.915747,8.466304],[3.91756,8.46449],[3.919374,8.462676],[3.921191,8.462672],[3.923005,8.460858],[3.924822,8.460854],[3.926636,8.45904],[3.928453,8.459035],[3.930271,8.459031],[3.932089,8.459027],[3.933902,8.457213],[3.93572,8.457208],[3.937537,8.457204],[3.939355,8.457199],[3.941168,8.455385],[3.942986,8.455381],[3.944803,8.455377],[3.946621,8.455372],[3.948434,8.453558],[3.950252,8.453554],[3.952069,8.453549],[3.953887,8.453545],[3.955705,8.45354],[3.957522,8.453536],[3.959335,8.451722],[3.961153,8.451717],[3.962966,8.449903],[3.964779,8.448089],[3.966597,8.448084],[3.96841,8.44627],[3.970223,8.444456],[3.97204,8.444452],[3.973853,8.442637],[3.975671,8.442633],[3.977484,8.440819],[3.979297,8.439004],[3.981115,8.439],[3.982928,8.437186],[3.984745,8.437181],[3.986558,8.435367],[3.988375,8.435362],[3.990193,8.435358],[3.992006,8.433543],[3.993823,8.433539],[3.995636,8.431724],[3.997449,8.42991],[3.999262,8.428096],[4.001075,8.426281],[4.002892,8.426277],[4.00471,8.426272],[4.006522,8.424458],[4.008335,8.422643],[4.010153,8.422639],[4.01197,8.422634],[4.013788,8.422629],[4.015605,8.422625],[4.017422,8.42262],[4.01924,8.422615],[4.021053,8.420801],[4.02287,8.420796],[4.024683,8.418982],[4.0265,8.418977],[4.028317,8.418972],[4.03013,8.417158],[4.031947,8.417153],[4.033765,8.417148],[4.035582,8.417143],[4.037395,8.415329],[4.039212,8.415324],[4.041025,8.41351],[4.042842,8.413505],[4.044655,8.41169],[4.046472,8.411686],[4.048285,8.409871],[4.050102,8.409866],[4.051914,8.408052],[4.053732,8.408047],[4.055544,8.406232],[4.057357,8.404418],[4.059169,8.402603],[4.060986,8.402598],[4.062804,8.402593],[4.064616,8.400779],[4.066433,8.400774],[4.068251,8.400769],[4.070068,8.400764],[4.071885,8.400759],[4.073703,8.400754],[4.07552,8.400749],[4.077332,8.398934],[4.07915,8.39893],[4.080962,8.397115],[4.082779,8.39711],[4.084596,8.397105],[4.086409,8.39529],[4.088226,8.395285],[4.090043,8.39528],[4.09186,8.395275],[4.093673,8.39346],[4.09549,8.393455],[4.097302,8.391641],[4.099119,8.391636],[4.100931,8.389821],[4.102749,8.389816],[4.104566,8.389811],[4.106378,8.387996],[4.108195,8.387991],[4.110012,8.387986],[4.111824,8.386171],[4.113642,8.386166],[4.115454,8.384351],[4.117271,8.384346],[4.119083,8.382531],[4.1209,8.382526],[4.122712,8.380711],[4.124524,8.378896],[4.126336,8.377082],[4.128148,8.375267],[4.129965,8.375262],[4.131782,8.375256],[4.133594,8.373442],[4.135411,8.373436],[4.137229,8.373431],[4.139046,8.373426],[4.140863,8.373421],[4.142675,8.371606],[4.144492,8.371601],[4.146309,8.371595],[4.148126,8.37159],[4.149943,8.371585],[4.15176,8.371579],[4.153577,8.371574],[4.155389,8.369759],[4.157206,8.369754],[4.159023,8.369749],[4.160835,8.367934],[4.162652,8.367928],[4.164469,8.367923],[4.166281,8.366108],[4.168098,8.366103],[4.169915,8.366097],[4.171727,8.364282],[4.173544,8.364277],[4.175361,8.364271],[4.177178,8.364266],[4.17899,8.362451],[4.180807,8.362446],[4.182624,8.36244],[4.184441,8.362435],[4.186252,8.36062],[4.188069,8.360614],[4.189886,8.360609],[4.191698,8.358794],[4.19351,8.356979],[4.195327,8.356973],[4.197144,8.356968],[4.198961,8.356962],[4.200778,8.356957],[4.202589,8.355142],[4.204401,8.353327],[4.206218,8.353321],[4.208035,8.353315],[4.209852,8.35331],[4.211663,8.351495],[4.213474,8.34968],[4.215286,8.347864],[4.217103,8.347859],[4.21892,8.347853],[4.220731,8.346038],[4.222542,8.344223],[4.224359,8.344217],[4.226171,8.342402],[4.227982,8.340587],[4.229793,8.338772],[4.231604,8.336957],[4.233416,8.335141],[4.235232,8.335136],[4.237049,8.33513],[4.238866,8.335124],[4.240677,8.333309],[4.242489,8.331494],[4.2443,8.329679],[4.246111,8.327863],[4.247928,8.327858],[4.249739,8.326042],[4.251556,8.326037],[4.253373,8.326031],[4.255189,8.326025],[4.257,8.32421],[4.258812,8.322395],[4.260623,8.320579],[4.262439,8.320574],[4.26425,8.318758],[4.266061,8.316943],[4.267872,8.315128],[4.269689,8.315122],[4.271506,8.315116],[4.273317,8.313301],[4.275128,8.311485],[4.276944,8.31148],[4.278761,8.311474],[4.280572,8.309658],[4.282383,8.307843],[4.284194,8.306028],[4.286005,8.304212],[4.287815,8.302397],[4.289626,8.300581],[4.291437,8.298766],[4.293248,8.296951],[4.295059,8.295135],[4.296869,8.29332],[4.29868,8.291504],[4.300491,8.289689],[4.302301,8.287873],[4.304112,8.286058],[4.305923,8.284242],[4.307733,8.282427],[4.309544,8.280611],[4.311355,8.278796],[4.313165,8.276981],[4.314976,8.275165],[4.316786,8.27335],[4.31678,8.27154],[4.318591,8.269725],[4.320401,8.267909],[4.322212,8.266094],[4.324022,8.264278],[4.325833,8.262463],[4.327649,8.262456],[4.32946,8.260641],[4.33127,8.258825],[4.33308,8.25701],[4.334891,8.255194],[4.336701,8.253379],[4.336695,8.251569],[4.336689,8.24976],[4.336683,8.24795],[4.338493,8.246135],[4.340304,8.244319],[4.342114,8.242504],[4.343924,8.240688],[4.345734,8.238872],[4.347545,8.237057],[4.349361,8.237051],[4.351171,8.235235],[4.352982,8.23342],[4.354792,8.231604],[4.356602,8.229788],[4.358412,8.227973],[4.360222,8.226157],[4.362032,8.224341],[4.363842,8.222526],[4.365652,8.22071],[4.367463,8.218894],[4.369273,8.217079],[4.371083,8.215263],[4.372893,8.213448],[4.374703,8.211632],[4.376513,8.209816],[4.378323,8.208],[4.380133,8.206185],[4.381943,8.204369],[4.383759,8.204363],[4.385575,8.204357],[4.387385,8.202541],[4.389195,8.200725],[4.391005,8.198909],[4.392814,8.197094],[4.394624,8.195278],[4.396434,8.193462],[4.398244,8.191647],[4.400054,8.189831],[4.401864,8.188015],[4.403673,8.186199],[4.405483,8.184383],[4.407293,8.182568],[4.409102,8.180752],[4.409096,8.178942],[4.410906,8.177127],[4.412715,8.175311],[4.414525,8.173495],[4.416335,8.171679],[4.418144,8.169864],[4.419954,8.168048],[4.421764,8.166232],[4.423573,8.164416],[4.423567,8.162607],[4.42356,8.160797],[4.42537,8.158981],[4.427179,8.157166],[4.428989,8.15535],[4.430798,8.153534],[4.432608,8.151718],[4.434417,8.149902],[4.436227,8.148086],[4.438036,8.14627],[4.439846,8.144455],[4.441655,8.142639],[4.443464,8.140823],[4.445274,8.139007],[4.447083,8.137191],[4.448892,8.135375],[4.450702,8.133559],[4.452511,8.131743],[4.45432,8.129927],[4.45613,8.128112],[4.457939,8.126296],[4.459748,8.12448],[4.459742,8.12267],[4.461551,8.120854],[4.461544,8.119045],[4.463353,8.117229],[4.465163,8.115413],[4.465156,8.113604],[4.466965,8.111788],[4.468774,8.109972],[4.470583,8.108156],[4.470577,8.106346],[4.472386,8.10453],[4.474195,8.102714],[4.476004,8.100898],[4.477813,8.099082],[4.479622,8.097267],[4.481431,8.095451],[4.48324,8.093635],[4.485049,8.091819],[4.486858,8.090003],[4.488667,8.088187],[4.490476,8.086371],[4.492285,8.084555],[4.494094,8.082738],[4.495903,8.080922],[4.497712,8.079106],[4.49952,8.07729],[4.501336,8.077284],[4.503151,8.077277],[4.50496,8.075461],[4.506776,8.075454],[4.508585,8.073638],[4.5104,8.073632],[4.512209,8.071815],[4.514018,8.069999],[4.515833,8.069993],[4.517642,8.068177],[4.519457,8.06817],[4.521266,8.066354],[4.523075,8.064538],[4.52489,8.064531],[4.526705,8.064524],[4.528521,8.064517],[4.530336,8.064511],[4.532152,8.064504],[4.53396,8.062688],[4.535769,8.060871],[4.537578,8.059055],[4.537571,8.057246],[4.537564,8.055437],[4.537557,8.053627],[4.53755,8.051818],[4.537543,8.050009],[4.537537,8.048199],[4.53753,8.04639],[4.537523,8.04458],[4.537516,8.042771],[4.537509,8.040962],[4.539318,8.039146],[4.539311,8.037336],[4.539304,8.035527],[4.541113,8.033711],[4.541106,8.031901],[4.541099,8.030092],[4.541092,8.028283],[4.541085,8.026473],[4.541079,8.024664],[4.541072,8.022855],[4.541065,8.021045],[4.541058,8.019236],[4.541051,8.017427],[4.541045,8.015617],[4.541038,8.013808],[4.541031,8.011999],[4.541024,8.010189],[4.541017,8.00838],[4.541011,8.00657],[4.542819,8.004754],[4.542812,8.002945],[4.542805,8.001136],[4.542798,7.999326],[4.542792,7.997517],[4.5446,7.995701],[4.544593,7.993891],[4.546401,7.992075],[4.546395,7.990266],[4.546388,7.988457],[4.546381,7.986647],[4.546374,7.984838],[4.546367,7.983028],[4.546361,7.981219],[4.546354,7.97941],[4.546347,7.9776],[4.54634,7.975791],[4.546333,7.973982],[4.546327,7.972172],[4.54632,7.970363],[4.546313,7.968554],[4.548121,7.966738],[4.549929,7.964921],[4.549923,7.963112],[4.549916,7.961303],[4.549909,7.959493],[4.549902,7.957684],[4.55171,7.955868],[4.551704,7.954058],[4.551697,7.952249],[4.553505,7.950433],[4.553498,7.948624],[4.553491,7.946814],[4.555299,7.944998],[4.555292,7.943189],[4.555286,7.941379],[4.557094,7.939563],[4.557087,7.937754],[4.55708,7.935945],[4.557073,7.934135],[4.557066,7.932326],[4.55706,7.930517],[4.557053,7.928707],[4.557046,7.926898],[4.558854,7.925082],[4.558847,7.923272],[4.560655,7.921456],[4.560648,7.919647],[4.562456,7.917831],[4.564264,7.916015],[4.566072,7.914198],[4.56788,7.912382],[4.569688,7.910566],[4.569681,7.908757],[4.569674,7.906947],[4.569667,7.905138],[4.569661,7.903329],[4.569654,7.901519],[4.569647,7.89971],[4.56964,7.897901],[4.569633,7.896091],[4.569626,7.894282],[4.56962,7.892473],[4.569613,7.890663],[4.569606,7.888854],[4.569599,7.887045],[4.571407,7.885229],[4.5714,7.883419],[4.573208,7.881603],[4.573201,7.879794],[4.575009,7.877978],[4.576817,7.876161],[4.57681,7.874352],[4.578617,7.872536],[4.578611,7.870727],[4.580418,7.86891],[4.580411,7.867101],[4.580405,7.865292],[4.582212,7.863476],[4.582205,7.861666],[4.582199,7.859857],[4.582192,7.858048],[4.583999,7.856231],[4.583992,7.854422],[4.5858,7.852606],[4.585793,7.850797],[4.587601,7.84898],[4.589408,7.847164],[4.591216,7.845348],[4.593023,7.843532],[4.594831,7.841716],[4.594824,7.839906],[4.596632,7.83809],[4.598439,7.836274],[4.600253,7.836267],[4.602061,7.834451],[4.603868,7.832635],[4.605676,7.830818],[4.607483,7.829002],[4.607476,7.827193],[4.607469,7.825384],[4.609277,7.823567],[4.611084,7.821751],[4.611077,7.819942],[4.612884,7.818126],[4.614692,7.816309],[4.614685,7.8145],[4.614678,7.812691],[4.616485,7.810874],[4.616478,7.809065],[4.618285,7.807249],[4.618278,7.80544],[4.620086,7.803623],[4.621893,7.801807],[4.6237,7.799991],[4.623693,7.798182],[4.6255,7.796365],[4.625493,7.794556],[4.625486,7.792747],[4.627294,7.79093],[4.629101,7.789114],[4.630908,7.787298],[4.630901,7.785489],[4.632708,7.783672],[4.634515,7.781856],[4.634508,7.780047],[4.636315,7.77823],[4.636308,7.776421],[4.638115,7.774605],[4.639922,7.772789],[4.639915,7.770979],[4.641722,7.769163],[4.641715,7.767354],[4.643522,7.765537],[4.643515,7.763728],[4.645322,7.761912],[4.645315,7.760103],[4.647122,7.758286],[4.647115,7.756477],[4.648922,7.754661],[4.648915,7.752851],[4.648908,7.751042],[4.650715,7.749226],[4.652522,7.747409],[4.654329,7.745593],[4.656143,7.745586],[4.657949,7.74377],[4.659756,7.741953],[4.661563,7.740137],[4.66337,7.738321],[4.665177,7.736504],[4.666983,7.734688],[4.66879,7.732872],[4.670604,7.732865],[4.672411,7.731048],[4.674225,7.731041],[4.676039,7.731034],[4.677852,7.731027],[4.679659,7.72921],[4.681466,7.727394],[4.683272,7.725578],[4.685086,7.725571],[4.6869,7.725563],[4.688707,7.723747],[4.690513,7.721931],[4.69232,7.720114],[4.694127,7.718298],[4.695933,7.716481],[4.69774,7.714665],[4.699546,7.712848],[4.701353,7.711032],[4.703159,7.709215],[4.704966,7.707399],[4.706772,7.705583],[4.708586,7.705575],[4.710392,7.703759],[4.712199,7.701942],[4.714005,7.700126],[4.713998,7.698317],[4.715804,7.6965],[4.715797,7.694691],[4.717603,7.692874],[4.717596,7.691065],[4.719403,7.689249],[4.721209,7.687432],[4.723015,7.685616],[4.724821,7.683799],[4.726628,7.681983],[4.728434,7.680166],[4.730248,7.680159],[4.732061,7.680152],[4.733867,7.678335],[4.735681,7.678328],[4.737487,7.676511],[4.739293,7.674695],[4.741107,7.674687],[4.742913,7.672871],[4.744727,7.672864],[4.746533,7.671047],[4.746526,7.669238],[4.748332,7.667421],[4.750138,7.665605],[4.751944,7.663788],[4.75375,7.661971],[4.755563,7.661964],[4.75737,7.660148],[4.759176,7.658331],[4.760982,7.656514],[4.762788,7.654698],[4.764594,7.652881],[4.7664,7.651065],[4.768206,7.649248],[4.770012,7.647431],[4.771817,7.645615],[4.77181,7.643806],[4.773616,7.641989],[4.775422,7.640172],[4.777228,7.638356],[4.779034,7.636539],[4.780839,7.634722],[4.782645,7.632906],[4.784451,7.631089],[4.786257,7.629272],[4.78807,7.629265],[4.789884,7.629257],[4.791697,7.62925],[4.793503,7.627433],[4.795308,7.625617],[4.797114,7.6238],[4.79892,7.621983],[4.800726,7.620167],[4.802539,7.620159],[4.804345,7.618342],[4.806158,7.618335],[4.807963,7.616518],[4.809769,7.614701],[4.811582,7.614694],[4.813396,7.614686],[4.815209,7.614679],[4.817014,7.612862],[4.818828,7.612854],[4.820633,7.611037],[4.822446,7.61103],[4.82426,7.611022],[4.826065,7.609205],[4.827878,7.609198],[4.829691,7.60919],[4.831505,7.609182],[4.83331,7.607366],[4.835123,7.607358],[4.836937,7.60735],[4.83875,7.607343],[4.840555,7.605526],[4.842368,7.605518],[4.844181,7.60551],[4.845987,7.603694],[4.847792,7.601877],[4.849605,7.601869],[4.851411,7.600052],[4.853216,7.598235],[4.855022,7.596419],[4.856835,7.596411],[4.85864,7.594594],[4.860445,7.592777],[4.862251,7.59096],[4.864056,7.589143],[4.865861,7.587327],[4.867666,7.58551],[4.869472,7.583693],[4.871277,7.581876],[4.873082,7.580059],[4.874887,7.578242],[4.876692,7.576425],[4.878498,7.574608],[4.880311,7.574601],[4.882124,7.574593],[4.883937,7.574585],[4.885742,7.572768],[4.887555,7.57276],[4.889368,7.572752],[4.891181,7.572744],[4.892986,7.570927],[4.894799,7.57092],[4.896612,7.570912],[4.898417,7.569095],[4.90023,7.569087],[4.902042,7.569079],[4.903847,7.567262],[4.905652,7.565445],[4.907457,7.563628],[4.909262,7.561811],[4.911067,7.559994],[4.912872,7.558177],[4.914677,7.55636],[4.916482,7.554543],[4.918287,7.552726],[4.920092,7.550909],[4.921897,7.549092],[4.921889,7.547283],[4.923694,7.545466],[4.925498,7.543649],[4.927303,7.541832],[4.929108,7.540015],[4.930913,7.538198],[4.932717,7.536381],[4.934522,7.534564],[4.936327,7.532747],[4.938132,7.53093],[4.939936,7.529113],[4.941741,7.527296],[4.943546,7.525479],[4.94535,7.523662],[4.947155,7.521845],[4.948968,7.521837],[4.950772,7.52002],[4.952577,7.518203],[4.954382,7.516385],[4.954373,7.514576],[4.956178,7.512759],[4.957983,7.510942],[4.957974,7.509133],[4.959779,7.507316],[4.961583,7.505499],[4.963388,7.503682],[4.965192,7.501865],[4.966997,7.500048],[4.968801,7.498231],[4.970606,7.496414],[4.97241,7.494597],[4.974215,7.49278],[4.976027,7.492771],[4.977832,7.490954],[4.979636,7.489137],[4.981448,7.489129],[4.983253,7.487312],[4.985057,7.485495],[4.986861,7.483678],[4.988666,7.48186],[4.99047,7.480043],[4.992283,7.480035],[4.994095,7.480027],[4.995899,7.47821],[4.997703,7.476393],[4.999516,7.476384],[5.001328,7.476376],[5.003141,7.476368],[5.004953,7.47636],[5.006766,7.476351],[5.008578,7.476343],[5.010391,7.476335],[5.012203,7.476327],[5.014015,7.476318],[5.015828,7.47631],[5.01764,7.476302],[5.019444,7.474485],[5.021249,7.472667],[5.023053,7.47085],[5.024857,7.469033],[5.026669,7.469025],[5.028482,7.469016],[5.030286,7.467199],[5.03209,7.465382],[5.033894,7.463565],[5.035706,7.463556],[5.037518,7.463548],[5.039331,7.463539],[5.041135,7.461722],[5.042947,7.461714],[5.044751,7.459897],[5.046555,7.458079],[5.048367,7.458071],[5.050179,7.458062],[5.051983,7.456245],[5.053796,7.456237],[5.055608,7.456228],[5.05742,7.45622],[5.059233,7.456211],[5.061045,7.456203],[5.062857,7.456195],[5.064661,7.454377],[5.066465,7.45256],[5.068277,7.452551],[5.070089,7.452543],[5.071902,7.452534],[5.073714,7.452526],[5.075526,7.452517],[5.07733,7.4507],[5.079142,7.450692],[5.080946,7.448874],[5.08275,7.447057],[5.084553,7.445239],[5.086357,7.443422],[5.088169,7.443413],[5.089981,7.443405],[5.091794,7.443396],[5.093606,7.443388],[5.095418,7.443379],[5.09723,7.443371],[5.099042,7.443362],[5.100855,7.443353],[5.102667,7.443345],[5.104479,7.443336],[5.106291,7.443328],[5.108103,7.443319],[5.109907,7.441502],[5.111711,7.439684],[5.113523,7.439675],[5.115335,7.439667],[5.117147,7.439658],[5.118951,7.437841],[5.120763,7.437832],[5.122566,7.436015],[5.124378,7.436006],[5.126182,7.434188],[5.127994,7.43418],[5.129806,7.434171],[5.131618,7.434162],[5.13343,7.434154],[5.135234,7.432336],[5.137046,7.432327],[5.138858,7.432319],[5.14067,7.43231],[5.142473,7.430492],[5.144285,7.430484],[5.146089,7.428666],[5.147892,7.426848],[5.149695,7.425031],[5.151499,7.423213],[5.153302,7.421396],[5.155105,7.419578],[5.156908,7.417761],[5.158711,7.415943],[5.160515,7.414126],[5.162318,7.412308],[5.162309,7.410499],[5.164112,7.408682],[5.165915,7.406864],[5.167718,7.405046],[5.169522,7.403229],[5.171334,7.40322],[5.173137,7.401402],[5.17494,7.399585],[5.176752,7.399576],[5.178555,7.397758],[5.180358,7.395941],[5.182161,7.394123],[5.183964,7.392306],[5.185776,7.392297],[5.187579,7.390479],[5.189382,7.388661],[5.191194,7.388652],[5.192996,7.386835],[5.194808,7.386826],[5.196611,7.385008],[5.198423,7.384999],[5.200235,7.38499],[5.202038,7.383173],[5.20385,7.383164],[5.205661,7.383155],[5.207473,7.383146],[5.209285,7.383137],[5.211088,7.381319],[5.2129,7.38131],[5.214712,7.381301],[5.216514,7.379484],[5.218317,7.377666],[5.220129,7.377657],[5.221932,7.375839],[5.223735,7.374022],[5.225537,7.372204],[5.22734,7.370386],[5.229143,7.368568],[5.230954,7.368559],[5.232757,7.366742],[5.234569,7.366733],[5.236381,7.366724],[5.238192,7.366714],[5.239995,7.364897],[5.241798,7.363079],[5.243609,7.36307],[5.245412,7.361252],[5.247214,7.359434],[5.249026,7.359425],[5.250829,7.357608],[5.25264,7.357598],[5.254452,7.357589],[5.256255,7.355772],[5.258066,7.355762],[5.259878,7.355753],[5.26168,7.353935],[5.263483,7.352118],[5.265285,7.3503],[5.267088,7.348482],[5.26889,7.346664],[5.270693,7.344846],[5.272495,7.343029],[5.274297,7.341211],[5.2761,7.339393],[5.277902,7.337575],[5.277893,7.335767],[5.279695,7.333949],[5.279686,7.33214],[5.279677,7.330331],[5.279668,7.328523],[5.279658,7.326714],[5.279649,7.324906],[5.27964,7.323097],[5.281442,7.321279],[5.281433,7.319471],[5.281424,7.317662],[5.281415,7.315853],[5.281406,7.314045],[5.283208,7.312227],[5.283199,7.310418],[5.285001,7.3086],[5.284992,7.306792],[5.286794,7.304974],[5.288596,7.303156],[5.288587,7.301348],[5.290389,7.29953],[5.292191,7.297712],[5.292182,7.295903],[5.293984,7.294086],[5.295786,7.292268],[5.297588,7.29045],[5.299391,7.288632],[5.301193,7.286814],[5.302995,7.284996],[5.302985,7.283188],[5.302976,7.281379],[5.304778,7.279561],[5.304769,7.277753],[5.30476,7.275944],[5.306562,7.274126],[5.306553,7.272318],[5.308355,7.2705],[5.308345,7.268691],[5.310147,7.266874],[5.310138,7.265065],[5.31194,7.263247],[5.311931,7.261438],[5.313733,7.259621],[5.313724,7.257812],[5.315526,7.255994],[5.317327,7.254176],[5.319129,7.252359],[5.320931,7.250541],[5.322733,7.248723],[5.324535,7.246905],[5.326337,7.245087],[5.328139,7.243269],[5.329941,7.241452],[5.331742,7.239634],[5.333544,7.237816],[5.335355,7.237807],[5.337166,7.237797],[5.338977,7.237788],[5.340779,7.23597],[5.34259,7.235961],[5.344401,7.235951],[5.346212,7.235942],[5.348014,7.234124],[5.349825,7.234115],[5.351636,7.234106],[5.353438,7.232288],[5.355249,7.232278],[5.35705,7.23046],[5.358861,7.230451],[5.360663,7.228633],[5.362465,7.226815],[5.364276,7.226806],[5.366077,7.224988],[5.367879,7.22317],[5.36968,7.221352],[5.371482,7.219534],[5.373283,7.217716],[5.375085,7.215898],[5.376886,7.21408],[5.378688,7.212262],[5.380489,7.210444],[5.38048,7.208636],[5.380471,7.206827],[5.380461,7.205019],[5.382263,7.203201],[5.382253,7.201392],[5.384055,7.199574],[5.385856,7.197757],[5.385846,7.195948],[5.387648,7.19413],[5.387638,7.192322],[5.38944,7.190504],[5.38943,7.188695],[5.391232,7.186877],[5.391222,7.185069],[5.393024,7.183251],[5.393014,7.181442],[5.394815,7.179624],[5.396617,7.177806],[5.398418,7.175988],[5.398409,7.17418],[5.398399,7.172371],[5.39839,7.170563],[5.400191,7.168745],[5.401992,7.166927],[5.403793,7.165109],[5.405595,7.163291],[5.407396,7.161473],[5.409197,7.159655],[5.410998,7.157837],[5.412799,7.156019],[5.4146,7.154201],[5.416402,7.152383],[5.418203,7.150565],[5.420004,7.148747],[5.421805,7.146929],[5.423615,7.14692],[5.425416,7.145102],[5.427227,7.145092],[5.429028,7.143274],[5.430829,7.141456],[5.43263,7.139638],[5.434431,7.13782],[5.436232,7.136002],[5.438033,7.134184],[5.439834,7.132366],[5.441635,7.130548],[5.441625,7.12874],[5.443426,7.126922],[5.443417,7.125114],[5.443407,7.123305],[5.445208,7.121487],[5.447009,7.119669],[5.446999,7.117861],[5.4488,7.116043],[5.450601,7.114225],[5.452402,7.112407],[5.454203,7.110589],[5.456004,7.108771],[5.457804,7.106953],[5.459605,7.105135],[5.461406,7.103317],[5.463207,7.101499],[5.465007,7.099681],[5.466808,7.097863],[5.468609,7.096045],[5.470409,7.094227],[5.47221,7.092408],[5.474011,7.09059],[5.475811,7.088772],[5.477622,7.088763],[5.479432,7.088753],[5.481233,7.086935],[5.483033,7.085117],[5.484834,7.083299],[5.486634,7.081481],[5.488445,7.081471],[5.490255,7.081462],[5.492056,7.079643],[5.493866,7.079634],[5.495676,7.079624],[5.497477,7.077806],[5.499277,7.075988],[5.501078,7.07417],[5.502878,7.072352],[5.504678,7.070534],[5.506479,7.068716],[5.508279,7.066897],[5.51008,7.065079],[5.51188,7.063261],[5.51368,7.061443],[5.515481,7.059625],[5.517281,7.057807],[5.519082,7.055989],[5.520892,7.055979],[5.522702,7.055969],[5.524502,7.054151],[5.526302,7.052333],[5.528103,7.050515],[5.529913,7.050505],[5.531713,7.048687],[5.533513,7.046869],[5.535323,7.046859],[5.537124,7.045041],[5.538934,7.045031],[5.540744,7.045021],[5.542554,7.045011],[5.544354,7.043193],[5.546164,7.043183],[5.547974,7.043174],[5.549774,7.041355],[5.551574,7.039537],[5.553384,7.039527],[5.555194,7.039517],[5.557004,7.039508],[5.558814,7.039498],[5.560624,7.039488],[5.562434,7.039478],[5.564244,7.039468],[5.566054,7.039458],[5.567864,7.039448],[5.569674,7.039438],[5.571484,7.039428],[5.573294,7.039418],[5.575094,7.0376],[5.576904,7.03759],[5.578714,7.03758],[5.580524,7.03757],[5.582334,7.03756],[5.584144,7.03755],[5.585954,7.03754],[5.587754,7.035722],[5.589564,7.035712],[5.591374,7.035702],[5.593184,7.035692],[5.594993,7.035682],[5.596803,7.035672],[5.598603,7.033853],[5.600413,7.033843],[5.602223,7.033833],[5.604033,7.033823],[5.605843,7.033813],[5.607653,7.033803],[5.609453,7.031985],[5.611263,7.031975],[5.613072,7.031965],[5.614882,7.031954],[5.616692,7.031944],[5.618492,7.030126],[5.620302,7.030116],[5.622112,7.030106],[5.623922,7.030096],[5.625731,7.030086],[5.627541,7.030075],[5.629341,7.028257],[5.631151,7.028247],[5.632961,7.028237],[5.634771,7.028227],[5.63658,7.028216],[5.63839,7.028206],[5.6402,7.028196],[5.64201,7.028186],[5.64382,7.028176],[5.64563,7.028165],[5.647439,7.028155],[5.649249,7.028145],[5.651059,7.028135],[5.652869,7.028124],[5.654679,7.028114],[5.656488,7.028104],[5.658298,7.028094],[5.660108,7.028083],[5.661918,7.028073],[5.663717,7.026255],[5.665527,7.026244],[5.667337,7.026234],[5.669147,7.026224],[5.670957,7.026213],[5.672766,7.026203],[5.674576,7.026193],[5.676386,7.026182],[5.678196,7.026172],[5.680005,7.026162],[5.681815,7.026151],[5.683625,7.026141],[5.685435,7.026131],[5.687244,7.02612],[5.689065,7.027918],[5.690874,7.027908],[5.692684,7.027897],[5.694494,7.027887],[5.696304,7.027876],[5.698113,7.027866],[5.699923,7.027855],[5.701733,7.027845],[5.703543,7.027835],[5.705352,7.027824],[5.707162,7.027814],[5.708972,7.027803],[5.710782,7.027793],[5.712591,7.027782],[5.714401,7.027772],[5.716211,7.027761],[5.71802,7.027751],[5.71983,7.02774],[5.72164,7.02773],[5.72345,7.027719],[5.725259,7.027709],[5.727069,7.027698],[5.728879,7.027688],[5.730688,7.027677],[5.732498,7.027667],[5.734318,7.029464],[5.736139,7.031261],[5.737948,7.031251],[5.739758,7.03124],[5.741568,7.03123],[5.743388,7.033027],[5.745208,7.034824],[5.747018,7.034814],[5.748828,7.034803],[5.750638,7.034793],[5.752447,7.034782],[5.754257,7.034771],[5.756067,7.034761],[5.757887,7.036558],[5.759697,7.036547],[5.761506,7.036537],[5.763316,7.036526],[5.765126,7.036515],[5.766946,7.038313],[5.768756,7.038302],[5.770565,7.038291],[5.772375,7.03828],[5.774185,7.03827],[5.775995,7.038259],[5.777804,7.038248],[5.779614,7.038237],[5.781424,7.038227],[5.783233,7.038216],[5.785043,7.038205],[5.786852,7.038194],[5.788662,7.038184],[5.790472,7.038173],[5.792281,7.038162],[5.794091,7.038151],[5.795912,7.039948],[5.797721,7.039937],[5.799531,7.039927],[5.80134,7.039916],[5.80315,7.039905],[5.80496,7.039894],[5.806769,7.039883],[5.808579,7.039872],[5.810389,7.039861],[5.812198,7.039851],[5.814008,7.03984],[5.815817,7.039829],[5.817627,7.039818],[5.819437,7.039807],[5.821246,7.039796],[5.823056,7.039785],[5.824876,7.041582],[5.826686,7.041571],[5.828496,7.04156],[5.830305,7.041549],[5.832115,7.041538],[5.833924,7.041527],[5.835734,7.041516],[5.837544,7.041505],[5.839353,7.041494],[5.841163,7.041483],[5.842972,7.041472],[5.844782,7.041461],[5.846592,7.04145],[5.848412,7.043247],[5.850222,7.043236],[5.852031,7.043225],[5.853841,7.043214],[5.85565,7.043203],[5.85746,7.043192],[5.85927,7.043181],[5.861079,7.04317],[5.862889,7.043159],[5.864698,7.043148],[5.866508,7.043137],[5.868317,7.043125],[5.870116,7.041306],[5.871925,7.041295],[5.873735,7.041284],[5.875544,7.041273],[5.877354,7.041262],[5.879163,7.041251],[5.880973,7.04124],[5.882782,7.041229],[5.884592,7.041217],[5.886401,7.041206],[5.888211,7.041195],[5.89002,7.041184],[5.89183,7.041173],[5.893639,7.041161],[5.895449,7.04115],[5.897258,7.041139],[5.899068,7.041128],[5.900877,7.041117],[5.902687,7.041105],[5.904496,7.041094],[5.906306,7.041083],[5.908115,7.041072],[5.909925,7.04106],[5.911734,7.041049],[5.913544,7.041038],[5.915353,7.041027],[5.917163,7.041015],[5.918972,7.041004],[5.920782,7.040993],[5.922591,7.040981],[5.9244,7.04097],[5.92621,7.040959],[5.928019,7.040947],[5.929829,7.040936],[5.931638,7.040925],[5.933448,7.040913],[5.935257,7.040902],[5.937067,7.040891],[5.938876,7.040879],[5.940685,7.040868],[5.942495,7.040856],[5.944304,7.040845],[5.946114,7.040834],[5.947923,7.040822],[5.949732,7.040811],[5.951542,7.040799],[5.953351,7.040788],[5.955161,7.040777],[5.95697,7.040765],[5.958779,7.040754],[5.960589,7.040742],[5.962398,7.040731],[5.964208,7.040719],[5.966017,7.040708],[5.967826,7.040696],[5.969636,7.040685],[5.971445,7.040673],[5.973254,7.040662],[5.975064,7.04065],[5.976873,7.040639],[5.978694,7.042435],[5.980503,7.042423],[5.982324,7.044219],[5.984134,7.044208],[5.985943,7.044196],[5.987752,7.044185],[5.989562,7.044173],[5.991371,7.044162],[5.99318,7.04415],[5.99499,7.044138],[5.996799,7.044127],[5.998608,7.044115],[6.000418,7.044104],[6.002239,7.0459],[6.004048,7.045888],[6.005857,7.045876],[6.007655,7.044057],[6.009464,7.044045],[6.011274,7.044034],[6.013071,7.042215],[6.014881,7.042203],[6.01669,7.042191],[6.018499,7.04218],[6.020309,7.042168],[6.022118,7.042156],[6.023927,7.042144],[6.025736,7.042133],[6.027557,7.043929],[6.029378,7.045724],[6.031188,7.045713],[6.032997,7.045701],[6.034818,7.047497],[6.036627,7.047485],[6.038437,7.047473],[6.040246,7.047461],[6.042067,7.049257],[6.043876,7.049245],[6.045686,7.049234],[6.047495,7.049222],[6.049316,7.051017],[6.051125,7.051006],[6.052935,7.050994],[6.054744,7.050982],[6.056565,7.052778],[6.058374,7.052766],[6.060183,7.052754],[6.061993,7.052742],[6.063814,7.054538],[6.065623,7.054526],[6.067432,7.054514],[6.069242,7.054502],[6.071063,7.056298],[6.072872,7.056286],[6.074681,7.056274],[6.076491,7.056262],[6.0783,7.05625],[6.080121,7.058045],[6.08193,7.058033],[6.08374,7.058021],[6.085549,7.058009],[6.08737,7.059805],[6.089179,7.059793],[6.090989,7.059781],[6.092798,7.059769],[6.094607,7.059757],[6.096416,7.059745],[6.098225,7.059733],[6.100035,7.059721],[6.101844,7.059709],[6.103653,7.059697],[6.105462,7.059685],[6.107272,7.059673],[6.109081,7.059661],[6.11089,7.059649],[6.112699,7.059636],[6.114521,7.061432],[6.11633,7.06142],[6.118139,7.061408],[6.119948,7.061396],[6.121757,7.061383],[6.123567,7.061371],[6.125376,7.061359],[6.127185,7.061347],[6.128994,7.061335],[6.130803,7.061323],[6.132612,7.061311],[6.134422,7.061298],[6.136231,7.061286],[6.13804,7.061274],[6.139849,7.061262],[6.141658,7.06125],[6.143467,7.061237],[6.145264,7.059418],[6.147073,7.059406],[6.148883,7.059393],[6.150692,7.059381],[6.152501,7.059369],[6.15431,7.059357],[6.156119,7.059345],[6.157916,7.057525],[6.159725,7.057513],[6.161534,7.0575],[6.163343,7.057488],[6.165152,7.057476],[6.166962,7.057464],[6.168758,7.055644],[6.170567,7.055632],[6.172377,7.055619],[6.174186,7.055607],[6.175982,7.053788],[6.177791,7.053775],[6.1796,7.053763],[6.181397,7.051943],[6.183206,7.051931],[6.185003,7.050111],[6.186812,7.050099],[6.188621,7.050087],[6.19043,7.050074],[6.192239,7.050062],[6.194048,7.050049],[6.195845,7.04823],[6.197654,7.048217],[6.19945,7.046398],[6.201259,7.046385],[6.203068,7.046373],[6.204877,7.046361],[6.206686,7.046348],[6.208495,7.046336],[6.210292,7.044516],[6.212088,7.042696],[6.213897,7.042684],[6.215706,7.042672],[6.217515,7.042659],[6.219324,7.042647],[6.221133,7.042634],[6.222942,7.042622],[6.224751,7.042609],[6.22656,7.042597],[6.228369,7.042584],[6.230178,7.042572],[6.231987,7.042559],[6.233808,7.044354],[6.235617,7.044341],[6.237426,7.044329],[6.239235,7.044316],[6.241044,7.044304],[6.242853,7.044291],[6.244674,7.046086],[6.246483,7.046073],[6.248305,7.047868],[6.250114,7.047855],[6.251923,7.047843],[6.253731,7.04783],[6.25554,7.047817],[6.257362,7.049612],[6.259171,7.049599],[6.26098,7.049587],[6.262789,7.049574],[6.264598,7.049561],[6.266406,7.049549],[6.268215,7.049536],[6.270024,7.049523],[6.271833,7.049511],[6.273642,7.049498],[6.275451,7.049485],[6.277272,7.05128],[6.279081,7.051267],[6.28089,7.051254],[6.282699,7.051242],[6.284508,7.051229],[6.286317,7.051216],[6.288126,7.051203],[6.289934,7.051191],[6.291743,7.051178],[6.293565,7.052972],[6.295374,7.05296],[6.297183,7.052947],[6.298992,7.052934],[6.3008,7.052921],[6.302609,7.052908],[6.304418,7.052896],[6.306227,7.052883],[6.308036,7.05287],[6.309845,7.052857],[6.311653,7.052844],[6.313462,7.052831],[6.315271,7.052819],[6.31708,7.052806],[6.318889,7.052793],[6.320697,7.05278],[6.322506,7.052767],[6.324315,7.052754],[6.326124,7.052741],[6.327933,7.052728],[6.329741,7.052715],[6.33155,7.052703],[6.333359,7.05269],[6.335168,7.052677],[6.336977,7.052664],[6.338798,7.054458],[6.340607,7.054445],[6.342416,7.054432],[6.344238,7.056226],[6.346046,7.056213],[6.347855,7.0562],[6.349664,7.056187],[6.351473,7.056174],[6.353281,7.056161],[6.35509,7.056148],[6.356899,7.056135],[6.358708,7.056122],[6.360516,7.056109],[6.362325,7.056096],[6.364134,7.056083],[6.365943,7.05607],[6.367764,7.057864],[6.369573,7.057851],[6.371382,7.057838],[6.373191,7.057824],[6.374999,7.057811],[6.376808,7.057798],[6.378617,7.057785],[6.380425,7.057772],[6.382234,7.057759],[6.384043,7.057746],[6.385838,7.055926],[6.387634,7.054106],[6.38943,7.052286],[6.391225,7.050466],[6.393021,7.048646],[6.394816,7.046826],[6.396612,7.045006],[6.398407,7.043185],[6.400216,7.043172],[6.402011,7.041352],[6.403806,7.039532],[6.405615,7.039519],[6.407424,7.039506],[6.409219,7.037686],[6.411028,7.037673],[6.412823,7.035853],[6.414618,7.034032],[6.416414,7.032212],[6.418209,7.030392],[6.420004,7.028572],[6.4218,7.026752],[6.423595,7.024932],[6.42539,7.023112],[6.427185,7.021292],[6.428981,7.019472],[6.430776,7.017652],[6.430763,7.015845],[6.432558,7.014025],[6.434353,7.012205],[6.436161,7.012192],[6.437957,7.010372],[6.439752,7.008552],[6.44156,7.008538],[6.443355,7.006718],[6.445164,7.006705],[6.446959,7.004885],[6.448754,7.003065],[6.450549,7.001245],[6.452344,6.999425],[6.454139,6.997605],[6.455934,6.995785],[6.457729,6.993964],[6.459524,6.992144],[6.461319,6.990324],[6.463114,6.988504],[6.464909,6.986684],[6.466704,6.984864],[6.468499,6.983044],[6.470307,6.983031],[6.472102,6.981211],[6.473897,6.979391],[6.475692,6.97757],[6.477487,6.97575],[6.479282,6.97393],[6.481077,6.97211],[6.482871,6.97029],[6.484666,6.96847],[6.486474,6.968457],[6.488269,6.966637],[6.490077,6.966623],[6.491885,6.96661],[6.49368,6.96479],[6.495488,6.964776],[6.497283,6.962956],[6.499091,6.962943],[6.500899,6.96293],[6.502694,6.961109],[6.504502,6.961096],[6.506297,6.959276],[6.508105,6.959263],[6.5099,6.957442],[6.511694,6.955622],[6.513489,6.953802],[6.515283,6.951982],[6.517078,6.950162],[6.518873,6.948342],[6.520667,6.946522],[6.522462,6.944702],[6.524256,6.942882],[6.526051,6.941061],[6.527845,6.939241],[6.529653,6.939228],[6.531461,6.939214],[6.533256,6.937394],[6.535064,6.937381],[6.536858,6.935561],[6.538653,6.933741],[6.54046,6.933727],[6.542255,6.931907],[6.544049,6.930087],[6.545857,6.930073],[6.547652,6.928253],[6.549446,6.926433],[6.551254,6.92642],[6.553048,6.924599],[6.554843,6.922779],[6.55665,6.922766],[6.558445,6.920946],[6.560239,6.919126],[6.562033,6.917305],[6.563841,6.917292],[6.565635,6.915472],[6.567443,6.915458],[6.569251,6.915445],[6.571059,6.915431],[6.572853,6.913611],[6.574661,6.913597],[6.576469,6.913584],[6.578276,6.91357],[6.58007,6.91175],[6.581878,6.911736],[6.583686,6.911723],[6.585494,6.911709],[6.587301,6.911696],[6.589109,6.911682],[6.590903,6.909862],[6.592697,6.908042],[6.594505,6.908028],[6.596313,6.908014],[6.598121,6.908001],[6.599928,6.907987],[6.601736,6.907973],[6.60353,6.906153],[6.605324,6.904333],[6.607132,6.904319],[6.608939,6.904306],[6.610747,6.904292],[6.612555,6.904278],[6.614349,6.902458],[6.616156,6.902444],[6.61795,6.900624],[6.619758,6.90061],[6.621566,6.900597],[6.623373,6.900583],[6.625181,6.900569],[6.626975,6.898749],[6.628782,6.898735],[6.63059,6.898721],[6.632398,6.898708],[6.634205,6.898694],[6.635999,6.896874],[6.637807,6.89686],[6.639614,6.896846],[6.641422,6.896832],[6.643216,6.895012],[6.645023,6.894998],[6.646831,6.894984],[6.648638,6.89497],[6.650446,6.894957],[6.652253,6.894943],[6.654061,6.894929],[6.655868,6.894915],[6.657676,6.894901],[6.659484,6.894887],[6.661291,6.894874],[6.663099,6.89486],[6.664906,6.894846],[6.666714,6.894832],[6.668521,6.894818],[6.670329,6.894804],[6.672136,6.89479],[6.673944,6.894776],[6.675751,6.894762],[6.677559,6.894748],[6.679366,6.894734],[6.681174,6.89472],[6.682967,6.8929],[6.684761,6.89108],[6.686568,6.891066],[6.688362,6.889246],[6.690155,6.887425],[6.691949,6.885605],[6.693742,6.883785],[6.69555,6.883771],[6.697343,6.88195],[6.699136,6.88013],[6.70093,6.87831],[6.702723,6.87649],[6.704531,6.876476],[6.706324,6.874655],[6.708131,6.874641],[6.709925,6.872821],[6.711718,6.871001],[6.713525,6.870987],[6.715333,6.870973],[6.717126,6.869152],[6.718933,6.869138],[6.720741,6.869124],[6.722548,6.86911],[6.724355,6.869096],[6.726163,6.869082],[6.72797,6.869068],[6.729777,6.869054],[6.731585,6.86904],[6.733392,6.869026],[6.735199,6.869012],[6.737006,6.868997],[6.738814,6.868983],[6.740621,6.868969],[6.742428,6.868955],[6.74425,6.870747],[6.746057,6.870733],[6.747864,6.870719],[6.749686,6.872511],[6.751493,6.872497],[6.7533,6.872483],[6.755122,6.874275],[6.756943,6.876067],[6.75875,6.876052],[6.760572,6.877844],[6.762379,6.87783],[6.764201,6.879622],[6.766008,6.879608],[6.767829,6.8814],[6.769637,6.881386],[6.771458,6.883177],[6.773266,6.883163],[6.775087,6.884955],[6.776909,6.886747],[6.77873,6.888539],[6.780552,6.890331],[6.782359,6.890316],[6.784181,6.892108],[6.786002,6.8939],[6.787824,6.895692],[6.789631,6.895677],[6.791439,6.895663],[6.793246,6.895648],[6.795053,6.895634],[6.79686,6.89562],[6.798668,6.895605],[6.800475,6.895591],[6.802282,6.895577],[6.804089,6.895562],[6.805897,6.895548],[6.807704,6.895533],[6.809511,6.895519],[6.811318,6.895504],[6.813126,6.89549],[6.814947,6.897282],[6.816769,6.899073],[6.818591,6.900865],[6.820412,6.902656],[6.82222,6.902642],[6.824027,6.902627],[6.825834,6.902613],[6.827641,6.902598],[6.829449,6.902584],[6.831256,6.902569],[6.833063,6.902555],[6.83487,6.90254],[6.836677,6.902526],[6.838485,6.902511],[6.840292,6.902496],[6.842099,6.902482],[6.843906,6.902467],[6.845713,6.902453],[6.847521,6.902438],[6.849328,6.902423],[6.851135,6.902409],[6.852927,6.900588],[6.854735,6.900574],[6.856542,6.900559],[6.858349,6.900544],[6.860156,6.90053],[6.861963,6.900515],[6.86377,6.9005],[6.865577,6.900486],[6.867385,6.900471],[6.869177,6.898651],[6.870984,6.898636],[6.872791,6.898621],[6.874598,6.898606],[6.876405,6.898592],[6.878198,6.896771],[6.880005,6.896756],[6.881812,6.896742],[6.883619,6.896727],[6.885426,6.896712],[6.887233,6.896698],[6.889026,6.894877],[6.890833,6.894862],[6.89264,6.894847],[6.894432,6.893027],[6.896224,6.891206],[6.898031,6.891191],[6.899838,6.891177],[6.901645,6.891162],[6.903438,6.889341],[6.905245,6.889326],[6.907037,6.887506],[6.908844,6.887491],[6.910636,6.88567],[6.912428,6.88385],[6.914235,6.883835],[6.916042,6.88382],[6.917849,6.883805],[6.919656,6.88379],[6.921448,6.88197],[6.923255,6.881955],[6.925062,6.88194],[6.926854,6.880119],[6.928646,6.878299],[6.930453,6.878284],[6.932245,6.876463],[6.934052,6.876448],[6.935844,6.874628],[6.937651,6.874613],[6.939443,6.872792],[6.94125,6.872777],[6.943042,6.870956],[6.944849,6.870941],[6.94664,6.869121],[6.948432,6.8673],[6.950239,6.867285],[6.952031,6.865465],[6.953823,6.863644],[6.955615,6.861823],[6.957407,6.860002],[6.959199,6.858182],[6.961005,6.858167],[6.962797,6.856346],[6.964589,6.854525],[6.966396,6.854511],[6.968187,6.85269],[6.969979,6.850869],[6.971786,6.850854],[6.973578,6.849034],[6.975369,6.847213],[6.977161,6.845392],[6.978968,6.845377],[6.980775,6.845362],[6.982581,6.845347],[6.984388,6.845332],[6.98618,6.843512],[6.987986,6.843497],[6.989793,6.843482],[6.991599,6.843467],[6.993391,6.841646],[6.995183,6.839825],[6.996989,6.83981],[6.998781,6.837989],[7.000587,6.837974],[7.002379,6.836154],[7.004186,6.836139],[7.005992,6.836124],[7.007784,6.834303],[7.00959,6.834288],[7.011397,6.834273],[7.013203,6.834258],[7.01501,6.834243],[7.016817,6.834227],[7.018608,6.832407],[7.020415,6.832392],[7.022206,6.830571],[7.024012,6.830556],[7.025819,6.830541],[7.027626,6.830526],[7.029432,6.83051],[7.031239,6.830495],[7.033045,6.83048],[7.034836,6.828659],[7.036628,6.826839],[7.038419,6.825018],[7.040226,6.825003],[7.042017,6.823182],[7.043823,6.823167],[7.045615,6.821346],[7.047406,6.819525],[7.049212,6.81951],[7.051019,6.819495],[7.05281,6.817674],[7.054601,6.815854],[7.056407,6.815838],[7.058214,6.815823],[7.060005,6.814003],[7.061811,6.813987],[7.063618,6.813972],[7.065409,6.812151],[7.067215,6.812136],[7.069022,6.812121],[7.070813,6.8103],[7.072619,6.810285],[7.074425,6.81027],[7.076217,6.808449],[7.078023,6.808434],[7.079814,6.806613],[7.08162,6.806598],[7.083426,6.806582],[7.085217,6.804762],[7.087024,6.804746],[7.088815,6.802926],[7.090606,6.801105],[7.092412,6.801089],[7.094218,6.801074],[7.096025,6.801059],[7.097831,6.801044],[7.099637,6.801028],[7.101443,6.801013],[7.103249,6.800998],[7.105056,6.800982],[7.106862,6.800967],[7.108653,6.799146],[7.110459,6.799131],[7.112265,6.799115],[7.114071,6.7991],[7.115878,6.799085],[7.117684,6.799069],[7.11949,6.799054],[7.121296,6.799038],[7.123102,6.799023],[7.124909,6.799008],[7.126715,6.798992],[7.128521,6.798977],[7.130327,6.798961],[7.132133,6.798946],[7.133955,6.800736],[7.135776,6.802526],[7.137598,6.804316],[7.13942,6.806106],[7.141241,6.807895],[7.143063,6.809685],[7.144885,6.811475],[7.146707,6.813265],[7.148528,6.815055],[7.150334,6.815039],[7.152156,6.816829],[7.153962,6.816813],[7.155769,6.816798],[7.15759,6.818588],[7.159396,6.818572],[7.161218,6.820362],[7.163024,6.820346],[7.164846,6.822136],[7.166652,6.82212],[7.168474,6.82391],[7.170296,6.825699],[7.172102,6.825684],[7.173908,6.825668],[7.17573,6.827458],[7.177536,6.827442],[7.179358,6.829232],[7.181164,6.829216],[7.18297,6.8292],[7.184792,6.83099],[7.186599,6.830974],[7.188405,6.830958],[7.190227,6.832748],[7.192048,6.834537],[7.193855,6.834522],[7.195661,6.834506],[7.197467,6.83449],[7.199273,6.834474],[7.201079,6.834459],[7.202885,6.834443],[7.204707,6.836232],[7.206513,6.836216],[7.20832,6.836201],[7.210126,6.836185],[7.211932,6.836169],[7.213738,6.836153],[7.215544,6.836137],[7.217366,6.837927],[7.219172,6.837911],[7.220978,6.837895],[7.222784,6.837879],[7.22459,6.837863],[7.226412,6.839652],[7.228218,6.839637],[7.230024,6.839621],[7.231831,6.839605],[7.233637,6.839589],[7.235443,6.839573],[7.237249,6.839557],[7.239055,6.839541],[7.240861,6.839525],[7.242667,6.839509],[7.244473,6.839493],[7.246279,6.839477],[7.248085,6.839461],[7.249891,6.839445],[7.251681,6.837624],[7.253487,6.837608],[7.255293,6.837592],[7.257099,6.837576],[7.258905,6.83756],[7.260695,6.835739],[7.262485,6.833918],[7.264291,6.833902],[7.266097,6.833886],[7.267903,6.83387],[7.269693,6.832049],[7.271499,6.832033],[7.273305,6.832017],[7.275111,6.832001],[7.276917,6.831985],[7.278723,6.831969],[7.280529,6.831953],[7.282335,6.831937],[7.284141,6.831921],[7.285947,6.831904],[7.287769,6.833693],[7.289575,6.833677],[7.291397,6.835466],[7.293203,6.83545],[7.295008,6.835434],[7.296831,6.837223],[7.298636,6.837207],[7.300459,6.838995],[7.302264,6.838979],[7.30407,6.838963],[7.305892,6.840752],[7.307698,6.840736],[7.30952,6.842524],[7.311326,6.842508],[7.313132,6.842492],[7.314954,6.844281],[7.31676,6.844265],[7.318582,6.846053],[7.320388,6.846037],[7.322194,6.846021],[7.324,6.846004],[7.325806,6.845988],[7.327612,6.845972],[7.329418,6.845956],[7.331224,6.845939],[7.33303,6.845923],[7.334852,6.847712],[7.336658,6.847695],[7.33848,6.849484],[7.340286,6.849468],[7.342108,6.851256],[7.343914,6.85124],[7.34572,6.851223],[7.347542,6.853012],[7.349348,6.852995],[7.351154,6.852979],[7.352976,6.854768],[7.354782,6.854751],[7.356587,6.854735],[7.35841,6.856523],[7.360216,6.856507],[7.362021,6.85649],[7.363827,6.856474],[7.365633,6.856457],[7.367439,6.856441],[7.369245,6.856425],[7.371067,6.858213],[7.372873,6.858196],[7.374679,6.85818],[7.376484,6.858163],[7.37829,6.858147],[7.380096,6.85813],[7.381902,6.858114],[7.383708,6.858097],[7.38553,6.859886],[7.387336,6.859869],[7.389142,6.859853],[7.390947,6.859836],[7.392753,6.859819],[7.394559,6.859803],[7.396365,6.859786],[7.39817,6.85977],[7.399976,6.859753],[7.401782,6.859737],[7.403571,6.857915],[7.405377,6.857899],[7.407182,6.857882],[7.408988,6.857865],[7.410794,6.857849],[7.4126,6.857832],[7.414405,6.857816],[7.416211,6.857799],[7.418017,6.857782],[7.419822,6.857766],[7.421628,6.857749],[7.423417,6.855928],[7.425223,6.855911],[7.427029,6.855894],[7.428834,6.855878],[7.43064,6.855861],[7.432446,6.855844],[7.434251,6.855827],[7.436057,6.855811],[7.437863,6.855794],[7.439668,6.855777],[7.441457,6.853956],[7.443263,6.853939],[7.445068,6.853922],[7.446874,6.853906],[7.44868,6.853889],[7.450485,6.853872],[7.452291,6.853855],[7.454096,6.853839],[7.455902,6.853822],[7.457708,6.853805],[7.459513,6.853788],[7.461319,6.853772],[7.463124,6.853755],[7.46493,6.853738],[7.466735,6.853721],[7.468558,6.855509],[7.470363,6.855492],[7.472169,6.855475],[7.473975,6.855458],[7.47578,6.855441],[7.477586,6.855425],[7.479391,6.855408],[7.481197,6.855391],[7.483002,6.855374],[7.484808,6.855357],[7.48663,6.857145],[7.488436,6.857128],[7.490241,6.857111],[7.492047,6.857094],[7.493869,6.858881],[7.495675,6.858865],[7.49748,6.858848],[7.499286,6.858831],[7.501074,6.857009],[7.502863,6.855188],[7.504668,6.855171],[7.506457,6.853349],[7.508245,6.851528],[7.510051,6.851511],[7.511856,6.851494],[7.513662,6.851477],[7.515467,6.85146],[7.517273,6.851443],[7.519078,6.851426],[7.520883,6.851409],[7.522689,6.851392],[7.524494,6.851375],[7.5263,6.851358],[7.528105,6.851341],[7.52991,6.851324],[7.531716,6.851307],[7.533521,6.85129],[7.535327,6.851273],[7.537132,6.851255],[7.538937,6.851238],[7.540743,6.851221],[7.542531,6.8494],[7.544336,6.849383],[7.546142,6.849366],[7.547947,6.849348],[7.549752,6.849331],[7.551558,6.849314],[7.553363,6.849297],[7.555168,6.84928],[7.556974,6.849263],[7.558762,6.847441],[7.560567,6.847424],[7.562373,6.847407],[7.564178,6.84739],[7.565983,6.847373],[7.567788,6.847355],[7.569594,6.847338],[7.571399,6.847321],[7.573204,6.847304],[7.57501,6.847287],[7.576815,6.847269],[7.57862,6.847252],[7.580425,6.847235],[7.582231,6.847218],[7.584036,6.8472],[7.585841,6.847183],[7.587646,6.847166],[7.589452,6.847149],[7.59124,6.845327],[7.593028,6.843506],[7.59301,6.841701],[7.594798,6.83988],[7.596586,6.838058],[7.598374,6.836237],[7.600179,6.83622],[7.601984,6.836202],[7.603789,6.836185],[7.605595,6.836168],[7.6074,6.83615],[7.609205,6.836133],[7.61101,6.836116],[7.612815,6.836098],[7.61462,6.836081],[7.616443,6.837868],[7.618248,6.837851],[7.620053,6.837833],[7.621858,6.837816],[7.623663,6.837799],[7.625468,6.837781],[7.627273,6.837764],[7.629079,6.837746],[7.630884,6.837729],[7.632689,6.837712],[7.634476,6.83589],[7.636282,6.835873],[7.638069,6.834051],[7.639874,6.834034],[7.641662,6.832212],[7.643467,6.832195],[7.645254,6.830373],[7.647042,6.828551],[7.648847,6.828534],[7.650635,6.826712],[7.65244,6.826695],[7.654227,6.824873],[7.656015,6.823052],[7.657802,6.82123],[7.65959,6.819409],[7.661377,6.817587],[7.663182,6.81757],[7.664969,6.815748],[7.666757,6.813927],[7.668562,6.813909],[7.670349,6.812088],[7.672137,6.810266],[7.673924,6.808445],[7.675711,6.806623],[7.677499,6.804802],[7.679304,6.804784],[7.681108,6.804767],[7.682913,6.804749],[7.684701,6.802927],[7.686488,6.801106],[7.688293,6.801088],[7.69008,6.799267],[7.691867,6.797445],[7.693672,6.797428],[7.695459,6.795606],[7.697264,6.795589],[7.699051,6.793767],[7.700838,6.791946],[7.702626,6.790124],[7.70443,6.790107],[7.706218,6.788285],[7.708022,6.788268],[7.709809,6.786446],[7.711596,6.784624],[7.713401,6.784607],[7.715188,6.782785],[7.716975,6.780964],[7.71878,6.780946],[7.720567,6.779125],[7.722372,6.779107],[7.724159,6.777286],[7.725963,6.777268],[7.72775,6.775447],[7.729555,6.775429],[7.731342,6.773607],[7.733129,6.771786],[7.734916,6.769964],[7.736703,6.768143],[7.73849,6.766321],[7.740277,6.7645],[7.742064,6.762678],[7.743868,6.762661],[7.745655,6.760839],[7.747459,6.760822],[7.749246,6.759],[7.751033,6.757179],[7.752838,6.757161],[7.754624,6.755339],[7.756411,6.753518],[7.758198,6.751697],[7.759985,6.749875],[7.761772,6.748054],[7.763576,6.748036],[7.765363,6.746214],[7.767167,6.746197],[7.768972,6.746179],[7.770758,6.744358],[7.772545,6.742536],[7.774332,6.740715],[7.776118,6.738893],[7.777905,6.737072],[7.779709,6.737054],[7.781496,6.735232],[7.7833,6.735215],[7.785087,6.733393],[7.786891,6.733376],[7.788678,6.731554],[7.790464,6.729733],[7.792251,6.727911],[7.794037,6.72609],[7.795824,6.724268],[7.79761,6.722447],[7.799397,6.720625],[7.801201,6.720608],[7.803005,6.72059],[7.804792,6.718768],[7.806578,6.716947],[7.808365,6.715126],[7.810169,6.715108],[7.811973,6.71509],[7.813777,6.715072],[7.815563,6.713251],[7.817368,6.713233],[7.819154,6.711412],[7.820958,6.711394],[7.822744,6.709572],[7.824549,6.709555],[7.826335,6.707733],[7.828139,6.707715],[7.829925,6.705894],[7.831729,6.705876],[7.833516,6.704055],[7.83532,6.704037],[7.837106,6.702215],[7.83891,6.702198],[7.840714,6.70218],[7.8425,6.700358],[7.844304,6.70034],[7.846108,6.700323],[7.847894,6.698501],[7.849698,6.698483],[7.851502,6.698465],[7.853306,6.698448],[7.855092,6.696626],[7.856896,6.696608],[7.8587,6.69659],[7.860486,6.694769],[7.862273,6.692948],[7.864077,6.69293],[7.86588,6.692912],[7.867684,6.692894],[7.869488,6.692876],[7.871274,6.691054],[7.873078,6.691037],[7.874882,6.691019],[7.876668,6.689197],[7.878472,6.689179],[7.880276,6.689161],[7.88208,6.689143],[7.883884,6.689125],[7.88567,6.687304],[7.887473,6.687286],[7.889277,6.687268],[7.891081,6.68725],[7.892867,6.685429],[7.894671,6.685411],[7.896475,6.685393],[7.898278,6.685375],[7.900082,6.685357],[7.901868,6.683535],[7.903672,6.683517],[7.905476,6.683499],[7.907261,6.681678],[7.909065,6.68166],[7.910869,6.681642],[7.912655,6.67982],[7.914459,6.679802],[7.916244,6.677981],[7.918048,6.677963],[7.919834,6.676141],[7.921637,6.676123],[7.923441,6.676105],[7.925227,6.674284],[7.92703,6.674266],[7.928834,6.674248],[7.93062,6.672426],[7.932423,6.672408],[7.934209,6.670587],[7.936013,6.670568],[7.937816,6.67055],[7.939602,6.668729],[7.941406,6.668711],[7.943191,6.666889],[7.944977,6.665068],[7.94678,6.66505],[7.948584,6.665032],[7.950387,6.665014],[7.952191,6.664995],[7.953976,6.663174],[7.95578,6.663156],[7.957584,6.663138],[7.959369,6.661316],[7.961173,6.661298],[7.962958,6.659477],[7.964762,6.659458],[7.966547,6.657637],[7.96835,6.657619],[7.970136,6.655797],[7.971921,6.653976],[7.973706,6.652154],[7.97551,6.652136],[7.977313,6.652118],[7.979117,6.6521],[7.98092,6.652082],[7.982706,6.65026],[7.984491,6.648439],[7.986294,6.648421],[7.988098,6.648402],[7.989883,6.646581],[7.991668,6.644759],[7.993472,6.644741],[7.995257,6.64292],[7.99706,6.642902],[7.998864,6.642883],[8.000667,6.642865],[8.00247,6.642847],[8.004274,6.642829],[8.006077,6.64281],[8.00788,6.642792],[8.009666,6.640971],[8.011469,6.640952],[8.013272,6.640934],[8.015076,6.640916],[8.016879,6.640897],[8.018682,6.640879],[8.020486,6.640861],[8.022289,6.640842],[8.024092,6.640824],[8.025896,6.640806],[8.027699,6.640787],[8.02952,6.642572],[8.031342,6.644357],[8.033145,6.644339],[8.034949,6.64432],[8.036752,6.644302],[8.038555,6.644283],[8.040359,6.644265],[8.042162,6.644247],[8.043965,6.644228],[8.045768,6.64421],[8.047572,6.644191],[8.049375,6.644173],[8.05116,6.642351],[8.052963,6.642333],[8.054748,6.640512],[8.056533,6.63869],[8.058336,6.638672],[8.060139,6.638653],[8.061942,6.638635],[8.063764,6.640419],[8.065567,6.640401],[8.067389,6.642185],[8.06921,6.64397],[8.071032,6.645754],[8.072854,6.647539],[8.074676,6.649323],[8.076479,6.649305],[8.078301,6.651089],[8.080122,6.652873],[8.081926,6.652855],[8.083747,6.654639],[8.085569,6.656424],[8.087372,6.656405],[8.089175,6.656386],[8.090979,6.656368],[8.092782,6.656349],[8.094585,6.656331],[8.096388,6.656312],[8.09821,6.658096],[8.100013,6.658078],[8.101816,6.658059],[8.10362,6.65804],[8.105423,6.658022],[8.107226,6.658003],[8.109029,6.657984],[8.110832,6.657965],[8.112654,6.65975],[8.114476,6.661534],[8.11626,6.659712],[8.118045,6.657891],[8.119848,6.657872],[8.121651,6.657853],[8.123454,6.657834],[8.125257,6.657816],[8.127041,6.655994],[8.128844,6.655975],[8.130647,6.655957],[8.13245,6.655938],[8.134254,6.655919],[8.136057,6.6559],[8.137841,6.654079],[8.139644,6.65406],[8.141447,6.654041],[8.143231,6.65222],[8.145034,6.652201],[8.146837,6.652182],[8.148621,6.65036],[8.150406,6.648539],[8.152209,6.64852],[8.154012,6.648501],[8.155814,6.648482],[8.157617,6.648463],[8.15942,6.648445],[8.161223,6.648426],[8.163026,6.648407],[8.164829,6.648388],[8.166632,6.648369],[8.168435,6.64835],[8.170238,6.648331],[8.172041,6.648312],[8.173844,6.648294],[8.175647,6.648275],[8.17745,6.648256],[8.179253,6.648237],[8.181056,6.648218],[8.182858,6.648199],[8.184661,6.64818],[8.186464,6.648161],[8.188267,6.648142],[8.19007,6.648123],[8.191873,6.648104],[8.193676,6.648085],[8.195498,6.649869],[8.197281,6.648047],[8.199065,6.646226],[8.200868,6.646207],[8.202671,6.646188],[8.204474,6.646169],[8.206277,6.64615],[8.208079,6.646131],[8.209882,6.646112],[8.211685,6.646093],[8.213488,6.646074],[8.215291,6.646055],[8.217093,6.646036],[8.218896,6.646017],[8.220699,6.645997],[8.222502,6.645978],[8.224304,6.645959],[8.226107,6.64594],[8.22791,6.645921],[8.229713,6.645902],[8.231515,6.645883],[8.233318,6.645864],[8.235121,6.645845],[8.236924,6.645826],[8.238726,6.645807],[8.240529,6.645787],[8.242332,6.645768],[8.244135,6.645749],[8.245937,6.64573],[8.24774,6.645711],[8.249543,6.645692],[8.251345,6.645672],[8.253148,6.645653],[8.25497,6.647437],[8.256773,6.647417],[8.258594,6.649201],[8.260416,6.650984],[8.262238,6.652767],[8.26406,6.65455],[8.265882,6.656333],[8.267685,6.656314],[8.269507,6.658097],[8.271329,6.65988],[8.273131,6.659861],[8.274953,6.661644],[8.276756,6.661625],[8.278578,6.663408],[8.2804,6.665191],[8.282222,6.666974],[8.284044,6.668757],[8.285827,6.666935],[8.287611,6.665114],[8.289433,6.666897],[8.291235,6.666877],[8.293038,6.666858],[8.29486,6.668641],[8.296682,6.670424],[8.298485,6.670404],[8.300307,6.672187],[8.302129,6.67397],[8.303951,6.675753],[8.305773,6.677536],[8.307595,6.679319],[8.309417,6.681102],[8.311239,6.682884],[8.313061,6.684667],[8.314884,6.68645],[8.316706,6.688233],[8.318528,6.690016],[8.32035,6.691798],[8.322153,6.691779],[8.323975,6.693561],[8.325797,6.695344],[8.3276,6.695324],[8.329403,6.695305],[8.331205,6.695285],[8.333008,6.695266],[8.33481,6.695246],[8.336633,6.697029],[8.338435,6.697009],[8.340238,6.696989],[8.342021,6.695168],[8.343824,6.695148],[8.345626,6.695128],[8.347429,6.695109],[8.349231,6.695089],[8.351034,6.695069],[8.352836,6.695049],[8.354639,6.69503],[8.356442,6.69501],[8.358264,6.696793],[8.360066,6.696773],[8.361869,6.696753],[8.363691,6.698536],[8.365513,6.700318],[8.367336,6.7021],[8.369158,6.703883],[8.37098,6.705665],[8.372783,6.705645],[8.374605,6.707428],[8.376428,6.70921],[8.37823,6.70919],[8.380053,6.710972],[8.381875,6.712755],[8.383697,6.714537],[8.38552,6.716319],[8.38554,6.718121],[8.387362,6.719903],[8.389165,6.719883],[8.390987,6.721666],[8.39279,6.721646],[8.394612,6.723428],[8.396415,6.723408],[8.398237,6.72519],[8.40004,6.72517],[8.401842,6.72515],[8.403665,6.726932],[8.405487,6.728714],[8.40731,6.730496],[8.409112,6.730476],[8.410915,6.730456],[8.412717,6.730436],[8.41454,6.732218],[8.416342,6.732198],[8.418165,6.73398],[8.419988,6.735762],[8.42181,6.737544],[8.423613,6.737524],[8.425415,6.737504],[8.427238,6.739286],[8.42904,6.739265],[8.430843,6.739245],[8.432665,6.741027],[8.434468,6.741007],[8.43627,6.740987],[8.438093,6.742769],[8.439895,6.742749],[8.441718,6.74453],[8.443521,6.74451],[8.445343,6.746292],[8.447166,6.748074],[8.448989,6.749855],[8.450791,6.749835],[8.452594,6.749815],[8.454396,6.749795],[8.456198,6.749774],[8.458021,6.751556],[8.459844,6.753338],[8.461667,6.755119],[8.463489,6.756901],[8.465312,6.758682],[8.467135,6.760464],[8.468958,6.762245],[8.47078,6.764027],[8.472603,6.765808],[8.474406,6.765788],[8.476208,6.765768],[8.478031,6.767549],[8.479833,6.767529],[8.481636,6.767508],[8.483438,6.767488],[8.485241,6.767468],[8.487043,6.767447],[8.488846,6.767427],[8.490668,6.769208],[8.492471,6.769188],[8.494273,6.769167],[8.496076,6.769147],[8.497878,6.769126],[8.499701,6.770908],[8.501503,6.770887],[8.503306,6.770867],[8.505088,6.769045],[8.50689,6.769024],[8.508692,6.769004],[8.510474,6.767182],[8.512277,6.767161],[8.514079,6.767141],[8.515881,6.76712],[8.517663,6.765298],[8.519445,6.763476],[8.521247,6.763455],[8.52305,6.763435],[8.524852,6.763414],[8.526654,6.763394],[8.528456,6.763373],[8.530259,6.763353],[8.532061,6.763332],[8.533863,6.763311],[8.535666,6.763291],[8.537468,6.76327],[8.53927,6.76325],[8.541072,6.763229],[8.542875,6.763209],[8.544677,6.763188],[8.546479,6.763167],[8.548281,6.763147],[8.550084,6.763126],[8.551886,6.763106],[8.553688,6.763085],[8.55549,6.763064],[8.557292,6.763044],[8.559074,6.761221],[8.560855,6.759399],[8.562637,6.757577],[8.564418,6.755755],[8.564398,6.753953],[8.566179,6.752131],[8.567961,6.750309],[8.569742,6.748487],[8.571524,6.746665],[8.573305,6.744843],[8.575087,6.74302],[8.576868,6.741198],[8.578649,6.739376],[8.580431,6.737554],[8.582212,6.735732],[8.583993,6.73391],[8.585775,6.732088],[8.587556,6.730265],[8.589358,6.730245],[8.591139,6.728423],[8.592921,6.726601],[8.594723,6.72658],[8.596504,6.724758],[8.598306,6.724737],[8.600087,6.722915],[8.601889,6.722894],[8.603691,6.722874],[8.605493,6.722853],[8.607274,6.721031],[8.609076,6.72101],[8.610878,6.720989],[8.612659,6.719167],[8.61444,6.717345],[8.616221,6.715523],[8.618002,6.713701],[8.619783,6.711879],[8.621564,6.710057],[8.621544,6.708256],[8.623325,6.706434],[8.625106,6.704611],[8.625085,6.70281],[8.626866,6.700988],[8.628647,6.699166],[8.630428,6.697344],[8.632209,6.695522],[8.63399,6.6937],[8.635771,6.691878],[8.637552,6.690056],[8.639354,6.690035],[8.641135,6.688213],[8.642916,6.686391],[8.644717,6.68637],[8.646498,6.684548],[8.6483,6.684528],[8.650102,6.684507],[8.651903,6.684486],[8.653705,6.684465],[8.655506,6.684445],[8.657308,6.684424],[8.65911,6.684403],[8.660911,6.684382],[8.662692,6.68256],[8.664493,6.682539],[8.666295,6.682519],[8.668097,6.682498],[8.669898,6.682477],[8.671679,6.680655],[8.67348,6.680634],[8.675282,6.680613],[8.677063,6.678791],[8.678864,6.678771],[8.680645,6.676949],[8.682446,6.676928],[8.684227,6.675106],[8.686008,6.673284],[8.687788,6.671462],[8.689569,6.66964],[8.69137,6.669619],[8.693151,6.667797],[8.694931,6.665975],[8.696712,6.664153],[8.698492,6.662331],[8.698472,6.66053],[8.700252,6.658708],[8.702033,6.656886],[8.702012,6.655085],[8.703792,6.653263],[8.705573,6.651441],[8.707353,6.649619],[8.709134,6.647797],[8.710914,6.645975],[8.712695,6.644153],[8.714475,6.642331],[8.716255,6.640509],[8.718057,6.640488],[8.719858,6.640468],[8.721659,6.640447],[8.72346,6.640426],[8.725241,6.638604],[8.727021,6.636782],[8.728801,6.63496],[8.730582,6.633138],[8.732362,6.631316],[8.734142,6.629494],[8.735923,6.627673],[8.735902,6.625872],[8.737682,6.62405],[8.739462,6.622228],[8.739441,6.620427],[8.73942,6.618626],[8.7394,6.616825],[8.737578,6.615045],[8.737557,6.613244],[8.735735,6.611464],[8.733913,6.609683],[8.733892,6.607882],[8.733871,6.606081],[8.73385,6.60428],[8.735631,6.602459],[8.737411,6.600637],[8.739191,6.598815],[8.740992,6.598794],[8.742772,6.596972],[8.744573,6.596952],[8.746354,6.59513],[8.748134,6.593308],[8.749935,6.593287],[8.751715,6.591465],[8.753495,6.589644],[8.755275,6.587822],[8.757055,6.586],[8.758856,6.585979],[8.760657,6.585958],[8.762458,6.585938],[8.764259,6.585917],[8.766039,6.584095],[8.76784,6.584074],[8.769641,6.584053],[8.771421,6.582231],[8.773201,6.58041],[8.774981,6.578588],[8.776761,6.576766],[8.778541,6.574944],[8.780321,6.573123],[8.7821,6.571301],[8.78388,6.569479],[8.785681,6.569458],[8.787461,6.567637],[8.789262,6.567616],[8.791042,6.565794],[8.792822,6.563972],[8.794601,6.562151],[8.796381,6.560329],[8.798161,6.558507],[8.799941,6.556686],[8.801721,6.554864],[8.8035,6.553042],[8.80528,6.55122],[8.80706,6.549399],[8.80884,6.547577],[8.810619,6.545755],[8.812399,6.543934],[8.814179,6.542112],[8.815958,6.54029],[8.817759,6.54027],[8.819539,6.538448],[8.821339,6.538427],[8.823119,6.536605],[8.824919,6.536584],[8.826699,6.534763],[8.828479,6.532941],[8.830258,6.53112],[8.832059,6.531099],[8.833859,6.531078],[8.835639,6.529256],[8.837418,6.527435],[8.839198,6.525613],[8.840977,6.523791],[8.842757,6.52197],[8.844536,6.520148],[8.846316,6.518327],[8.848116,6.518306],[8.849917,6.518285],[8.851717,6.518264],[8.853496,6.516442],[8.855297,6.516421],[8.857097,6.5164],[8.858876,6.514579],[8.860677,6.514558],[8.862477,6.514537],[8.864277,6.514516],[8.866057,6.512694],[8.867857,6.512673],[8.869657,6.512652],[8.871458,6.512631],[8.873258,6.51261],[8.875037,6.510789],[8.876838,6.510768],[8.878638,6.510747],[8.880438,6.510725],[8.882217,6.508904],[8.884018,6.508883],[8.885818,6.508862],[8.887597,6.50704],[8.889376,6.505219],[8.891176,6.505198],[8.892977,6.505177],[8.894777,6.505156],[8.896556,6.503334],[8.898356,6.503313],[8.900156,6.503292],[8.901956,6.503271],[8.903756,6.50325],[8.905557,6.503229],[8.907357,6.503208],[8.909157,6.503186],[8.910957,6.503165],[8.912736,6.501344],[8.914536,6.501323],[8.916315,6.499501],[8.918115,6.49948],[8.919894,6.497658],[8.921673,6.495837],[8.921652,6.494036],[8.923431,6.492215],[8.92521,6.490393],[8.926989,6.488572],[8.928768,6.48675],[8.930547,6.484929],[8.932326,6.483107],[8.934104,6.481286],[8.935904,6.481265],[8.937683,6.479443],[8.939462,6.477622],[8.941241,6.4758],[8.94302,6.473979],[8.944798,6.472157],[8.944777,6.470357],[8.944756,6.468557],[8.944735,6.466756],[8.946514,6.464935],[8.948293,6.463113],[8.950071,6.461292],[8.95185,6.45947],[8.953629,6.457649],[8.955408,6.455828],[8.957207,6.455807],[8.958986,6.453985],[8.960765,6.452164],[8.962543,6.450342],[8.964322,6.448521],[8.966101,6.446699],[8.96608,6.444899],[8.966058,6.443099],[8.967837,6.441278],[8.967816,6.439477],[8.965995,6.437698],[8.965974,6.435898],[8.967753,6.434076],[8.967732,6.432276],[8.96771,6.430476],[8.967689,6.428676],[8.967668,6.426875],[8.967647,6.425075],[8.967626,6.423275],[8.967605,6.421475],[8.967584,6.419674],[8.969363,6.417853],[8.969342,6.416053],[8.97112,6.414232],[8.972899,6.41241],[8.972878,6.41061],[8.972857,6.40881],[8.972836,6.407009],[8.972815,6.405209],[8.974593,6.403388],[8.976372,6.401567],[8.978151,6.399745],[8.978129,6.397945],[8.979908,6.396124],[8.979887,6.394324],[8.981666,6.392503],[8.983444,6.390681],[8.983423,6.388881],[8.985202,6.38706],[8.98698,6.385239],[8.988759,6.383417],[8.990537,6.381596],[8.992315,6.379775],[8.994094,6.377954],[8.995872,6.376133],[8.995851,6.374333],[8.99583,6.372532],[8.995809,6.370732],[8.995788,6.368932],[8.995767,6.367132],[8.997546,6.365311],[8.999324,6.36349],[9.001124,6.363469],[9.002902,6.361647],[9.00468,6.359826],[9.006459,6.358005],[9.006438,6.356205],[9.006417,6.354405],[9.008195,6.352584],[9.009973,6.350763],[9.009952,6.348963],[9.011731,6.347142],[9.013509,6.34532],[9.015287,6.343499],[9.017066,6.341678],[9.018844,6.339857],[9.020643,6.339836],[9.022442,6.339815],[9.02422,6.337994],[9.025999,6.336173],[9.027777,6.334352],[9.029555,6.332531],[9.031354,6.33251],[9.033132,6.330689],[9.034931,6.330668],[9.03673,6.330647],[9.03853,6.330626],[9.040308,6.328805],[9.042086,6.326984],[9.043864,6.325163],[9.045642,6.323342],[9.04742,6.321521],[9.049198,6.3197],[9.050976,6.317879],[9.052754,6.316058],[9.054532,6.314237],[9.05631,6.312416],[9.058088,6.310595],[9.058067,6.308795],[9.058046,6.306995],[9.058025,6.305195],[9.058004,6.303395],[9.059782,6.301574],[9.06156,6.299753],[9.063338,6.297932],[9.065116,6.296111],[9.066894,6.294291],[9.066873,6.292491],[9.066852,6.290691],[9.06863,6.28887],[9.070408,6.287049],[9.072186,6.285228],[9.073964,6.283407],[9.075741,6.281586],[9.077519,6.279765],[9.079297,6.277944],[9.081075,6.276124],[9.082874,6.276103],[9.084652,6.274282],[9.086429,6.272461],[9.088207,6.27064],[9.089985,6.268819],[9.091763,6.266998],[9.09354,6.265178],[9.095318,6.263357],[9.097117,6.263336],[9.098895,6.261515],[9.100672,6.259694],[9.10245,6.257873],[9.104228,6.256052],[9.106005,6.254232],[9.107804,6.254211],[9.109581,6.25239],[9.11138,6.252369],[9.113158,6.250548],[9.114956,6.250527],[9.116755,6.250506],[9.118532,6.248685],[9.12031,6.246865],[9.122087,6.245044],[9.123886,6.245023],[9.125664,6.243202],[9.127441,6.241381],[9.12924,6.24136],[9.131038,6.241339],[9.132815,6.239519],[9.134593,6.237698],[9.136391,6.237677],[9.13819,6.237656],[9.139988,6.237635],[9.141787,6.237614],[9.143585,6.237593],[9.145384,6.237572],[9.147182,6.237551],[9.148959,6.23573],[9.150758,6.235709],[9.152556,6.235688],[9.154355,6.235667],[9.156153,6.235646],[9.157951,6.235624],[9.15975,6.235603],[9.161548,6.235582],[9.163346,6.235561],[9.165145,6.23554],[9.166964,6.237319],[9.168763,6.237297],[9.170561,6.237276],[9.172338,6.235456],[9.174136,6.235434],[9.175935,6.235413],[9.177733,6.235392],[9.179531,6.235371],[9.18133,6.23535],[9.183128,6.235329],[9.184926,6.235307],[9.186703,6.233487],[9.188502,6.233465],[9.1903,6.233444],[9.192098,6.233423],[9.193896,6.233402],[9.195716,6.23518],[9.197514,6.235159],[9.199291,6.233338],[9.201068,6.231518],[9.202845,6.229697],[9.204643,6.229676],[9.20642,6.227855],[9.208218,6.227834],[9.210017,6.227812],[9.211794,6.225992],[9.213592,6.22597],[9.21539,6.225949],[9.217188,6.225928],[9.218986,6.225907],[9.220784,6.225885],[9.222561,6.224065],[9.224359,6.224043],[9.226157,6.224022],[9.227955,6.224001],[9.229753,6.22398],[9.231552,6.223958],[9.23335,6.223937],[9.235148,6.223916],[9.236924,6.222095],[9.236903,6.220296],[9.23868,6.218475],[9.240457,6.216654],[9.240435,6.214855],[9.242212,6.213034],[9.243989,6.211214],[9.245766,6.209393],[9.247563,6.209372],[9.249361,6.20935],[9.251138,6.20753],[9.252915,6.205709],[9.254691,6.203888],[9.256468,6.202068],[9.258245,6.200247],[9.260021,6.198427],[9.261798,6.196606],[9.263574,6.194785],[9.265351,6.192965],[9.267128,6.191144],[9.268904,6.189324],[9.270702,6.189302],[9.2725,6.189281],[9.274298,6.18926],[9.276074,6.187439],[9.277851,6.185619],[9.279627,6.183798],[9.281425,6.183777],[9.283223,6.183755],[9.28502,6.183734],[9.286797,6.181913],[9.288573,6.180093],[9.290371,6.180072],[9.292169,6.18005],[9.293966,6.180029],[9.295743,6.178208],[9.29754,6.178187],[9.299338,6.178166],[9.301136,6.178144],[9.302934,6.178123],[9.304731,6.178101],[9.306529,6.17808],[9.308327,6.178059],[9.310124,6.178037],[9.311922,6.178016],[9.313719,6.177994],[9.315517,6.177973],[9.317315,6.177952],[9.319112,6.17793],[9.32091,6.177909],[9.322708,6.177887],[9.324505,6.177866],[9.326303,6.177844],[9.3281,6.177823],[9.329898,6.177801],[9.331696,6.17778],[9.333493,6.177758],[9.335291,6.177737],[9.337088,6.177715],[9.338886,6.177694],[9.340683,6.177672],[9.342481,6.177651],[9.344278,6.177629],[9.346076,6.177608],[9.347852,6.175787],[9.349628,6.173967],[9.351404,6.172146],[9.35318,6.170326],[9.354956,6.168505],[9.356732,6.166685],[9.358508,6.164864],[9.360284,6.163044],[9.36206,6.161223],[9.363835,6.159403],[9.365611,6.157582],[9.367387,6.155762],[9.369163,6.153942],[9.370939,6.152121],[9.372715,6.150301],[9.374491,6.14848],[9.376266,6.14666],[9.378042,6.144839],[9.379839,6.144818],[9.381615,6.142997],[9.383391,6.141177],[9.385167,6.139357],[9.386943,6.137536],[9.388718,6.135716],[9.390494,6.133896],[9.39227,6.132075],[9.394045,6.130255],[9.395821,6.128434],[9.397618,6.128413],[9.399394,6.126593],[9.401191,6.126571],[9.402988,6.12655],[9.404764,6.124729],[9.406539,6.122909],[9.408337,6.122887],[9.410112,6.121067],[9.411888,6.119247],[9.413663,6.117426],[9.415439,6.115606],[9.417214,6.113786],[9.41899,6.111965],[9.420765,6.110145],[9.422541,6.108325],[9.424316,6.106505],[9.426092,6.104684],[9.427867,6.102864],[9.429643,6.101044],[9.431418,6.099224],[9.433194,6.097403],[9.434969,6.095583],[9.436745,6.093763],[9.43852,6.091943],[9.440295,6.090123],[9.442071,6.088302],[9.443846,6.086482],[9.445621,6.084662],[9.447397,6.082842],[9.449172,6.081022],[9.450947,6.079201],[9.452723,6.077381],[9.454498,6.075561],[9.456273,6.073741],[9.458048,6.071921],[9.459824,6.070101],[9.46162,6.070079],[9.463396,6.068259],[9.465171,6.066439],[9.466946,6.064619],[9.468721,6.062799],[9.470497,6.060979],[9.472272,6.059158],[9.474047,6.057338],[9.475844,6.057317],[9.477619,6.055497],[9.479415,6.055475],[9.48119,6.053655],[9.482987,6.053634],[9.484784,6.053612],[9.486559,6.051792],[9.488334,6.049972],[9.490109,6.048152],[9.491884,6.046332],[9.49368,6.04631],[9.495455,6.04449],[9.49723,6.04267],[9.499005,6.04085],[9.500802,6.040829],[9.502599,6.040807],[9.504395,6.040785],[9.506192,6.040764],[9.507988,6.040742],[9.509763,6.038922],[9.511538,6.037102],[9.513313,6.035282],[9.515088,6.033462],[9.516884,6.033441],[9.51868,6.033419],[9.520477,6.033397],[9.522273,6.033376],[9.524048,6.031556],[9.525823,6.029736],[9.527619,6.029714],[9.529416,6.029693],[9.531212,6.029671],[9.533008,6.029649],[9.534783,6.027829],[9.53658,6.027808],[9.538376,6.027786],[9.540172,6.027764],[9.541947,6.025945],[9.543722,6.024125],[9.545496,6.022305],[9.547271,6.020485],[9.549046,6.018665],[9.55082,6.016845],[9.552595,6.015025],[9.554391,6.015003],[9.556187,6.014982],[9.557984,6.01496],[9.55978,6.014938],[9.561576,6.014917],[9.563372,6.014895],[9.565147,6.013075],[9.566943,6.013053],[9.568718,6.011233],[9.570514,6.011212],[9.572288,6.009392],[9.574063,6.007572],[9.575837,6.005752],[9.577612,6.003932],[9.579386,6.002112],[9.581182,6.002091],[9.582978,6.002069],[9.584753,6.000249]]]}}
]
}
