{
"type": "FeatureCollection",
"name": "Wetlands",
"crs": { "type": "name", "properties": { "name": "urn:ogc:def:crs:OGC:1.3:CRS84" } },
"xy_coordinate_resolution": 1e-06,
"features": [
{"type":"Feature","properties":{},"geometry":{"type":"Polygon","coordinates":[[[4.165322,9.564641],[4.174083,9.55109],[4.174005,9.528104],[4.187027,9.513788],[4.184695,9.487311],[4.16954,9.478093],[4.172726,9.469474],[4.16814,9.462816],[4.134467,9.458374],[4.096694,9.469061],[4.072379,9.485263],[4.052771,9.484766],[4.047851,9.493587],[4.050327,9.509684],[4.044335,9.51962],[4.052349,9.529605],[4.045672,9.544641],[4.045842,9.569758],[4.052993,9.573959],[4.062749,9.568123],[4.06564,9.570254],[4.058579,9.581955],[4.072598,9.605206],[4.082067,9.606962],[4.087585,9.62095],[4.099803,9.623247],[4.113925,9.616791],[4.118258,9.621148],[4.141581,9.613657],[4.147343,9.605296],[4.142527,9.596804],[4.147492,9.594174],[4.153021,9.572097],[4.165322,9.564641]]]}},
{"type":"Feature","properties":{},"geometry":{"type":"Polygon","coordinates":[[[3.399943,9.044105],[3.393804,9.058666],[3.398854,9.071082],[3.39196,9.078135],[3.39703,9.108907],[3.358159,9.132771],[3.360224,9.145933],[3.386386,9.185675],[3.397958,9.189],[3.434753,9.218807],[3.454915,9.226198],[3.483799,9.197146],[3.486759,9.178509],[3.483555,9.154318],[3.469151,9.125136],[3.422737,9.077822],[3.413383,9.053545],[3.399943,9.044105]]]}},
{"type":"Feature","properties":{},"geometry":{"type":"Polygon","coordinates":[[[3.428349,9.247413],[3.422735,9.234025],[3.399628,9.221954],[3.357635,9.214905],[3.364362,9.224076],[3.389569,9.238233],[3.38833,9.256589],[3.398847,9.274099],[3.389219,9.301224],[3.416547,9.327474],[3.422022,9.340399],[3.44509,9.351309],[3.447337,9.357425],[3.49364,9.362277],[3.497367,9.357637],[3.49456,9.353005],[3.472151,9.346546],[3.450097,9.325811],[3.432694,9.290143],[3.428349,9.247413]]]}},
{"type":"Feature","properties":{},"geometry":{"type":"Polygon","coordinates":[[[8.720769,6.622332],[8.728946,6.615387],[8.71967,6.603039],[8.693882,6.599181],[8.628232,6.576884],[8.587443,6.549935],[8.560131,6.502065],[8.564442,6.478761],[8.571787,6.467052],[8.51805,6.412609],[8.510279,6.384866],[8.507279,6.345949],[8.489373,6.3177],[8.507802,6.303903],[8.49394,6.288267],[8.469379,6.281465],[8.431465,6.288298],[8.392139,6.299093],[8.387642,6.305787],[8.375191,6.306331],[8.364049,6.313091],[8.337954,6.319177],[8.293596,6.346431],[8.262398,6.382065],[8.242573,6.433584],[8.23542,6.464821],[8.23742,6.537723],[8.235129,6.55686],[8.215279,6.605477],[8.218698,6.614582],[8.266207,6.627789],[8.284174,6.637154],[8.289871,6.645196],[8.312354,6.649317],[8.360663,6.678704],[8.37436,6.67731],[8.420212,6.653128],[8.444518,6.653482],[8.46398,6.666353],[8.479597,6.669917],[8.49345,6.682846],[8.501473,6.675902],[8.509586,6.677057],[8.519645,6.685042],[8.522941,6.701203],[8.515718,6.723712],[8.517636,6.728051],[8.529985,6.717943],[8.529781,6.699879],[8.535269,6.689227],[8.533246,6.675544],[8.520695,6.667587],[8.51497,6.657061],[8.52472,6.637639],[8.537703,6.628773],[8.566352,6.627829],[8.581826,6.618934],[8.602366,6.617455],[8.618594,6.620386],[8.652449,6.63931],[8.671097,6.635982],[8.695858,6.622617],[8.720769,6.622332]]]}},
{"type":"Feature","properties":{},"geometry":{"type":"Polygon","coordinates":[[[8.886117,6.659909],[8.870161,6.653561],[8.814081,6.650491],[8.796235,6.642294],[8.772027,6.649116],[8.758862,6.641797],[8.726191,6.644047],[8.692069,6.682742],[8.724801,6.685165],[8.755738,6.694144],[8.763255,6.697791],[8.763354,6.706197],[8.758771,6.713724],[8.701856,6.72093],[8.68428,6.736083],[8.689062,6.745369],[8.738793,6.762535],[8.739838,6.771863],[8.736155,6.776578],[8.725889,6.777634],[8.73443,6.788742],[8.727021,6.794435],[8.713928,6.793655],[8.704648,6.799368],[8.68784,6.800502],[8.665335,6.794228],[8.623976,6.774156],[8.587678,6.787657],[8.577495,6.796185],[8.582254,6.803605],[8.582493,6.824158],[8.598547,6.837986],[8.643633,6.856145],[8.652221,6.870992],[8.654411,6.898059],[8.66201,6.908246],[8.684556,6.917318],[8.727587,6.919604],[8.750132,6.928672],[8.777246,6.929275],[8.808931,6.921417],[8.846321,6.92189],[8.915024,6.885552],[8.930871,6.882553],[8.979211,6.837754],[8.983421,6.825874],[9.000061,6.811972],[9.01391,6.773829],[9.035661,6.770445],[9.018774,6.764432],[8.96523,6.765093],[8.93712,6.757968],[8.928197,6.741269],[8.92916,6.718222],[8.913572,6.716545],[8.908554,6.713492],[8.90658,6.7048],[8.885471,6.710036],[8.857324,6.699788],[8.85103,6.69426],[8.848354,6.678726],[8.852639,6.672449],[8.886117,6.659909]]]}},
{"type":"Feature","properties":{},"geometry":{"type":"Polygon","coordinates":[[[0.631642,9.6614],[0.618535,9.673398],[0.615988,9.677132],[0.631578,9.67057],[0.634967,9.666425],[0.631642,9.6614]]]}},
{"type":"Feature","properties":{},"geometry":{"type":"Polygon","coordinates":[[[0.595484,9.724923],[0.574769,9.742699],[0.57259,9.753521],[0.585209,9.751526],[0.600916,9.729129],[0.595484,9.724923]]]}},
{"type":"Feature","properties":{},"geometry":{"type":"Polygon","coordinates":[[[0.646865,9.737227],[0.638797,9.729391],[0.63373,9.732969],[0.646865,9.737227]]]}},
{"type":"Feature","properties":{},"geometry":{"type":"Polygon","coordinates":[[[0.673269,9.686001],[0.667944,9.686522],[0.661404,9.700649],[0.666735,9.699296],[0.673269,9.686001]]]}},
{"type":"Feature","properties":{},"geometry":{"type":"Polygon","coordinates":[[[0.283598,10.0625],[0.271102,10.05962],[0.266574,10.064768],[0.272862,10.072598],[0.27264,10.092528],[0.278737,10.10732],[0.312868,10.123406],[0.286586,10.107384],[0.29094,10.083426],[0.283598,10.0625]]]}},
{"type":"Feature","properties":{},"geometry":{"type":"Polygon","coordinates":[[[0.255666,10.070419],[0.251278,10.088408],[0.263552,10.125056],[0.2735,10.112668],[0.274184,10.105513],[0.263999,10.072093],[0.255666,10.070419]]]}},
{"type":"Feature","properties":{},"geometry":{"type":"Polygon","coordinates":[[[0.377833,10.390764],[0.377902,10.382429],[0.370813,10.374454],[0.361105,10.377708],[0.355149,10.38516],[0.3563,10.398505],[0.377833,10.390764]]]}},
{"type":"Feature","properties":{},"geometry":{"type":"Polygon","coordinates":[[[0.112702,10.814286],[0.125296,10.819403],[0.125219,10.827527],[0.102951,10.842317],[0.098484,10.84665],[0.100338,10.851043],[0.121711,10.863741],[0.122886,10.873127],[0.145031,10.87146],[0.159028,10.862215],[0.166136,10.846031],[0.15803,10.834082],[0.158803,10.819091],[0.129237,10.803816],[0.112702,10.814286]]]}},
{"type":"Feature","properties":{},"geometry":{"type":"Polygon","coordinates":[[[0.676135,10.721512],[0.674205,10.725875],[0.684225,10.738453],[0.692453,10.737264],[0.688142,10.722226],[0.676135,10.721512]]]}},
{"type":"Feature","properties":{},"geometry":{"type":"Polygon","coordinates":[[[0.648792,10.077219],[0.648281,10.070268],[0.639647,10.062425],[0.615911,10.049196],[0.612522,10.052506],[0.624202,10.06565],[0.648792,10.077219]]]}},
{"type":"Feature","properties":{},"geometry":{"type":"Polygon","coordinates":[[[0.643931,10.051619],[0.6429,10.039107],[0.621419,10.024505],[0.585082,10.009796],[0.577755,10.015022],[0.581628,10.021997],[0.59838,10.031287],[0.643931,10.051619]]]}},
{"type":"Feature","properties":{},"geometry":{"type":"Polygon","coordinates":[[[0.603592,10.046885],[0.577876,10.036418],[0.574668,10.044082],[0.584477,10.053693],[0.58689,10.068438],[0.597806,10.071017],[0.599437,10.077976],[0.603592,10.046885]]]}},
{"type":"Feature","properties":{},"geometry":{"type":"Polygon","coordinates":[[[0.555558,9.984431],[0.559779,9.982239],[0.560962,9.973913],[0.553451,9.966355],[0.551059,9.948833],[0.503947,9.915422],[0.498286,9.922881],[0.497881,9.939272],[0.508202,9.945739],[0.52166,9.945004],[0.529174,9.952006],[0.535771,9.969282],[0.555558,9.984431]]]}},
{"type":"Feature","properties":{},"geometry":{"type":"Polygon","coordinates":[[[0.53227,9.987456],[0.516248,9.956496],[0.500811,9.959438],[0.494883,9.964951],[0.490416,9.962694],[0.484684,9.942645],[0.482138,9.945682],[0.487596,9.964896],[0.497331,9.974694],[0.504896,9.975028],[0.52917,9.989655],[0.53227,9.987456]]]}},
{"type":"Feature","properties":{},"geometry":{"type":"Polygon","coordinates":[[[0.823383,11.693719],[0.822344,11.664325],[0.815587,11.636138],[0.766228,11.622005],[0.756916,11.596925],[0.734753,11.593],[0.72723,11.582312],[0.721518,11.582893],[0.718911,11.591625],[0.726317,11.616691],[0.75196,11.661282],[0.762103,11.661987],[0.774074,11.672083],[0.782795,11.692157],[0.817005,11.698047],[0.823383,11.693719]]]}},
{"type":"Feature","properties":{},"geometry":{"type":"Polygon","coordinates":[[[0.757129,11.383033],[0.737461,11.341479],[0.720356,11.332455],[0.716951,11.335763],[0.731927,11.364777],[0.746235,11.371556],[0.757129,11.383033]]]}},
{"type":"Feature","properties":{},"geometry":{"type":"Polygon","coordinates":[[[0.737009,11.398718],[0.74281,11.377366],[0.726808,11.371129],[0.720499,11.349962],[0.709323,11.339038],[0.69848,11.286437],[0.695252,11.302806],[0.700495,11.316185],[0.694154,11.334475],[0.701561,11.358985],[0.724427,11.387227],[0.718646,11.405799],[0.737009,11.398718]]]}},
{"type":"Feature","properties":{},"geometry":{"type":"Polygon","coordinates":[[[0.710415,11.272358],[0.695326,11.258349],[0.674818,11.253187],[0.673102,11.256509],[0.703926,11.274254],[0.710415,11.272358]]]}},
{"type":"Feature","properties":{},"geometry":{"type":"Polygon","coordinates":[[[1.217328,8.109567],[1.193159,8.086944],[1.181875,8.083976],[1.173183,8.063087],[1.163987,8.061376],[1.151411,8.06674],[1.135873,8.07918],[1.139572,8.093791],[1.154965,8.11304],[1.177098,8.122734],[1.200111,8.123253],[1.217328,8.109567]]]}},
{"type":"Feature","properties":{},"geometry":{"type":"Polygon","coordinates":[[[1.255774,8.121409],[1.248646,8.124714],[1.245673,8.134708],[1.269758,8.178184],[1.267178,8.194018],[1.261302,8.197746],[1.261215,8.217762],[1.256145,8.228581],[1.269034,8.248654],[1.266462,8.262404],[1.271815,8.28286],[1.285173,8.291674],[1.290664,8.280438],[1.279551,8.236606],[1.293991,8.187876],[1.285359,8.151143],[1.277468,8.136933],[1.255774,8.121409]]]}},
{"type":"Feature","properties":{},"geometry":{"type":"Polygon","coordinates":[[[1.311913,8.304297],[1.306093,8.294682],[1.29659,8.291342],[1.286754,8.313365],[1.288405,8.318794],[1.297195,8.319248],[1.311913,8.304297]]]}},
{"type":"Feature","properties":{},"geometry":{"type":"Polygon","coordinates":[[[1.226857,8.875271],[1.225502,8.866368],[1.215456,8.862985],[1.214651,8.856032],[1.209074,8.853225],[1.203188,8.865827],[1.190805,8.873987],[1.185062,8.905093],[1.202764,8.886276],[1.226857,8.875271]]]}},
{"type":"Feature","properties":{},"geometry":{"type":"Polygon","coordinates":[[[1.235765,8.882817],[1.2327,8.880858],[1.220369,8.887471],[1.212767,8.898833],[1.205226,8.897406],[1.203221,8.907405],[1.223661,8.900552],[1.235765,8.882817]]]}},
{"type":"Feature","properties":{},"geometry":{"type":"Polygon","coordinates":[[[0.96672,8.956285],[0.958164,8.936505],[0.941951,8.936694],[0.953038,8.953432],[0.964181,8.960442],[0.96672,8.956285]]]}},
{"type":"Feature","properties":{},"geometry":{"type":"Polygon","coordinates":[[[1.431456,8.04294],[1.413468,8.042034],[1.409257,8.048691],[1.440057,8.09135],[1.45132,8.100568],[1.474747,8.10274],[1.47699,8.106434],[1.488987,8.099873],[1.475798,8.080095],[1.448943,8.065527],[1.431456,8.04294]]]}},
{"type":"Feature","properties":{},"geometry":{"type":"Polygon","coordinates":[[[2.450607,10.089163],[2.437426,10.090102],[2.43657,10.098444],[2.428977,10.107608],[2.434826,10.132645],[2.447002,10.151854],[2.454929,10.193998],[2.467507,10.226971],[2.475495,10.23491],[2.498244,10.229105],[2.510914,10.205347],[2.52734,10.203286],[2.56101,10.215013],[2.563123,10.209177],[2.55934,10.204583],[2.547554,10.201648],[2.536625,10.188284],[2.524,10.183259],[2.495405,10.160274],[2.450607,10.089163]]]}},
{"type":"Feature","properties":{},"geometry":{"type":"Polygon","coordinates":[[[2.490408,10.125228],[2.493757,10.13733],[2.508048,10.151951],[2.556459,10.156192],[2.556466,10.151186],[2.526602,10.132373],[2.514822,10.126933],[2.490408,10.125228]]]}},
{"type":"Feature","properties":{},"geometry":{"type":"Polygon","coordinates":[[[2.548868,10.165359],[2.516453,10.162391],[2.526382,10.177158],[2.545899,10.180789],[2.579133,10.203358],[2.581667,10.197521],[2.561069,10.171633],[2.548868,10.165359]]]}},
{"type":"Feature","properties":{},"geometry":{"type":"Polygon","coordinates":[[[2.830041,8.368489],[2.822777,8.37669],[2.829188,8.405061],[2.827507,8.417298],[2.810171,8.455671],[2.8124,8.466241],[2.827758,8.48071],[2.839788,8.435937],[2.856841,8.396867],[2.855169,8.387272],[2.830041,8.368489]]]}},
{"type":"Feature","properties":{},"geometry":{"type":"Polygon","coordinates":[[[2.886307,8.396738],[2.872904,8.386999],[2.872896,8.411196],[2.879599,8.410921],[2.886307,8.396738]]]}},
{"type":"Feature","properties":{},"geometry":{"type":"Polygon","coordinates":[[[2.540408,7.746768],[2.518211,7.772607],[2.51526,7.792211],[2.530324,7.787639],[2.54224,7.793264],[2.545803,7.785989],[2.542052,7.773887],[2.545833,7.758038],[2.540408,7.746768]]]}},
{"type":"Feature","properties":{},"geometry":{"type":"Polygon","coordinates":[[[2.519148,7.683748],[2.508666,7.707099],[2.515765,7.716702],[2.523298,7.712539],[2.526668,7.690432],[2.519148,7.683748]]]}},
{"type":"Feature","properties":{},"geometry":{"type":"Polygon","coordinates":[[[2.477111,7.517661],[2.470411,7.527249],[2.463664,7.574382],[2.468677,7.577726],[2.483742,7.566479],[2.483367,7.529767],[2.477111,7.517661]]]}},
{"type":"Feature","properties":{},"geometry":{"type":"Polygon","coordinates":[[[2.45804,7.446092],[2.438805,7.452741],[2.421808,7.452163],[2.408965,7.471615],[2.401111,7.509429],[2.421502,7.473022],[2.431827,7.462188],[2.44799,7.461097],[2.45804,7.446092]]]}},
{"type":"Feature","properties":{},"geometry":{"type":"Polygon","coordinates":[[[2.429168,7.362617],[2.41859,7.356485],[2.42215,7.404327],[2.406243,7.423496],[2.394478,7.469093],[2.399769,7.471325],[2.409818,7.458266],[2.417391,7.421564],[2.434964,7.405734],[2.4386,7.394335],[2.429168,7.362617]]]}},
{"type":"Feature","properties":{},"geometry":{"type":"Polygon","coordinates":[[[3.071412,7.971779],[3.047139,7.971782],[3.012404,7.988055],[3.015334,7.991393],[3.047141,7.989348],[3.071412,7.971779]]]}},
{"type":"Feature","properties":{},"geometry":{"type":"Polygon","coordinates":[[[3.420109,7.429229],[3.406149,7.444127],[3.416814,7.48013],[3.422669,7.483461],[3.436442,7.461754],[3.420109,7.429229]]]}},
{"type":"Feature","properties":{},"geometry":{"type":"Polygon","coordinates":[[[3.539755,7.520046],[3.507546,7.502563],[3.496259,7.502158],[3.52262,7.523821],[3.538924,7.524636],[3.539755,7.520046]]]}},
{"type":"Feature","properties":{},"geometry":{"type":"Polygon","coordinates":[[[3.448286,7.394574],[3.425081,7.383333],[3.421325,7.388969],[3.42824,7.408988],[3.435141,7.414613],[3.448307,7.415225],[3.453944,7.410214],[3.453936,7.402078],[3.448286,7.394574]]]}},
{"type":"Feature","properties":{},"geometry":{"type":"Polygon","coordinates":[[[3.752028,7.592528],[3.714402,7.593844],[3.70626,7.600115],[3.705023,7.610754],[3.719448,7.610731],[3.735105,7.598189],[3.752028,7.592528]]]}},
{"type":"Feature","properties":{},"geometry":{"type":"Polygon","coordinates":[[[3.374294,7.370237],[3.376811,7.382124],[3.386167,7.389876],[3.383703,7.378364],[3.374294,7.370237]]]}},
{"type":"Feature","properties":{},"geometry":{"type":"Polygon","coordinates":[[[3.412834,7.689875],[3.401426,7.714918],[3.405622,7.728542],[3.42986,7.709328],[3.412834,7.689875]]]}},
{"type":"Feature","properties":{},"geometry":{"type":"Polygon","coordinates":[[[3.029821,7.180772],[3.025227,7.190785],[3.035671,7.199129],[3.036925,7.208307],[3.041938,7.209558],[3.046951,7.200797],[3.029821,7.180772]]]}},
{"type":"Feature","properties":{},"geometry":{"type":"Polygon","coordinates":[[[3.46278,5.788914],[3.435273,5.771134],[3.424443,5.772533],[3.410286,5.782],[3.412796,5.795072],[3.427533,5.818703],[3.435864,5.818418],[3.440578,5.808123],[3.46278,5.788914]]]}},
{"type":"Feature","properties":{},"geometry":{"type":"Polygon","coordinates":[[[3.551642,5.26815],[3.522091,5.268175],[3.502534,5.27445],[3.470485,5.27364],[3.432615,5.281595],[3.422624,5.279099],[3.415387,5.266069],[3.410493,5.272792],[3.363104,5.279554],[3.343909,5.292137],[3.359372,5.304172],[3.393925,5.311244],[3.424907,5.304548],[3.441795,5.313715],[3.470512,5.309939],[3.493416,5.323272],[3.509653,5.326597],[3.581626,5.286897],[3.574127,5.27856],[3.551642,5.26815]]]}},
{"type":"Feature","properties":{},"geometry":{"type":"Polygon","coordinates":[[[3.348166,4.711618],[3.332949,4.7158],[3.316036,4.714417],[3.32048,4.730627],[3.307873,4.76588],[3.309687,4.77478],[3.337687,4.766701],[3.34266,4.729425],[3.350693,4.716348],[3.348166,4.711618]]]}},
{"type":"Feature","properties":{},"geometry":{"type":"Polygon","coordinates":[[[2.740191,4.104533],[2.717751,4.109812],[2.704178,4.106468],[2.671761,4.118694],[2.666218,4.125368],[2.677851,4.129823],[2.717107,4.123913],[2.721346,4.127337],[2.721619,4.137907],[2.726881,4.141525],[2.747942,4.123173],[2.747668,4.114828],[2.740191,4.104533]]]}},
{"type":"Feature","properties":{},"geometry":{"type":"Polygon","coordinates":[[[2.644222,4.060964],[2.63841,4.050948],[2.623452,4.04955],[2.602398,4.054268],[2.569149,4.070941],[2.566367,4.093193],[2.574674,4.100151],[2.593795,4.086809],[2.61429,4.093773],[2.623986,4.092665],[2.629529,4.088496],[2.628424,4.081541],[2.647266,4.069032],[2.642558,4.067361],[2.644222,4.060964]]]}},
{"type":"Feature","properties":{},"geometry":{"type":"Polygon","coordinates":[[[3.748398,4.91139],[3.745611,4.898877],[3.731178,4.886099],[3.693195,4.893371],[3.683495,4.898944],[3.67905,4.911743],[3.657008,4.941248],[3.624114,4.957598],[3.588714,4.965233],[3.527696,4.96139],[3.509671,4.965021],[3.509121,4.970584],[3.567645,4.976377],[3.556844,4.994466],[3.547972,4.998646],[3.510529,4.998676],[3.518854,5.003678],[3.540245,5.005469],[3.583466,4.990271],[3.596216,4.981358],[3.628665,4.980216],[3.633923,4.967972],[3.643621,4.959063],[3.687962,4.927866],[3.701551,4.928686],[3.713183,4.913932],[3.726769,4.912249],[3.733988,4.920307],[3.743414,4.918071],[3.748398,4.91139]]]}},
{"type":"Feature","properties":{},"geometry":{"type":"Polygon","coordinates":[[[3.906507,5.194048],[3.902171,5.217834],[3.908429,5.228464],[3.921531,5.224064],[3.926555,5.204016],[3.906507,5.194048]]]}},
{"type":"Feature","properties":{},"geometry":{"type":"Polygon","coordinates":[[[3.88994,5.394323],[3.924879,5.376748],[3.925593,5.366215],[3.909234,5.352366],[3.897372,5.352384],[3.831241,5.390025],[3.818794,5.420705],[3.835668,5.431321],[3.84377,5.41942],[3.869102,5.408506],[3.869965,5.398106],[3.88994,5.394323]]]}},
{"type":"Feature","properties":{},"geometry":{"type":"Polygon","coordinates":[[[3.660331,6.58082],[3.676764,6.597236],[3.691019,6.5983],[3.711029,6.588145],[3.70789,6.580755],[3.69224,6.576396],[3.669708,6.573298],[3.660331,6.58082]]]}},
{"type":"Feature","properties":{},"geometry":{"type":"Polygon","coordinates":[[[3.753832,6.75121],[3.750096,6.764357],[3.762042,6.797504],[3.773956,6.809375],[3.779619,6.827513],[3.790271,6.832502],[3.795901,6.829989],[3.798371,6.809336],[3.790828,6.790575],[3.782684,6.786833],[3.77142,6.78998],[3.771395,6.774336],[3.77577,6.769949],[3.770117,6.757442],[3.765725,6.751192],[3.753832,6.75121]]]}},
{"type":"Feature","properties":{},"geometry":{"type":"Polygon","coordinates":[[[3.017416,11.774477],[3.018686,11.781359],[2.994189,11.769077],[2.977412,11.765718],[2.970427,11.76822],[2.957099,11.720042],[2.929802,11.713155],[2.924725,11.705646],[2.908855,11.701263],[2.900595,11.722037],[2.908202,11.758822],[2.875173,11.783209],[2.862463,11.803223],[2.864361,11.816988],[2.887855,11.827636],[2.892928,11.847659],[2.903091,11.847662],[2.928507,11.81013],[2.938033,11.810133],[2.971687,11.857688],[3.020599,11.89335],[3.068896,11.955907],[3.090506,11.975295],[3.122288,11.994677],[3.154061,11.991534],[3.16359,11.986523],[3.122259,11.930862],[3.115898,11.912721],[3.07777,11.880827],[3.068873,11.865814],[3.062512,11.825774],[3.043456,11.80951],[3.017416,11.774477]]]}},
{"type":"Feature","properties":{},"geometry":{"type":"Polygon","coordinates":[[[3.190827,11.555923],[3.236001,11.574486],[3.246806,11.595123],[3.239836,11.607017],[3.24287,11.614206],[3.282242,11.634575],[3.302313,11.675708],[3.300227,11.703309],[3.325024,11.736441],[3.329502,11.76459],[3.341194,11.774208],[3.344764,11.765251],[3.358698,11.75517],[3.365655,11.734515],[3.364337,11.697604],[3.355663,11.676621],[3.340176,11.666352],[3.251446,11.579686],[3.224358,11.562191],[3.194741,11.553035],[3.190827,11.555923]]]}},
{"type":"Feature","properties":{},"geometry":{"type":"Polygon","coordinates":[[[3.671599,11.6079],[3.659456,11.571016],[3.648649,11.556752],[3.620148,11.584865],[3.608789,11.613669],[3.591159,11.679396],[3.600456,11.711871],[3.611127,11.715779],[3.623237,11.705743],[3.671599,11.6079]]]}},
{"type":"Feature","properties":{},"geometry":{"type":"Polygon","coordinates":[[[3.629023,11.861681],[3.620049,11.825416],[3.602913,11.817266],[3.572416,11.824266],[3.526739,11.850004],[3.499473,11.875079],[3.405562,11.942171],[3.375494,11.971373],[3.387823,11.977856],[3.420205,11.961544],[3.444339,11.953999],[3.465306,11.953339],[3.515455,11.928853],[3.55485,11.931279],[3.568776,11.906855],[3.633495,11.872932],[3.633475,11.864174],[3.629023,11.861681]]]}},
{"type":"Feature","properties":{},"geometry":{"type":"Polygon","coordinates":[[[4.810706,11.807142],[4.78871,11.808671],[4.766373,11.801028],[4.746968,11.810875],[4.727747,11.805156],[4.724374,11.807123],[4.730128,11.824876],[4.728211,11.83406],[4.712554,11.857226],[4.724406,11.857153],[4.751909,11.877829],[4.772828,11.883261],[4.786904,11.87928],[4.797004,11.868931],[4.799898,11.83695],[4.806604,11.826901],[4.810706,11.807142]]]}},
{"type":"Feature","properties":{},"geometry":{"type":"Polygon","coordinates":[[[4.660954,8.118026],[4.644568,8.101829],[4.565994,8.073362],[4.535854,8.070348],[4.512644,8.074187],[4.455745,8.135702],[4.452666,8.152604],[4.460851,8.158831],[4.437648,8.166421],[4.436421,8.174557],[4.451556,8.192645],[4.474852,8.210078],[4.486796,8.213788],[4.499409,8.228129],[4.502609,8.244381],[4.497054,8.270052],[4.505244,8.276901],[4.51529,8.276238],[4.530777,8.253602],[4.566704,8.255397],[4.581832,8.269725],[4.590628,8.27094],[4.608044,8.229584],[4.628704,8.214489],[4.634304,8.201955],[4.627938,8.180713],[4.64408,8.136235],[4.660954,8.118026]]]}},
{"type":"Feature","properties":{},"geometry":{"type":"Polygon","coordinates":[[[4.400194,8.168638],[4.417668,8.134807],[4.428525,8.131419],[4.432296,8.124425],[4.431369,8.10722],[4.420463,8.100168],[4.399165,8.113588],[4.378664,8.115326],[4.371569,8.121189],[4.374947,8.129937],[4.378281,8.125755],[4.397556,8.132362],[4.39789,8.147394],[4.385223,8.158287],[4.383458,8.17078],[4.392257,8.173253],[4.400194,8.168638]]]}},
{"type":"Feature","properties":{},"geometry":{"type":"Polygon","coordinates":[[[4.342672,7.988862],[4.352245,7.973816],[4.352207,7.962138],[4.346729,7.95006],[4.326172,7.932193],[4.301057,7.927684],[4.290194,7.932305],[4.269782,7.96073],[4.268602,7.985342],[4.281212,8.003656],[4.295808,8.006671],[4.303318,7.981481],[4.342672,7.988862]]]}},
{"type":"Feature","properties":{},"geometry":{"type":"Polygon","coordinates":[[[4.335125,7.755423],[4.33504,7.728313],[4.327925,7.72625],[4.29957,7.75178],[4.273632,7.748104],[4.252373,7.771107],[4.237333,7.776575],[4.218149,7.794982],[4.219426,7.802487],[4.235761,7.810781],[4.28378,7.785196],[4.310116,7.781779],[4.335125,7.755423]]]}},
{"type":"Feature","properties":{},"geometry":{"type":"Polygon","coordinates":[[[3.962603,7.734529],[3.970112,7.726726],[3.967035,7.722284],[3.926835,7.697622],[3.925706,7.69095],[3.912314,7.685973],[3.900573,7.670424],[3.901355,7.644837],[3.877354,7.630704],[3.895004,7.673495],[3.918742,7.693746],[3.926016,7.70541],[3.962603,7.734529]]]}},
{"type":"Feature","properties":{},"geometry":{"type":"Polygon","coordinates":[[[4.251832,6.10524],[4.232937,6.103895],[4.209024,6.094772],[4.212897,6.086976],[4.226499,6.082218],[4.231478,6.07303],[4.21203,6.07224],[4.192872,6.077009],[4.185072,6.067571],[4.177783,6.036997],[4.153698,6.023422],[4.161312,6.002544],[4.155819,6.004557],[4.148839,6.012031],[4.152076,6.03937],[4.148262,6.045435],[4.148827,6.062405],[4.154357,6.087157],[4.148389,6.105441],[4.162952,6.116286],[4.174598,6.105693],[4.182668,6.111515],[4.185473,6.123745],[4.194387,6.134293],[4.201333,6.134278],[4.213809,6.12257],[4.23159,6.121974],[4.251832,6.10524]]]}},
{"type":"Feature","properties":{},"geometry":{"type":"Polygon","coordinates":[[[4.509024,5.27148],[4.488764,5.267359],[4.477931,5.260711],[4.46573,5.262686],[4.465468,5.269082],[4.473261,5.280187],[4.486874,5.288774],[4.509024,5.27148]]]}},
{"type":"Feature","properties":{},"geometry":{"type":"Polygon","coordinates":[[[4.770436,5.599903],[4.772249,5.57988],[4.759141,5.581171],[4.713014,5.607433],[4.691165,5.609521],[4.681226,5.618958],[4.69434,5.627654],[4.726193,5.630064],[4.759254,5.618703],[4.770436,5.599903]]]}},
{"type":"Feature","properties":{},"geometry":{"type":"Polygon","coordinates":[[[4.898376,6.645827],[4.871239,6.638007],[4.853732,6.640574],[4.854378,6.653915],[4.863446,6.661114],[4.898376,6.645827]]]}},
{"type":"Feature","properties":{},"geometry":{"type":"Polygon","coordinates":[[[5.237303,6.120461],[5.190768,6.086463],[5.181373,6.092339],[5.178184,6.112803],[5.218074,6.139024],[5.233595,6.130482],[5.237303,6.120461]]]}},
{"type":"Feature","properties":{},"geometry":{"type":"Polygon","coordinates":[[[5.155402,6.055337],[5.150965,6.033442],[5.139608,6.026901],[5.13323,6.030824],[5.133262,6.038746],[5.141229,6.052474],[5.155402,6.055337]]]}},
{"type":"Feature","properties":{},"geometry":{"type":"Polygon","coordinates":[[[5.384563,4.945847],[5.37497,4.93671],[5.371162,4.917963],[5.363233,4.908819],[5.344951,4.910553],[5.343787,4.93432],[5.348389,4.942641],[5.359213,4.947605],[5.384563,4.945847]]]}},
{"type":"Feature","properties":{},"geometry":{"type":"Polygon","coordinates":[[[5.441829,8.869887],[5.432996,8.864944],[5.413468,8.858819],[5.396482,8.857051],[5.394443,8.833305],[5.388758,8.828965],[5.385022,8.834616],[5.390156,8.850839],[5.380763,8.856526],[5.38146,8.867151],[5.413112,8.883634],[5.438528,8.879855],[5.441829,8.869887]]]}},
{"type":"Feature","properties":{},"geometry":{"type":"Polygon","coordinates":[[[5.641274,9.732121],[5.619902,9.72673],[5.599577,9.717855],[5.599218,9.72446],[5.608394,9.733425],[5.609477,9.748619],[5.614576,9.756081],[5.634668,9.746758],[5.641274,9.732121]]]}},
{"type":"Feature","properties":{},"geometry":{"type":"Polygon","coordinates":[[[5.711207,10.288187],[5.692757,10.270839],[5.6713,10.271017],[5.663769,10.276079],[5.662585,10.285465],[5.669669,10.302284],[5.686705,10.301517],[5.711207,10.288187]]]}},
{"type":"Feature","properties":{},"geometry":{"type":"Polygon","coordinates":[[[5.66108,10.331733],[5.659134,10.325499],[5.642629,10.314382],[5.630621,10.312605],[5.620563,10.317687],[5.626347,10.330142],[5.632049,10.332597],[5.654821,10.338036],[5.66108,10.331733]]]}},
{"type":"Feature","properties":{},"geometry":{"type":"Polygon","coordinates":[[[5.722975,10.335592],[5.71531,10.32503],[5.693192,10.32209],[5.683814,10.332794],[5.682,10.342185],[5.69471,10.35208],[5.706056,10.35011],[5.722975,10.335592]]]}},
{"type":"Feature","properties":{},"geometry":{"type":"Polygon","coordinates":[[[5.607952,10.360442],[5.615777,10.349606],[5.615673,10.337105],[5.610572,10.330895],[5.597926,10.328497],[5.596884,10.346076],[5.607952,10.360442]]]}},
{"type":"Feature","properties":{},"geometry":{"type":"Polygon","coordinates":[[[5.728997,10.374918],[5.718243,10.372509],[5.703628,10.361382],[5.69479,10.361455],[5.686011,10.368404],[5.681062,10.380322],[5.656457,10.382402],[5.647771,10.400601],[5.649718,10.406835],[5.664239,10.406715],[5.689932,10.383998],[5.688632,10.379634],[5.720909,10.388738],[5.728997,10.374918]]]}},
{"type":"Feature","properties":{},"geometry":{"type":"Polygon","coordinates":[[[5.712891,10.410682],[5.694501,10.401462],[5.685705,10.406536],[5.682693,10.423437],[5.70477,10.420752],[5.712891,10.410682]]]}},
{"type":"Feature","properties":{},"geometry":{"type":"Polygon","coordinates":[[[5.648646,10.429347],[5.648519,10.414347],[5.630182,10.400013],[5.614387,10.410251],[5.616537,10.440863],[5.636008,10.441524],[5.648646,10.429347]]]}},
{"type":"Feature","properties":{},"geometry":{"type":"Polygon","coordinates":[[[5.73877,10.409837],[5.72118,10.419987],[5.726285,10.426194],[5.741498,10.43294],[5.752263,10.427895],[5.73877,10.409837]]]}},
{"type":"Feature","properties":{},"geometry":{"type":"Polygon","coordinates":[[[5.990226,10.914534],[5.988693,10.887678],[5.975937,10.876553],[5.969603,10.875366],[5.941892,10.886255],[5.89889,10.885416],[5.897072,10.893557],[5.920733,10.920829],[5.948442,10.909314],[5.97318,10.917199],[5.990226,10.914534]]]}},
{"type":"Feature","properties":{},"geometry":{"type":"Polygon","coordinates":[[[6.433858,10.860216],[6.429896,10.845269],[6.408336,10.838638],[6.39619,10.826279],[6.360045,10.814806],[6.358331,10.831066],[6.385177,10.858258],[6.413792,10.87112],[6.433858,10.860216]]]}},
{"type":"Feature","properties":{},"geometry":{"type":"Polygon","coordinates":[[[5.936503,10.473857],[5.942699,10.461302],[5.931849,10.448903],[5.912933,10.451576],[5.899108,10.458577],[5.896062,10.470478],[5.904403,10.484776],[5.915779,10.485922],[5.923976,10.484596],[5.936503,10.473857]]]}},
{"type":"Feature","properties":{},"geometry":{"type":"Polygon","coordinates":[[[6.012232,10.470025],[6.001284,10.467199],[5.977672,10.487223],[5.978393,10.49659],[5.984135,10.502785],[5.994881,10.503933],[6.012232,10.470025]]]}},
{"type":"Feature","properties":{},"geometry":{"type":"Polygon","coordinates":[[[6.041386,10.416633],[6.03357,10.409092],[6.025522,10.408036],[6.019283,10.415593],[6.01927,10.439934],[6.033957,10.431701],[6.041386,10.416633]]]}},
{"type":"Feature","properties":{},"geometry":{"type":"Polygon","coordinates":[[[5.960016,10.356155],[5.951823,10.35748],[5.94875,10.366257],[5.931627,10.377181],[5.933894,10.39764],[5.943403,10.401927],[5.956594,10.394931],[5.963354,10.375496],[5.960016,10.356155]]]}},
{"type":"Feature","properties":{},"geometry":{"type":"Polygon","coordinates":[[[6.218017,10.529239],[6.210976,10.519938],[6.209494,10.498711],[6.194286,10.496024],[6.183468,10.508775],[6.186085,10.527404],[6.202014,10.537484],[6.213069,10.539179],[6.218017,10.529239]]]}},
{"type":"Feature","properties":{},"geometry":{"type":"Polygon","coordinates":[[[6.236702,10.382854],[6.224185,10.392976],[6.210417,10.39653],[6.207913,10.40626],[6.216206,10.414923],[6.228834,10.415421],[6.256337,10.426767],[6.270892,10.423007],[6.241724,10.403658],[6.246316,10.397126],[6.245601,10.389011],[6.236702,10.382854]]]}},
{"type":"Feature","properties":{},"geometry":{"type":"Polygon","coordinates":[[[5.969728,4.898118],[5.961599,4.891903],[5.960924,4.88003],[5.95342,4.873814],[5.92788,4.875802],[5.9248,4.883942],[5.928584,4.894551],[5.9417,4.901368],[5.969728,4.898118]]]}},
{"type":"Feature","properties":{},"geometry":{"type":"Polygon","coordinates":[[[6.048291,4.909013],[6.048232,4.895889],[6.024524,4.889123],[6.014636,4.907293],[6.019034,4.915398],[6.035241,4.916573],[6.048291,4.909013]]]}},
{"type":"Feature","properties":{},"geometry":{"type":"Polygon","coordinates":[[[6.763896,7.11457],[6.721354,7.111165],[6.709695,7.11813],[6.708884,7.141751],[6.723417,7.134412],[6.75577,7.128735],[6.765888,7.122103],[6.763896,7.11457]]]}},
{"type":"Feature","properties":{},"geometry":{"type":"Polygon","coordinates":[[[6.834208,8.485564],[6.83226,8.476582],[6.817035,8.459713],[6.804008,8.467711],[6.789736,8.491317],[6.791709,8.507544],[6.811182,8.503899],[6.834208,8.485564]]]}},
{"type":"Feature","properties":{},"geometry":{"type":"Polygon","coordinates":[[[6.842393,11.733324],[6.821843,11.724142],[6.79076,11.721434],[6.778801,11.727212],[6.778252,11.733464],[6.782136,11.746762],[6.800756,11.757342],[6.830797,11.746898],[6.842393,11.733324]]]}},
{"type":"Feature","properties":{},"geometry":{"type":"Polygon","coordinates":[[[6.283575,11.759571],[6.266363,11.751649],[6.255682,11.759893],[6.24994,11.756105],[6.230653,11.759682],[6.217521,11.804056],[6.21895,11.817784],[6.226706,11.830193],[6.246345,11.834628],[6.249947,11.82917],[6.2716,11.819057],[6.277807,11.80774],[6.283575,11.759571]]]}},
{"type":"Feature","properties":{},"geometry":{"type":"Polygon","coordinates":[[[7.023376,10.461348],[6.996691,10.446076],[6.985317,10.444347],[6.927978,10.448803],[6.91855,10.451417],[6.915514,10.460878],[6.987478,10.465398],[7.011948,10.474113],[7.023376,10.461348]]]}},
{"type":"Feature","properties":{},"geometry":{"type":"Polygon","coordinates":[[[6.798804,7.064014],[6.78638,7.073483],[6.782111,7.086633],[6.780937,7.09601],[6.78815,7.11042],[6.815838,7.083231],[6.798804,7.064014]]]}},
{"type":"Feature","properties":{},"geometry":{"type":"Polygon","coordinates":[[[6.779982,6.899929],[6.766418,6.923141],[6.770332,6.943719],[6.787274,6.952327],[6.815748,6.949537],[6.824082,6.944534],[6.830844,6.930742],[6.827534,6.907664],[6.813535,6.899012],[6.779982,6.899929]]]}},
{"type":"Feature","properties":{},"geometry":{"type":"Polygon","coordinates":[[[6.916575,6.637203],[6.927701,6.602931],[6.92125,6.596581],[6.911657,6.595011],[6.889543,6.614313],[6.881152,6.612438],[6.879607,6.62126],[6.86693,6.624198],[6.863801,6.633275],[6.846678,6.625165],[6.843944,6.633428],[6.855972,6.633335],[6.885536,6.6494],[6.89795,6.651086],[6.908531,6.646632],[6.916575,6.637203]]]}},
{"type":"Feature","properties":{},"geometry":{"type":"Polygon","coordinates":[[[7.120264,6.540979],[7.140122,6.527081],[7.141276,6.515548],[7.119304,6.499786],[7.075594,6.497641],[7.060721,6.510871],[7.066439,6.523311],[7.077776,6.53411],[7.120264,6.540979]]]}},
{"type":"Feature","properties":{},"geometry":{"type":"Polygon","coordinates":[[[6.858264,4.382774],[6.854819,4.341026],[6.848056,4.332869],[6.836245,4.334802],[6.838279,4.367889],[6.847701,4.385327],[6.858264,4.382774]]]}},
{"type":"Feature","properties":{},"geometry":{"type":"Polygon","coordinates":[[[7.034127,3.78779],[7.044629,3.774006],[7.040868,3.767156],[7.033413,3.767815],[7.021677,3.783478],[7.021917,3.791265],[7.034127,3.78779]]]}},
{"type":"Feature","properties":{},"geometry":{"type":"Polygon","coordinates":[[[7.213973,11.039612],[7.177134,11.025769],[7.168309,11.027139],[7.158293,11.034781],[7.162899,11.076573],[7.20655,11.050709],[7.213973,11.039612]]]}},
{"type":"Feature","properties":{},"geometry":{"type":"Polygon","coordinates":[[[7.369337,4.508121],[7.359451,4.508052],[7.343251,4.502739],[7.334179,4.517675],[7.337154,4.523162],[7.352082,4.523489],[7.369337,4.508121]]]}},
{"type":"Feature","properties":{},"geometry":{"type":"Polygon","coordinates":[[[7.427982,4.529684],[7.429376,4.517867],[7.42415,4.513067],[7.404924,4.521422],[7.408082,4.529389],[7.418912,4.538059],[7.427982,4.529684]]]}},
{"type":"Feature","properties":{},"geometry":{"type":"Polygon","coordinates":[[[7.470965,4.509035],[7.4527,4.504573],[7.442753,4.517096],[7.449502,4.523728],[7.460278,4.523661],[7.470965,4.509035]]]}},
{"type":"Feature","properties":{},"geometry":{"type":"Polygon","coordinates":[[[7.605755,7.743173],[7.584301,7.740067],[7.573771,7.749539],[7.560057,7.811451],[7.580069,7.814932],[7.593967,7.766163],[7.605755,7.743173]]]}},
{"type":"Feature","properties":{},"geometry":{"type":"Polygon","coordinates":[[[7.65967,7.93699],[7.651022,7.912179],[7.627314,7.894412],[7.61302,7.905696],[7.644677,7.939031],[7.65967,7.93699]]]}},
{"type":"Feature","properties":{},"geometry":{"type":"Polygon","coordinates":[[[7.854658,9.414269],[7.860341,9.407764],[7.846433,9.3999],[7.833645,9.348041],[7.818165,9.318319],[7.797996,9.299002],[7.792559,9.28226],[7.778591,9.267294],[7.755959,9.258171],[7.750383,9.258431],[7.743101,9.270171],[7.73274,9.274374],[7.715571,9.27035],[7.697226,9.233997],[7.690562,9.236487],[7.680734,9.252879],[7.678307,9.266218],[7.707019,9.270832],[7.712852,9.275745],[7.713903,9.284787],[7.703695,9.286584],[7.694357,9.294469],[7.680067,9.29022],[7.663348,9.292105],[7.656318,9.288039],[7.638797,9.292703],[7.634532,9.329077],[7.616541,9.340678],[7.601052,9.362248],[7.580013,9.364996],[7.571437,9.370931],[7.546543,9.367369],[7.548434,9.383981],[7.568505,9.402855],[7.582223,9.405724],[7.58581,9.410258],[7.590583,9.410377],[7.593378,9.404746],[7.6054,9.413833],[7.632131,9.418561],[7.635738,9.41396],[7.647658,9.413804],[7.657427,9.389997],[7.672988,9.387967],[7.685872,9.39144],[7.691306,9.407063],[7.74437,9.401639],[7.791364,9.408902],[7.81998,9.419322],[7.854658,9.414269]]]}},
{"type":"Feature","properties":{},"geometry":{"type":"Polygon","coordinates":[[[7.576325,9.300291],[7.591164,9.278553],[7.579852,9.277868],[7.554018,9.28735],[7.576325,9.300291]]]}},
{"type":"Feature","properties":{},"geometry":{"type":"Polygon","coordinates":[[[7.734751,9.153395],[7.729287,9.182989],[7.73818,9.190425],[7.750213,9.183924],[7.755549,9.175571],[7.75208,9.16647],[7.734751,9.153395]]]}},
{"type":"Feature","properties":{},"geometry":{"type":"Polygon","coordinates":[[[7.701849,4.568913],[7.683606,4.567646],[7.669265,4.57162],[7.637123,4.557136],[7.625539,4.560261],[7.599545,4.556823],[7.570451,4.543976],[7.557069,4.54258],[7.542712,4.526683],[7.520258,4.514901],[7.503389,4.513063],[7.49322,4.522],[7.492717,4.530046],[7.517945,4.542922],[7.521858,4.550108],[7.521604,4.553715],[7.501476,4.56105],[7.498202,4.567726],[7.503556,4.584331],[7.520194,4.593101],[7.561156,4.559841],[7.571358,4.556448],[7.576108,4.564737],[7.621541,4.583022],[7.650009,4.5845],[7.661967,4.596621],[7.690404,4.593108],[7.699996,4.581401],[7.701849,4.568913]]]}},
{"type":"Feature","properties":{},"geometry":{"type":"Polygon","coordinates":[[[7.557875,4.499259],[7.487297,4.464817],[7.476508,4.467596],[7.478245,4.478398],[7.507022,4.497357],[7.551929,4.503001],[7.557875,4.499259]]]}},
{"type":"Feature","properties":{},"geometry":{"type":"Polygon","coordinates":[[[7.51628,4.434691],[7.499641,4.424808],[7.478278,4.425309],[7.480548,4.435278],[7.486807,4.440957],[7.515829,4.44544],[7.51628,4.434691]]]}},
{"type":"Feature","properties":{},"geometry":{"type":"Polygon","coordinates":[[[7.575474,4.476102],[7.544989,4.460765],[7.532809,4.456958],[7.527676,4.460873],[7.544873,4.471857],[7.575474,4.476102]]]}},
{"type":"Feature","properties":{},"geometry":{"type":"Polygon","coordinates":[[[7.563767,4.399459],[7.532899,4.380978],[7.526265,4.380279],[7.52435,4.384475],[7.538764,4.398844],[7.563767,4.399459]]]}},
{"type":"Feature","properties":{},"geometry":{"type":"Polygon","coordinates":[[[7.58818,4.35596],[7.571411,4.323529],[7.556337,4.317572],[7.550556,4.320747],[7.557009,4.344524],[7.580452,4.356932],[7.58818,4.35596]]]}},
{"type":"Feature","properties":{},"geometry":{"type":"Polygon","coordinates":[[[7.761468,4.452921],[7.759744,4.442675],[7.739089,4.408711],[7.710539,4.384546],[7.693361,4.383774],[7.683644,4.375795],[7.669814,4.372831],[7.633945,4.333961],[7.62296,4.330594],[7.606592,4.332466],[7.604997,4.342735],[7.630328,4.390136],[7.654353,4.396532],[7.672447,4.39638],[7.705815,4.431657],[7.729114,4.447031],[7.748779,4.455498],[7.761468,4.452921]]]}},
{"type":"Feature","properties":{},"geometry":{"type":"Polygon","coordinates":[[[7.682452,4.449964],[7.630888,4.405745],[7.617422,4.402132],[7.610081,4.406245],[7.617531,4.418677],[7.641256,4.439905],[7.682452,4.449964]]]}},
{"type":"Feature","properties":{},"geometry":{"type":"Polygon","coordinates":[[[7.648501,4.483266],[7.644184,4.470539],[7.629748,4.459171],[7.607225,4.450441],[7.589365,4.451476],[7.589164,4.458014],[7.621389,4.477154],[7.648501,4.483266]]]}},
{"type":"Feature","properties":{},"geometry":{"type":"Polygon","coordinates":[[[7.677715,4.53021],[7.671783,4.524149],[7.653727,4.523157],[7.642699,4.51526],[7.583051,4.50235],[7.581067,4.508584],[7.586908,4.515529],[7.605958,4.523889],[7.65371,4.535877],[7.669216,4.539031],[7.677715,4.53021]]]}},
{"type":"Feature","properties":{},"geometry":{"type":"Polygon","coordinates":[[[7.736626,4.484177],[7.730309,4.475347],[7.722549,4.471331],[7.678134,4.466071],[7.674292,4.470162],[7.721351,4.487511],[7.736626,4.484177]]]}},
{"type":"Feature","properties":{},"geometry":{"type":"Polygon","coordinates":[[[7.733494,4.540566],[7.723485,4.530651],[7.702518,4.528345],[7.690547,4.534933],[7.701408,4.542047],[7.721777,4.544179],[7.733494,4.540566]]]}},
{"type":"Feature","properties":{},"geometry":{"type":"Polygon","coordinates":[[[7.969275,4.484175],[7.948992,4.485976],[7.926722,4.500676],[7.888106,4.486802],[7.873608,4.4869],[7.859944,4.497333],[7.87567,4.511198],[7.892021,4.514631],[7.906603,4.527003],[7.94398,4.540883],[7.99373,4.574796],[8.004259,4.572471],[8.005045,4.566231],[7.988305,4.541407],[7.985235,4.516488],[7.977299,4.506982],[7.969275,4.484175]]]}},
{"type":"Feature","properties":{},"geometry":{"type":"Polygon","coordinates":[[[7.995352,4.66076],[7.993435,4.653292],[7.96787,4.641003],[7.921573,4.629323],[7.902414,4.61467],[7.850783,4.6044],[7.837804,4.615091],[7.84037,4.626922],[7.860477,4.658591],[7.892272,4.672712],[7.903545,4.685105],[7.918495,4.689988],[7.94961,4.695381],[7.970118,4.691508],[7.986771,4.677656],[7.995352,4.66076]]]}},
{"type":"Feature","properties":{},"geometry":{"type":"Polygon","coordinates":[[[9.107452,10.560619],[9.091335,10.574946],[9.078064,10.594447],[9.081095,10.603272],[9.069758,10.607934],[9.059328,10.621813],[9.059124,10.627524],[9.067022,10.634641],[9.094622,10.647027],[9.098966,10.639674],[9.127635,10.644361],[9.13401,10.616373],[9.148634,10.612857],[9.14592,10.599585],[9.134207,10.585277],[9.131799,10.56675],[9.107452,10.560619]]]}},
{"type":"Feature","properties":{},"geometry":{"type":"Polygon","coordinates":[[[10.35609,11.345475],[10.304021,11.339324],[10.26563,11.351454],[10.249052,11.367701],[10.223578,11.36833],[10.211477,11.375149],[10.190741,11.376591],[10.169389,11.39109],[10.114675,11.393358],[10.066007,11.411311],[10.050927,11.412608],[9.990179,11.439233],[9.977211,11.449796],[9.970946,11.463928],[10.064754,11.47471],[10.115739,11.473466],[10.140403,11.477519],[10.187109,11.494069],[10.223949,11.494085],[10.245849,11.500991],[10.253758,11.514767],[10.257096,11.534245],[10.287858,11.554894],[10.334088,11.552791],[10.364047,11.542715],[10.366415,11.52496],[10.375436,11.508897],[10.384776,11.504934],[10.37142,11.499687],[10.377442,11.477183],[10.418323,11.451929],[10.401771,11.432795],[10.396135,11.39755],[10.391225,11.390224],[10.366363,11.377813],[10.35609,11.345475]]]}},
{"type":"Feature","properties":{},"geometry":{"type":"Polygon","coordinates":[[[9.924006,10.222753],[9.90051,10.224184],[9.861833,10.263229],[9.809663,10.295818],[9.792425,10.318774],[9.762468,10.326862],[9.725598,10.324397],[9.716977,10.327537],[9.717161,10.336139],[9.691738,10.347426],[9.689521,10.369516],[9.685624,10.373542],[9.689623,10.382781],[9.694439,10.384653],[9.696091,10.376147],[9.705969,10.380782],[9.713661,10.397561],[9.742188,10.377951],[9.767328,10.392063],[9.779359,10.40645],[9.792208,10.407007],[9.821536,10.421155],[9.851605,10.418026],[9.891802,10.387053],[9.904281,10.371038],[9.907825,10.354667],[9.919883,10.344879],[9.918763,10.306652],[9.943287,10.261248],[9.943068,10.25131],[9.924006,10.222753]]]}},
{"type":"Feature","properties":{},"geometry":{"type":"Polygon","coordinates":[[[10.17739,9.654648],[10.17401,9.6461],[10.153336,9.647071],[10.123122,9.665079],[10.085808,9.66782],[10.081282,9.675795],[10.058531,9.684239],[10.06348,9.699627],[10.048568,9.707914],[10.045062,9.726394],[10.032228,9.727888],[10.018081,9.736549],[9.987483,9.726024],[9.962491,9.729813],[9.984157,9.730889],[9.985092,9.736783],[9.959879,9.748861],[9.941473,9.749775],[9.924836,9.756786],[9.927033,9.761283],[9.941812,9.763867],[9.932586,9.7813],[9.941595,9.780135],[9.95317,9.759646],[9.964156,9.752424],[9.975714,9.75177],[9.998867,9.741029],[10.003901,9.748564],[9.999995,9.76907],[10.010626,9.772076],[10.010774,9.77906],[10.016789,9.781623],[10.021142,9.795239],[9.993251,9.808984],[9.969689,9.809474],[9.961744,9.81824],[9.940846,9.816789],[9.934691,9.818023],[9.935335,9.820952],[9.953927,9.822288],[9.958766,9.828816],[9.969646,9.828344],[9.974546,9.8265],[9.969595,9.822974],[9.973141,9.817659],[9.991257,9.818655],[10.018059,9.808262],[10.040482,9.811425],[10.044249,9.816586],[10.039835,9.819583],[10.040751,9.826008],[10.046199,9.829207],[10.055747,9.826567],[10.071686,9.829957],[10.08945,9.820887],[10.094725,9.816957],[10.103218,9.788989],[10.113684,9.7838],[10.118153,9.775885],[10.136496,9.731236],[10.148929,9.714134],[10.16947,9.698887],[10.171884,9.690371],[10.193432,9.665906],[10.17739,9.654648]]]}},
{"type":"Feature","properties":{},"geometry":{"type":"Polygon","coordinates":[[[-0.384756,11.625311],[-0.39728,11.613087],[-0.41429,11.622464],[-0.431611,11.622675],[-0.445758,11.639579],[-0.46224,11.640214],[-0.469513,11.647621],[-0.467061,11.654313],[-0.451979,11.664489],[-0.419567,11.674037],[-0.422647,11.683995],[-0.416805,11.689894],[-0.416123,11.703228],[-0.39332,11.704332],[-0.373714,11.690404],[-0.385855,11.6811],[-0.380945,11.659503],[-0.384756,11.625311]]]}},
{"type":"Feature","properties":{},"geometry":{"type":"Polygon","coordinates":[[[5.747317,15.511382],[5.756427,15.489784],[5.744681,15.44658],[5.729252,15.412245],[5.692252,15.413954],[5.683951,15.41968],[5.638206,15.418977],[5.592754,15.442012],[5.595013,15.468232],[5.588067,15.479563],[5.592631,15.483883],[5.608185,15.488723],[5.631036,15.463428],[5.688387,15.463991],[5.692913,15.465184],[5.687832,15.470872],[5.665937,15.471764],[5.647412,15.484482],[5.635339,15.495247],[5.639171,15.50365],[5.655958,15.505258],[5.667275,15.516115],[5.701309,15.516319],[5.714897,15.520527],[5.747317,15.511382]]]}},
{"type":"Feature","properties":{},"geometry":{"type":"Polygon","coordinates":[[[5.725269,15.392425],[5.736537,15.380022],[5.737899,15.361566],[5.72444,15.328581],[5.732673,15.302862],[5.712878,15.29163],[5.699815,15.295194],[5.685069,15.306213],[5.634736,15.299585],[5.626475,15.305382],[5.636924,15.317134],[5.647885,15.313827],[5.694928,15.349443],[5.674813,15.359804],[5.666196,15.340536],[5.649981,15.331354],[5.633916,15.334041],[5.616657,15.34424],[5.618077,15.354847],[5.598552,15.338207],[5.589041,15.350194],[5.598877,15.36445],[5.619041,15.380457],[5.63884,15.367103],[5.645923,15.367021],[5.64923,15.373855],[5.664089,15.377429],[5.666116,15.384904],[5.677119,15.389145],[5.693218,15.388946],[5.713936,15.379918],[5.725269,15.392425]]]}},
{"type":"Feature","properties":{},"geometry":{"type":"Polygon","coordinates":[[[6.081591,15.436276],[6.072914,15.430148],[6.061753,15.430301],[6.054233,15.415234],[6.047366,15.415327],[6.036536,15.41909],[6.035991,15.43024],[6.023691,15.43191],[6.020302,15.443785],[6.034245,15.457751],[6.062212,15.461529],[6.066805,15.452721],[6.056423,15.447449],[6.081591,15.436276]]]}},
{"type":"Feature","properties":{},"geometry":{"type":"Polygon","coordinates":[[[6.048593,15.499197],[6.063493,15.490248],[6.061598,15.478197],[6.054777,15.481621],[6.054917,15.491198],[6.049801,15.493767],[6.037209,15.484364],[6.038358,15.474769],[6.033587,15.471504],[6.017767,15.476305],[6.017894,15.485049],[6.048593,15.499197]]]}},
{"type":"Feature","properties":{},"geometry":{"type":"Polygon","coordinates":[[[5.978086,15.497535],[5.976146,15.492143],[5.955236,15.488389],[5.945954,15.500178],[5.94819,15.506395],[5.971804,15.505659],[5.978086,15.497535]]]}},
{"type":"Feature","properties":{},"geometry":{"type":"Polygon","coordinates":[[[5.856773,15.323699],[5.834985,15.337092],[5.836508,15.343891],[5.786109,15.341302],[5.778713,15.345008],[5.753039,15.374231],[5.749421,15.388519],[5.753255,15.39686],[5.762698,15.399241],[5.771239,15.3958],[5.768977,15.387081],[5.778784,15.381958],[5.786115,15.384364],[5.807104,15.38077],[5.80052,15.370021],[5.811257,15.370305],[5.831561,15.37963],[5.848267,15.376919],[5.819758,15.36395],[5.830839,15.357979],[5.862662,15.362151],[5.872481,15.358274],[5.871926,15.349118],[5.858882,15.336793],[5.867402,15.332099],[5.880739,15.334425],[5.881094,15.329006],[5.872844,15.322031],[5.856773,15.323699]]]}},
{"type":"Feature","properties":{},"geometry":{"type":"Polygon","coordinates":[[[5.907961,15.399121],[5.897365,15.398703],[5.882861,15.384728],[5.87449,15.37956],[5.871083,15.381549],[5.883781,15.412096],[5.908089,15.408283],[5.907961,15.399121]]]}},
{"type":"Feature","properties":{},"geometry":{"type":"Polygon","coordinates":[[[5.903401,15.462213],[5.899594,15.456154],[5.891258,15.453763],[5.869182,15.45155],[5.866072,15.454367],[5.903401,15.462213]]]}},
{"type":"Feature","properties":{},"geometry":{"type":"Polygon","coordinates":[[[5.865783,15.495746],[5.849384,15.490131],[5.846028,15.496007],[5.858152,15.503067],[5.865783,15.495746]]]}},
{"type":"Feature","properties":{},"geometry":{"type":"Polygon","coordinates":[[[5.822383,15.484088],[5.834336,15.457556],[5.826892,15.457651],[5.816481,15.450006],[5.800549,15.452896],[5.797,15.44914],[5.802296,15.444353],[5.795141,15.43861],[5.790497,15.45533],[5.785001,15.456977],[5.79136,15.462041],[5.810894,15.460351],[5.813903,15.471143],[5.819253,15.464412],[5.81321,15.483371],[5.816695,15.486937],[5.822383,15.484088]]]}},
{"type":"Feature","properties":{},"geometry":{"type":"Polygon","coordinates":[[[5.724159,15.581965],[5.746564,15.580102],[5.752831,15.57204],[5.73627,15.566263],[5.699002,15.578348],[5.673259,15.581585],[5.675901,15.586551],[5.698703,15.588349],[5.700895,15.591654],[5.718511,15.587579],[5.724159,15.581965]]]}},
{"type":"Feature","properties":{},"geometry":{"type":"Polygon","coordinates":[[[5.602553,15.554663],[5.577851,15.547728],[5.570603,15.552394],[5.572792,15.555702],[5.561386,15.571664],[5.578415,15.558553],[5.592653,15.562968],[5.602553,15.554663]]]}},
{"type":"Feature","properties":{},"geometry":{"type":"Polygon","coordinates":[[[5.539616,15.537195],[5.540148,15.533856],[5.528629,15.528989],[5.529414,15.522869],[5.546419,15.531285],[5.549233,15.527087],[5.535034,15.5139],[5.520832,15.523803],[5.500799,15.525424],[5.490277,15.53193],[5.500892,15.5332],[5.51389,15.541937],[5.517587,15.539672],[5.513243,15.535834],[5.517236,15.534399],[5.527329,15.539836],[5.539616,15.537195]]]}},
{"type":"Feature","properties":{},"geometry":{"type":"Polygon","coordinates":[[[5.431158,15.295702],[5.441527,15.30142],[5.439516,15.313109],[5.447227,15.311774],[5.460617,15.318712],[5.474724,15.313558],[5.485065,15.316778],[5.48729,15.32342],[5.463329,15.330348],[5.462968,15.336185],[5.480559,15.33516],[5.490917,15.33963],[5.506281,15.331956],[5.524728,15.330911],[5.521559,15.317199],[5.500379,15.304942],[5.493527,15.306269],[5.488731,15.300072],[5.459549,15.300807],[5.443972,15.290143],[5.431158,15.295702]]]}},
{"type":"Feature","properties":{},"geometry":{"type":"Polygon","coordinates":[[[5.585003,15.414382],[5.5888,15.408921],[5.584051,15.406895],[5.570356,15.410801],[5.569575,15.417059],[5.544975,15.407339],[5.531244,15.408328],[5.527723,15.401286],[5.543475,15.389858],[5.556325,15.387213],[5.548551,15.383552],[5.557067,15.377623],[5.56823,15.377496],[5.571757,15.384955],[5.583676,15.376486],[5.584877,15.36939],[5.579265,15.366955],[5.536786,15.369519],[5.529543,15.374184],[5.52632,15.39172],[5.501431,15.393257],[5.490781,15.40046],[5.493067,15.4121],[5.507762,15.419849],[5.509116,15.42525],[5.534366,15.417875],[5.573521,15.42368],[5.583342,15.418985],[5.577279,15.414888],[5.585003,15.414382]]]}},
{"type":"Feature","properties":{},"geometry":{"type":"Polygon","coordinates":[[[5.415724,15.278582],[5.405523,15.287443],[5.393335,15.272571],[5.384747,15.272244],[5.390883,15.28343],[5.405161,15.293279],[5.411137,15.290299],[5.415724,15.278582]]]}},
{"type":"Feature","properties":{},"geometry":{"type":"Polygon","coordinates":[[[5.392756,15.29716],[5.376029,15.298586],[5.369241,15.30574],[5.361323,15.327073],[5.368211,15.328668],[5.372891,15.324869],[5.38085,15.307285],[5.385157,15.30849],[5.386081,15.314314],[5.380977,15.318534],[5.385308,15.321822],[5.396403,15.315871],[5.39503,15.308386],[5.388539,15.303871],[5.392756,15.29716]]]}},
{"type":"Feature","properties":{},"geometry":{"type":"Polygon","coordinates":[[[5.598629,15.331445],[5.595279,15.320861],[5.561891,15.328746],[5.550218,15.322003],[5.542643,15.334587],[5.503649,15.358781],[5.510134,15.362457],[5.528097,15.356624],[5.54534,15.344556],[5.556363,15.350681],[5.580633,15.334157],[5.598629,15.331445]]]}},
{"type":"Feature","properties":{},"geometry":{"type":"Polygon","coordinates":[[[5.579204,15.217313],[5.55029,15.221388],[5.554704,15.213839],[5.548247,15.212037],[5.521929,15.217957],[5.513534,15.215553],[5.508297,15.208113],[5.488355,15.208962],[5.475645,15.22285],[5.518187,15.227999],[5.518261,15.234248],[5.509969,15.240592],[5.516464,15.245517],[5.536319,15.237167],[5.541475,15.237735],[5.53703,15.242784],[5.548704,15.250002],[5.569943,15.249763],[5.571088,15.238027],[5.580719,15.236043],[5.581839,15.222282],[5.579204,15.217313]]]}},
{"type":"Feature","properties":{},"geometry":{"type":"Polygon","coordinates":[[[5.350778,15.223563],[5.349345,15.210453],[5.341609,15.209286],[5.333975,15.199947],[5.307382,15.199016],[5.302467,15.211112],[5.311769,15.211019],[5.308921,15.222127],[5.341165,15.227416],[5.350778,15.223563]]]}},
{"type":"Feature","properties":{},"geometry":{"type":"Polygon","coordinates":[[[5.651166,15.274105],[5.648416,15.24525],[5.636769,15.240386],[5.636354,15.254716],[5.642275,15.262111],[5.639083,15.270979],[5.651166,15.274105]]]}},
{"type":"Feature","properties":{},"geometry":{"type":"Polygon","coordinates":[[[5.335006,15.135603],[5.338786,15.122412],[5.328934,15.109869],[5.319888,15.11195],[5.308693,15.09903],[5.293894,15.106405],[5.280703,15.090275],[5.269452,15.103548],[5.245629,15.107097],[5.228779,15.096424],[5.213818,15.114945],[5.213909,15.123695],[5.198602,15.136968],[5.19933,15.145087],[5.223197,15.150484],[5.229606,15.147922],[5.226895,15.134821],[5.2308,15.119688],[5.240099,15.119596],[5.264429,15.126651],[5.267529,15.143787],[5.27466,15.148714],[5.295318,15.15476],[5.304415,15.162793],[5.319235,15.16452],[5.329434,15.155662],[5.313911,15.148322],[5.313124,15.135121],[5.325861,15.138603],[5.335006,15.135603]]]}},
{"type":"Feature","properties":{},"geometry":{"type":"Polygon","coordinates":[[[5.471498,15.198416],[5.473502,15.186313],[5.485012,15.179938],[5.486377,15.173854],[5.480352,15.135823],[5.440073,15.152091],[5.428636,15.164717],[5.441743,15.185406],[5.457673,15.190232],[5.446577,15.195352],[5.471498,15.198416]]]}},
{"type":"Feature","properties":{},"geometry":{"type":"Polygon","coordinates":[[[5.434702,15.132567],[5.426002,15.121829],[5.440158,15.12209],[5.44438,15.116211],[5.420294,15.110225],[5.442936,15.102477],[5.445857,15.095362],[5.436404,15.093799],[5.405444,15.103444],[5.389865,15.112216],[5.380569,15.124812],[5.38709,15.132542],[5.39518,15.12716],[5.434702,15.132567]]]}},
{"type":"Feature","properties":{},"geometry":{"type":"Polygon","coordinates":[[[5.3532,15.093429],[5.353961,15.08467],[5.335491,15.081949],[5.318249,15.073795],[5.303927,15.058103],[5.304664,15.046845],[5.291439,15.053227],[5.267375,15.048467],[5.271967,15.036752],[5.262964,15.036844],[5.25593,15.061085],[5.246501,15.061597],[5.248335,15.072829],[5.268559,15.079292],[5.275086,15.086717],[5.276693,15.077959],[5.269381,15.075949],[5.275323,15.070055],[5.298921,15.071071],[5.277587,15.081283],[5.282563,15.090256],[5.297809,15.087333],[5.303433,15.091862],[5.296889,15.081509],[5.304978,15.076012],[5.317915,15.082548],[5.318911,15.095314],[5.335117,15.086953],[5.3532,15.093429]]]}},
{"type":"Feature","properties":{},"geometry":{"type":"Polygon","coordinates":[[[5.455625,15.088175],[5.457245,15.067325],[5.450487,15.050313],[5.431397,15.030521],[5.417713,15.033586],[5.428133,15.04514],[5.414651,15.050459],[5.397668,15.081301],[5.404542,15.082479],[5.408704,15.071184],[5.42818,15.049306],[5.438469,15.049194],[5.428393,15.068053],[5.437287,15.058373],[5.44589,15.062862],[5.445966,15.069528],[5.435762,15.075056],[5.455625,15.088175]]]}},
{"type":"Feature","properties":{},"geometry":{"type":"Polygon","coordinates":[[[5.789188,14.953231],[5.760106,14.946162],[5.770178,14.929792],[5.758586,14.927852],[5.740489,14.947508],[5.732346,14.93078],[5.725513,14.932527],[5.719172,14.927973],[5.7072,14.960329],[5.697546,14.965073],[5.709982,14.969554],[5.69615,14.975273],[5.706501,14.980519],[5.710217,14.988251],[5.716796,14.981324],[5.753611,14.970704],[5.758472,14.963609],[5.751561,14.959251],[5.726002,14.95622],[5.725715,14.96363],[5.720748,14.962392],[5.720278,14.955362],[5.728224,14.951195],[5.723004,14.944962],[5.728133,14.943976],[5.741377,14.952151],[5.755813,14.949201],[5.758206,14.957688],[5.779779,14.961865],[5.77091,14.968269],[5.77668,14.972641],[5.774045,14.975081],[5.75159,14.976468],[5.747051,14.978929],[5.750873,14.979995],[5.74769,14.98429],[5.779419,14.978532],[5.775769,14.983601],[5.745478,14.990056],[5.731865,14.997994],[5.751933,15.00331],[5.761765,14.997635],[5.765602,14.999809],[5.763648,15.010757],[5.769564,15.011609],[5.770661,15.008078],[5.778418,15.01872],[5.776606,15.011151],[5.783878,15.013838],[5.787528,15.016199],[5.786472,15.022877],[5.792892,15.01854],[5.778631,15.005757],[5.779333,15.00112],[5.7895,15.006733],[5.797037,15.000347],[5.806072,15.006709],[5.806217,15.003197],[5.78685,14.99325],[5.797462,14.959797],[5.78481,14.964394],[5.789188,14.953231]]]}},
{"type":"Feature","properties":{},"geometry":{"type":"Polygon","coordinates":[[[5.666201,14.948322],[5.668875,14.922044],[5.657355,14.925926],[5.650842,14.918919],[5.644416,14.918993],[5.640341,14.936119],[5.650287,14.943505],[5.666201,14.948322]]]}},
{"type":"Feature","properties":{},"geometry":{"type":"Polygon","coordinates":[[[5.662876,14.956692],[5.641952,14.962764],[5.646528,14.951464],[5.631062,14.948306],[5.635811,14.951169],[5.630746,14.957476],[5.637571,14.954899],[5.634734,14.968262],[5.652762,14.970556],[5.656262,14.976348],[5.633285,14.989942],[5.633755,14.99327],[5.665713,14.976285],[5.66643,14.959151],[5.662876,14.956692]]]}},
{"type":"Feature","properties":{},"geometry":{"type":"Polygon","coordinates":[[[5.670331,14.989655],[5.655879,14.991675],[5.654458,15.000023],[5.647813,15.001765],[5.62489,14.996658],[5.640099,15.009631],[5.655112,15.006681],[5.662782,15.010666],[5.67725,15.007532],[5.670671,15.001685],[5.670331,14.989655]]]}},
{"type":"Feature","properties":{},"geometry":{"type":"Polygon","coordinates":[[[5.642344,15.025667],[5.632481,15.025363],[5.63042,15.032052],[5.634752,15.035753],[5.642344,15.025667]]]}},
{"type":"Feature","properties":{},"geometry":{"type":"Polygon","coordinates":[[[5.859008,14.95548],[5.836742,14.957512],[5.836792,14.961261],[5.875219,14.971603],[5.860985,14.964485],[5.859008,14.95548]]]}},
{"type":"Feature","properties":{},"geometry":{"type":"Polygon","coordinates":[[[5.609564,15.065876],[5.59948,15.067105],[5.580187,15.078995],[5.601307,15.060604],[5.596689,15.056954],[5.577715,15.063654],[5.58355,15.057662],[5.58464,15.053206],[5.581009,15.052322],[5.57462,15.0598],[5.571537,15.088722],[5.566333,15.099704],[5.583769,15.091545],[5.585787,15.085041],[5.601186,15.082083],[5.610213,15.072164],[5.609564,15.065876]]]}},
{"type":"Feature","properties":{},"geometry":{"type":"Polygon","coordinates":[[[5.563702,15.116746],[5.540012,15.112195],[5.54809,15.102292],[5.533853,15.105648],[5.526878,15.099027],[5.522335,15.100172],[5.519831,15.114088],[5.503562,15.124642],[5.544349,15.124183],[5.546981,15.137115],[5.563702,15.116746]]]}},
{"type":"Feature","properties":{},"geometry":{"type":"Polygon","coordinates":[[[5.810219,15.061976],[5.801592,15.057915],[5.813895,15.057187],[5.804095,15.052608],[5.7838,15.052301],[5.804345,15.03761],[5.802122,15.032915],[5.781913,15.038995],[5.777588,15.035994],[5.782062,15.028441],[5.773152,15.024386],[5.768402,15.032776],[5.756142,15.034872],[5.767338,15.038899],[5.765963,15.043082],[5.775164,15.04741],[5.760321,15.048706],[5.752395,15.054635],[5.767575,15.057225],[5.763075,15.062835],[5.765743,15.070301],[5.774681,15.076298],[5.770231,15.085796],[5.774847,15.089071],[5.816086,15.082446],[5.788086,15.074187],[5.785384,15.064223],[5.810219,15.061976]]]}},
{"type":"Feature","properties":{},"geometry":{"type":"Polygon","coordinates":[[[5.910292,15.118195],[5.939385,15.113653],[5.939156,15.117821],[5.947173,15.118825],[5.947363,15.111881],[5.963288,15.106117],[5.953922,15.090136],[5.953816,15.103188],[5.940985,15.105302],[5.936576,15.096474],[5.927996,15.096032],[5.910695,15.084868],[5.909319,15.088773],[5.915678,15.093968],[5.907783,15.101843],[5.923199,15.100537],[5.92467,15.103572],[5.907328,15.110457],[5.899107,15.094456],[5.904142,15.08634],[5.887951,15.093764],[5.878179,15.089721],[5.900573,15.076111],[5.888865,15.076814],[5.877521,15.083343],[5.864313,15.078792],[5.868549,15.096232],[5.882051,15.101336],[5.8819,15.111334],[5.897096,15.114752],[5.90363,15.132719],[5.91813,15.12698],[5.918061,15.121983],[5.910653,15.123743],[5.910292,15.118195]]]}},
{"type":"Feature","properties":{},"geometry":{"type":"Polygon","coordinates":[[[5.879055,15.048613],[5.878965,15.04195],[5.861924,15.049665],[5.869971,15.053172],[5.879055,15.048613]]]}},
{"type":"Feature","properties":{},"geometry":{"type":"Polygon","coordinates":[[[5.890046,15.058471],[5.88573,15.056305],[5.875245,15.062823],[5.87691,15.059192],[5.867196,15.059316],[5.866714,15.065987],[5.87903,15.068051],[5.890046,15.058471]]]}},
{"type":"Feature","properties":{},"geometry":{"type":"Polygon","coordinates":[[[5.966949,14.98688],[5.944025,14.99551],[5.948071,14.998974],[5.95984,14.996227],[5.954834,15.006105],[5.944083,15.013651],[5.952159,15.019283],[5.964445,15.012458],[5.968861,15.001294],[5.977191,14.997669],[5.966949,14.98688]]]}},
{"type":"Feature","properties":{},"geometry":{"type":"Polygon","coordinates":[[[6.037037,15.081748],[6.015551,15.077875],[5.992312,15.091785],[5.976334,15.09366],[5.967128,15.089338],[5.964912,15.094364],[5.992198,15.104005],[6.005061,15.104114],[6.009559,15.098779],[6.000681,15.097507],[6.002329,15.092765],[6.011699,15.088477],[6.01631,15.091192],[6.019942,15.085313],[6.036235,15.085645],[6.037037,15.081748]]]}},
{"type":"Feature","properties":{},"geometry":{"type":"Polygon","coordinates":[[[5.979306,15.04031],[5.976388,15.035905],[5.965274,15.037992],[5.969049,15.042387],[5.979306,15.04031]]]}},
{"type":"Feature","properties":{},"geometry":{"type":"Polygon","coordinates":[[[5.962344,15.032754],[5.963124,15.027191],[5.958272,15.027532],[5.956608,15.031164],[5.962344,15.032754]]]}},
{"type":"Feature","properties":{},"geometry":{"type":"Polygon","coordinates":[[[5.995383,15.004837],[6.002064,14.992256],[6.023487,15.012518],[6.027716,15.008573],[6.014172,15.000149],[6.016078,14.99346],[6.028244,14.985243],[6.022514,14.983932],[6.027251,14.975538],[6.025194,14.971401],[5.999732,14.968407],[5.977236,14.973419],[5.98668,14.995232],[5.98487,14.999421],[5.990825,15.00573],[5.995383,15.004837]]]}},
{"type":"Feature","properties":{},"geometry":{"type":"Polygon","coordinates":[[[6.01795,15.169088],[6.005009,15.183976],[6.005959,15.210618],[6.012931,15.2183],[6.04456,15.210648],[6.029051,15.205864],[6.038965,15.199342],[6.035448,15.193282],[6.050958,15.178354],[6.035464,15.174401],[6.026083,15.17814],[6.030176,15.164478],[6.01795,15.169088]]]}},
{"type":"Feature","properties":{},"geometry":{"type":"Polygon","coordinates":[[[6.072887,15.251357],[6.0731,15.246356],[6.035823,15.239366],[6.033698,15.230789],[6.021745,15.23484],[6.023346,15.246758],[6.055775,15.254642],[6.053112,15.268283],[6.058646,15.27515],[6.074664,15.275209],[6.074886,15.270764],[6.062179,15.26233],[6.062923,15.254546],[6.072887,15.251357]]]}},
{"type":"Feature","properties":{},"geometry":{"type":"Polygon","coordinates":[[[5.84653,15.273515],[5.858786,15.264957],[5.878188,15.269696],[5.891075,15.265714],[5.899906,15.25142],[5.933468,15.251701],[5.941389,15.265965],[5.928249,15.293004],[5.946832,15.287134],[5.956555,15.291948],[5.962338,15.306318],[5.970906,15.305555],[5.973163,15.283035],[5.9839,15.268525],[5.967681,15.259366],[5.973992,15.250537],[5.964836,15.240037],[5.952013,15.243331],[5.945387,15.229675],[5.929939,15.229257],[5.927871,15.219287],[5.934208,15.21233],[5.921334,15.211873],[5.867539,15.230681],[5.848705,15.217805],[5.817213,15.220699],[5.810301,15.23328],[5.814897,15.240097],[5.815105,15.255715],[5.838965,15.259166],[5.831394,15.270507],[5.84653,15.273515]]]}},
{"type":"Feature","properties":{},"geometry":{"type":"Polygon","coordinates":[[[3.081325,9.519418],[3.080376,9.504875],[3.07045,9.494438],[3.052492,9.484708],[3.039261,9.48377],[3.032647,9.496438],[3.049661,9.517547],[3.081325,9.519418]]]}}
]
}
